{"type":"FeatureCollection","name":"burma-1931-dissolved","crs":{"type":"name","properties":{"name":"urn:ogc:def:crs:OGC:1.3:CRS84"}},"source":"Traced from the 1945 OSS map held at Stanford as bv890bn4231","note":"Burma dissolved from its 90 units, interior gaps filled. the divisions and districts of Burma, drawn from the Imperial Gazetteer of India, Atlas: 1931, digitised by the University of Chicago Digital South Asia Library","features":[{"type":"Feature","properties":{"name":"Burma","km2":666149.3},"geometry":{"type":"MultiPolygon","coordinates":[[[[97.1055976,27.1548335],[97.1115,27.14883],[97.1293364,27.1378011],[97.1295,27.1377],[97.135,27.12747],[97.1191671,27.0872883],[97.1146002,27.0371366],[97.1071045,26.9696756],[97.127093,26.9147073],[97.14958,26.8472462],[97.1071045,26.9696756],[97.119,27.08741],[97.106,27.08252],[97.0899183,27.0921976],[97.077,27.09632],[97.038,27.08697],[97.003,27.11456],[96.8653325,27.1716242],[96.8425,27.18842],[96.841768,27.2043871],[96.8595,27.24089],[96.854,27.24889],[96.8215,27.27289],[96.8099353,27.2857775],[96.789,27.31777],[96.7763457,27.3306326],[96.758879,27.3417431],[96.7241525,27.3562641],[96.7052389,27.36076],[96.6875,27.36174],[96.6758867,27.3576594],[96.659,27.34131],[96.6490149,27.3362137],[96.6364059,27.3355419],[96.614,27.34841],[96.5868999,27.353577],[96.576,27.34531],[96.5475,27.30666],[96.4900582,27.2907384],[96.408,27.29822],[96.1425,27.25733],[96.013,27.19064],[95.889,27.02686],[95.777957,26.9951492],[95.686,26.89137],[95.6245,26.88067],[95.5913017,26.8237385],[95.5315,26.82045],[95.49,26.81063],[95.44,26.73519],[95.3926575,26.6917569],[95.2605726,26.6476252],[95.2048654,26.6675723],[95.1415,26.62484],[95.1158785,26.57564],[95.07,26.50633],[95.0425,26.45978],[95.0617216,26.4266051],[95.0642021,26.392602],[95.0435,26.32766],[95.0463221,26.2479597],[95.0663725,26.211011],[95.0897303,26.1876016],[95.0785,26.17115],[95.1015,26.0935],[95.1374793,26.0829568],[95.1395463,26.0299368],[95.108,25.99512],[95.066,25.95376],[95.0850901,25.9725592],[95.0658558,25.9538174],[95.0494226,25.9437405],[95.0120089,25.9314415],[95.0006401,25.9220364],[94.9940255,25.9004357],[94.9931987,25.8809537],[95.0134559,25.7777042],[95.0153162,25.7551216],[95.008805,25.7371382],[94.9999166,25.7315571],[94.9786259,25.7290766],[94.9785,25.72921],[94.9690141,25.7256143],[94.9614694,25.7179662],[94.8716557,25.5980252],[94.8680384,25.5947179],[94.8574964,25.5893436],[94.8534656,25.5860363],[94.8529489,25.5807653],[94.8610104,25.5714118],[94.861,25.57146],[94.8602869,25.5671744],[94.8507784,25.5627819],[94.831038,25.5624718],[94.8223564,25.5591129],[94.8079904,25.5426281],[94.7823588,25.5045942],[94.7825,25.50469],[94.7643754,25.4916751],[94.7457719,25.4866108],[94.7111487,25.4827868],[94.6920284,25.4763272],[94.692,25.47625],[94.6594723,25.4555016],[94.65036,25.4466497],[94.6305335,25.4273896],[94.6080026,25.3946268],[94.5681534,25.2779083],[94.550125,25.2452819],[94.5533289,25.2041474],[94.5768934,25.1736067],[94.577,25.17345],[94.6129635,25.1613594],[94.6532711,25.1541247],[94.6535,25.15399],[94.6891346,25.1385184],[94.7068079,25.1099413],[94.7138359,25.0682643],[94.714,25.06842],[94.7085649,25.0258896],[94.7085,25.02584],[94.6897547,24.9950904],[94.6735283,24.9748074],[94.6735,24.97463],[94.6548214,24.8891537],[94.6391118,24.8627988],[94.5990109,24.8134736],[94.5815442,24.7301195],[94.5695,24.71647],[94.5163286,24.7049531],[94.4749874,24.5973886],[94.4184534,24.5603108],[94.397,24.49508],[94.3705,24.47779],[94.3611959,24.4254094],[94.3285,24.38856],[94.3315,24.37126],[94.3307068,24.3628551],[94.3236788,24.3546644],[94.3028016,24.3410218],[94.2953601,24.3325986],[94.2899858,24.3167597],[94.2868852,24.2830667],[94.2827511,24.2664269],[94.2339685,24.1603352],[94.2221863,24.1226372],[94.2184656,24.0866704],[94.2141248,24.069178],[94.2036862,24.0577575],[94.1991386,24.048094],[94.1938676,24.0096725],[94.1902503,23.9952807],[94.1448784,23.9388758],[94.1350599,23.9190062],[94.1336129,23.8991625],[94.1350599,23.8773034],[94.1318559,23.8569687],[94.132,23.85693],[94.1288593,23.8539049],[94.1345439,23.8435578],[94.0853471,23.8575113],[93.998,23.91682],[93.8831889,23.9453096],[93.8037106,23.9360595],[93.743,23.99542],[93.6604635,24.0112228],[93.581812,23.9795969],[93.4955,23.95932],[93.4490035,23.9689257],[93.3375892,23.9284114],[93.375,23.7389],[93.4325,23.64733],[93.36875,23.2645833],[93.3729167,23.2604167],[93.3729167,23.2520833],[93.3770833,23.2479167],[93.3770833,23.24375],[93.38125,23.2395833],[93.38125,23.2270833],[93.3895833,23.21875],[93.3854167,23.2145833],[93.38125,23.2145833],[93.3770833,23.2104167],[93.3770833,23.2020833],[93.38125,23.1979167],[93.3770833,23.19375],[93.3770833,23.1895833],[93.38125,23.1854167],[93.3729167,23.1770833],[93.3729167,23.1729167],[93.3729167,23.15625],[93.36875,23.1520833],[93.36875,23.1479167],[93.36875,23.14375],[93.3729167,23.1395833],[93.3770833,23.14375],[93.38125,23.14375],[93.3854167,23.1395833],[93.3854167,23.1354167],[93.38125,23.13125],[93.3770833,23.13125],[93.3645833,23.11875],[93.3604167,23.1145833],[93.35625,23.1104167],[93.35625,23.10625],[93.35625,23.1020833],[93.3520833,23.0979167],[93.3520833,23.09375],[93.3479167,23.09375],[93.34375,23.0895833],[93.34375,23.0770833],[93.3479167,23.0729167],[93.3395833,23.0645833],[93.3395833,23.0604167],[93.3354167,23.05625],[93.3354167,23.0520833],[93.3270833,23.04375],[93.3270833,23.0395833],[93.31875,23.03125],[93.31875,23.0270833],[93.3104167,23.01875],[93.30625,23.0229167],[93.3020833,23.01875],[93.3020833,23.0145833],[93.29375,23.00625],[93.2895833,23.00625],[93.2854167,23.0104167],[93.28125,23.00625],[93.2729167,23.00625],[93.26875,23.0104167],[93.2604167,23.0104167],[93.25625,23.00625],[93.24375,23.00625],[93.2395833,23.0104167],[93.2354167,23.0104167],[93.23125,23.0145833],[93.2229167,23.0229167],[93.21875,23.0270833],[93.21875,23.03125],[93.2145833,23.0354167],[93.2145833,23.0395833],[93.20625,23.0479167],[93.1979167,23.05625],[93.1895833,23.05625],[93.1854167,23.0604167],[93.18125,23.0604167],[93.1770833,23.05625],[93.16875,23.0479167],[93.1604167,23.0479167],[93.15625,23.04375],[93.1479167,23.0520833],[93.14375,23.0520833],[93.1395833,23.05625],[93.1354167,23.05625],[93.1354167,23.0520833],[93.1270833,23.04375],[93.1270833,23.0354167],[93.1270833,23.0229167],[93.1270833,23.01875],[93.1229167,23.0145833],[93.1229167,23.0020833],[93.1270833,22.9979167],[93.13125,22.99375],[93.1354167,22.99375],[93.1395833,22.9895833],[93.1395833,22.98125],[93.14375,22.9770833],[93.1395833,22.9729167],[93.1354167,22.96875],[93.1354167,22.9645833],[93.1395833,22.9604167],[93.1395833,22.9520833],[93.14375,22.9479167],[93.1479167,22.94375],[93.14375,22.9395833],[93.14375,22.9354167],[93.1479167,22.93125],[93.1479167,22.9270833],[93.15625,22.91875],[93.1604167,22.91875],[93.1645833,22.9145833],[93.1604167,22.9104167],[93.1479167,22.9104167],[93.14375,22.9145833],[93.1395833,22.9145833],[93.13125,22.90625],[93.13125,22.8979167],[93.1354167,22.89375],[93.13125,22.8895833],[93.13125,22.8854167],[93.13125,22.88125],[93.1270833,22.8770833],[93.1270833,22.8729167],[93.11875,22.8645833],[93.11875,22.8395833],[93.1145833,22.8354167],[93.1145833,22.83125],[93.10625,22.8229167],[93.1104167,22.81875],[93.0979167,22.80625],[93.0979167,22.79375],[93.09375,22.7895833],[93.0979167,22.7854167],[93.0979167,22.7770833],[93.1020833,22.7729167],[93.1020833,22.7645833],[93.10625,22.7604167],[93.10625,22.74375],[93.1020833,22.7395833],[93.1020833,22.7354167],[93.0979167,22.73125],[93.0979167,22.71875],[93.09375,22.7145833],[93.09375,22.70625],[93.09375,22.7020833],[93.0979167,22.6979167],[93.0979167,22.6895833],[93.0979167,22.6854167],[93.09375,22.68125],[93.09375,22.6770833],[93.1020833,22.66875],[93.1020833,22.6645833],[93.1104167,22.65625],[93.1104167,22.64375],[93.10625,22.6395833],[93.1020833,22.64375],[93.0979167,22.6395833],[93.0979167,22.63125],[93.0961505,22.6294839],[93.1044251,22.6159333],[93.1105229,22.596348],[93.109076,22.5746955],[93.1005588,22.54375],[93.0982239,22.5352664],[93.0991541,22.5119603],[93.1020833,22.5027231],[93.1095927,22.4790425],[93.117861,22.4628677],[93.1245367,22.45625],[93.1354167,22.4454647],[93.1535177,22.4275211],[93.16592,22.3865933],[93.1671946,22.36875],[93.170076,22.3284094],[93.1710636,22.3145833],[93.1742916,22.2693912],[93.1736715,22.2594176],[93.1693943,22.2479167],[93.1690206,22.2469119],[93.16875,22.2467586],[93.1612692,22.2425194],[93.1514506,22.2409691],[93.1403534,22.2361868],[93.1295,22.23147],[93.125,22.2324],[93.1235,22.23054],[93.123,22.21851],[93.1415,22.18749],[93.1195,22.18101],[93.1045,22.18703],[93.0905,22.19722],[93.0725,22.20231],[93.046,22.20694],[93.0365,22.20601],[93.0245,22.20185],[93.0225,22.19629],[93.024,22.18888],[93.0225,22.12081],[93.0255,22.11294],[93.0075,22.10599],[92.995,22.10321],[92.9855,22.0958],[92.967,22.0629],[92.9655,22.04946],[92.9685,22.03602],[92.978,22.01655],[92.98,22.00218],[92.979,21.99523],[92.975,21.99106],[92.968,21.98735],[92.9615,21.98688],[92.9555,21.98966],[92.9375,22.01284],[92.921,22.02165],[92.906,22.01748],[92.889,21.96695],[92.8775,21.95721],[92.867,21.96648],[92.862,21.99523],[92.854,22.02397],[92.836,22.04668],[92.7715,22.10413],[92.708,22.14814],[92.684,22.15416],[92.674,22.14721],[92.671,22.13378],[92.6745,22.10552],[92.674,22.09533],[92.6695,22.09255],[92.662,22.09487],[92.656,22.07541],[92.6585,22.03278],[92.651,22.01933],[92.64,22.01331],[92.6275,22.01238],[92.6155,22.00867],[92.598,21.9892],[92.584,21.98039],[92.576,21.97761],[92.59,21.91732],[92.593,21.8867],[92.5755,21.73398],[92.59,21.49551],[92.5925,21.47039],[92.6035,21.42013],[92.639,21.31862],[92.643,21.29859],[92.634,21.28229],[92.6145,21.26318],[92.591,21.24874],[92.5705,21.24734],[92.5585,21.25992],[92.5515,21.28042],[92.544,21.32095],[92.5245,21.361],[92.4985,21.36659],[92.4655,21.35961],[92.423,21.3638],[92.4005,21.37078],[92.3895,21.37637],[92.381,21.38475],[92.374,21.40244],[92.372,21.4192],[92.368,21.43549],[92.3545,21.45178],[92.3225,21.46201],[92.2845,21.4192],[92.253,21.41966],[92.2365,21.41687],[92.225,21.39732],[92.2115,21.35495],[92.1835,21.31723],[92.1785,21.29952],[92.178,21.27996],[92.185,21.24035],[92.184,21.22077],[92.175,21.17556],[92.181,21.15784],[92.1885,21.14432],[92.212,21.12333],[92.2245,21.09301],[92.265,21.06128],[92.2705,21.04915],[92.281,20.95953],[92.288,20.94365],[92.3055,20.9175],[92.3605,20.76704],[92.371,20.72121],[92.381,20.70017],[92.398,20.69128],[92.4085,20.68801],[92.429,20.67397],[92.4535,20.66836],[92.4595,20.66275],[92.463,20.65386],[92.4705,20.64356],[92.507,20.6094],[92.52,20.58975],[92.529,20.5434],[92.54,20.52748],[92.6325,20.44645],[92.653,20.41834],[92.697,20.30818],[92.7065,20.29271],[92.724,20.2716],[92.731,20.25941],[92.7395,20.27958],[92.731,20.38272],[92.7385,20.42818],[92.7375,20.44458],[92.717,20.49985],[92.7085,20.57851],[92.7045,20.58928],[92.6595,20.65292],[92.635,20.69783],[92.663,20.67912],[92.6995,20.6197],[92.7205,20.59209],[92.7365,20.56306],[92.7415,20.52935],[92.751,20.49845],[92.779,20.47831],[92.7585,20.47222],[92.7695,20.45488],[92.7855,20.46285],[92.7965,20.48393],[92.7925,20.50641],[92.8155,20.50454],[92.827,20.49517],[92.8315,20.47878],[92.8405,20.39022],[92.847,20.37757],[92.8565,20.36772],[92.8805,20.34897],[92.8875,20.34007],[92.8895,20.3335],[92.8935,20.32975],[92.9255,20.32788],[92.934,20.326],[92.943,20.32131],[92.901,20.30818],[92.864,20.30068],[92.7995,20.25941],[92.7865,20.2458],[92.778,20.23173],[92.7735,20.21672],[92.772,20.2017],[92.783,20.18997],[92.8465,20.14304],[92.8605,20.12473],[92.8675,20.12191],[92.8805,20.12332],[92.8895,20.12801],[92.8985,20.13552],[92.936,20.21202],[92.995,20.28661],[93.0165,20.32506],[93.025,20.36866],[93.02,20.42396],[93.0225,20.45254],[93.0355,20.47503],[93.049,20.49189],[93.0605,20.51343],[93.0685,20.53591],[93.0735,20.55464],[93.0855,20.5331],[93.0705,20.49611],[93.032,20.43099],[93.031,20.40944],[93.034,20.38413],[93.043,20.36491],[93.0595,20.3621],[93.0725,20.37663],[93.082,20.41693],[93.1005,20.43099],[93.0915,20.38085],[93.081,20.35835],[93.056,20.34897],[93.0415,20.3321],[93.019,20.25659],[93.001,20.23924],[92.9875,20.18668],[92.9905,20.15477],[93.0185,20.15008],[93.0475,20.16791],[93.089,20.21015],[93.121,20.21812],[93.121,20.21202],[93.1155,20.20264],[93.094,20.15008],[93.087,20.15008],[93.0865,20.15665],[93.08,20.17026],[93.0645,20.14726],[93.0545,20.13459],[93.0425,20.12942],[92.9885,20.1252],[92.97,20.12942],[92.974,20.11722],[92.976,20.08763],[92.9805,20.07777],[92.9915,20.06744],[93.0115,20.0402],[93.0385,20.01295],[93.0485,19.99463],[93.0525,19.96831],[93.0595,19.95093],[93.1125,19.8743],[93.125,19.84655],[93.1345,19.83385],[93.149,19.82915],[93.169,19.80751],[93.169,19.80939],[93.156,19.82774],[93.1475,19.83291],[93.1345,19.84843],[93.13,19.86254],[93.1245,19.89405],[93.106,19.93071],[93.102,19.96408],[93.109,19.99369],[93.1315,20.00637],[93.148,19.99416],[93.1605,19.96643],[93.1765,19.91661],[93.2015,19.86301],[93.2175,19.83715],[93.2385,19.82115],[93.236,19.84702],[93.1765,19.95751],[93.156,20.02658],[93.1365,20.05946],[93.13,20.07495],[93.1285,20.09468],[93.136,20.08153],[93.1475,20.06979],[93.1615,20.0604],[93.1765,20.05382],[93.1905,20.06462],[93.215,20.05946],[93.2445,20.05006],[93.2725,20.04771],[93.294,20.05429],[93.313,20.06556],[93.3265,20.08106],[93.334,20.10219],[93.3405,20.10219],[93.356,20.03832],[93.362,20.02658],[93.3653404,20.0363896],[93.3745,20.05053],[93.375,20.08857],[93.3825,20.08857],[93.4729883,20.135617],[93.4979739,20.1655997],[93.3825,20.08857],[93.384,20.06462],[93.4045,20.01295],[93.4135,19.97771],[93.423,19.96549],[93.4355,19.95516],[93.4465,19.9514],[93.457,19.95422],[93.463,19.96174],[93.4705,19.98476],[93.492,19.96502],[93.496,19.97724],[93.5035,19.98617],[93.5255,19.99933],[93.532,19.98476],[93.517,19.981],[93.512,19.97066],[93.517,19.95845],[93.532,19.9514],[93.5185,19.93965],[93.529,19.93024],[93.566,19.91661],[93.5465,19.90298],[93.5545,19.89405],[93.5665,19.88605],[93.5805,19.88135],[93.594,19.88229],[93.601,19.8884],[93.6115,19.9105],[93.638,19.9105],[93.6565,19.91614],[93.7075,19.91661],[93.7115,19.91943],[93.7115,19.934],[93.7175,19.93777],[93.726,19.93683],[93.7335,19.93212],[93.74,19.92507],[93.7455,19.91661],[93.7305,19.91426],[93.7255,19.9058],[93.729,19.89358],[93.738,19.88229],[93.704,19.88511],[93.68,19.88323],[93.6605,19.87101],[93.6065,19.79622],[93.6015,19.78352],[93.6015,19.71858],[93.6155,19.72376],[93.6235,19.73364],[93.6355,19.75952],[93.636,19.73505],[93.6485,19.72517],[93.6935,19.7247],[93.7025,19.73458],[93.709,19.75388],[93.722,19.76893],[93.7515,19.76564],[93.742,19.75388],[93.719,19.74352],[93.7115,19.73176],[93.7095,19.7134],[93.713,19.69787],[93.721,19.68516],[93.731,19.67762],[93.761,19.6748],[93.784,19.69128],[93.799,19.71764],[93.807,19.74588],[93.813,19.73929],[93.8275,19.71858],[93.816,19.70352],[93.8025,19.68892],[93.7945,19.67339],[93.8,19.65644],[93.7785,19.66256],[93.756,19.66115],[93.7385,19.65126],[93.731,19.63242],[93.7395,19.61735],[93.777,19.60322],[93.7855,19.59144],[93.7945,19.57119],[93.8145,19.55281],[93.855,19.5269],[93.882,19.50192],[93.8925,19.49862],[93.916,19.49909],[93.927,19.49721],[93.9375,19.49202],[93.919,19.48448],[93.9145,19.4727],[93.924,19.46232],[93.947,19.45808],[93.9845,19.46421],[93.991,19.45714],[93.99,19.4496],[93.9845,19.43734],[93.988,19.4048],[93.9875,19.38688],[93.981,19.37226],[93.964,19.3482],[93.95,19.34159],[93.949,19.33782],[93.95,19.32083],[93.93,19.2996],[93.8655,19.25429],[93.834,19.23824],[93.797,19.23541],[93.7545,19.24721],[93.723,19.26845],[93.7175,19.29346],[93.6875,19.29677],[93.6655,19.30573],[93.6215,19.33452],[93.637,19.34914],[93.631,19.37226],[93.6115,19.40338],[93.577,19.40338],[93.568,19.40669],[93.5605,19.42366],[93.553,19.43074],[93.53,19.43215],[93.508,19.42272],[93.491,19.40763],[93.484,19.39254],[93.483,19.35056],[93.487,19.33357],[93.498,19.31376],[93.5565,19.23824],[93.567,19.23116],[93.594,19.17686],[93.6075,19.16222],[93.6425,19.13435],[93.649,19.11876],[93.655,19.09703],[93.671,19.06679],[93.6675,19.0441],[93.6695,19.03276],[93.679,19.01952],[93.686,19.01811],[93.6935,19.02047],[93.704,19.01858],[93.715,19.01007],[93.7345,18.98123],[93.7505,18.97036],[93.794,18.9538],[93.8135,18.94387],[93.8655,18.89563],[93.9075,18.88191],[93.9205,18.86724],[93.9305,18.85873],[93.944,18.86819],[93.939,18.87623],[93.9375,18.88948],[93.95,18.89563],[93.974,18.92259],[93.9835,18.95664],[93.9845,18.96799],[93.981,18.98076],[93.9645,19.00109],[93.958,19.01196],[93.9525,19.03229],[93.95,19.09845],[93.9555,19.11829],[93.9555,19.12679],[93.947,19.13907],[93.915,19.16978],[93.91,19.17686],[93.9105,19.19103],[93.916,19.20378],[93.9255,19.21039],[93.9375,19.20472],[93.941,19.1948],[93.9425,19.16978],[93.947,19.15986],[93.9735,19.14616],[93.9945,19.15891],[94.0105,19.18017],[94.022,19.19103],[94.0335,19.20472],[94.033,19.23494],[94.025,19.28639],[94.0305,19.31612],[94.057,19.36329],[94.067,19.38876],[94.074,19.37367],[94.0695,19.35103],[94.06,19.3298],[94.05,19.32083],[94.046,19.30479],[94.053,19.22125],[94.0505,19.2085],[94.0325,19.1693],[94.032,19.15419],[94.039,19.12207],[94.0345,19.10601],[94.029,19.09561],[94.0305,19.08805],[94.0465,19.08096],[94.0565,19.08096],[94.08,19.08758],[94.094,19.08758],[94.087,19.08049],[94.06,19.06348],[94.066,19.04268],[94.053,19.02236],[94.051,19.0148],[94.041,18.99778],[94.039,18.98501],[94.0405,18.9713],[94.053,18.93631],[94.0365,18.91786],[94.032,18.88853],[94.038,18.8592],[94.053,18.84075],[94.067,18.84832],[94.0785,18.83317],[94.0985,18.82182],[94.1195,18.81661],[94.135,18.8204],[94.1335,18.83175],[94.1335,18.84642],[94.138,18.86015],[94.149,18.86819],[94.1475,18.8398],[94.153,18.82087],[94.183,18.78584],[94.2125,18.74182],[94.228,18.73566],[94.2525,18.75223],[94.2795,18.7385],[94.2115,18.72572],[94.1745,18.72524],[94.1565,18.7385],[94.149,18.7385],[94.149,18.73093],[94.249,18.63904],[94.253,18.62814],[94.262,18.5452],[94.259,18.53572],[94.245,18.53904],[94.259,18.50917],[94.2795,18.48025],[94.331,18.42618],[94.339,18.41005],[94.344,18.39107],[94.3505,18.37542],[94.3655,18.36877],[94.3895,18.3626],[94.3995,18.34837],[94.4055,18.33033],[94.417,18.31372],[94.409,18.30897],[94.397,18.29141],[94.389,18.28619],[94.3785,18.28713],[94.366,18.29853],[94.3505,18.29283],[94.339,18.30612],[94.331,18.30328],[94.328,18.29521],[94.326,18.28144],[94.326,18.26767],[94.3275,18.25865],[94.3415,18.24773],[94.3605,18.2463],[94.4065,18.25152],[94.423,18.2425],[94.43,18.22208],[94.437,18.18218],[94.4525,18.16508],[94.458,18.15558],[94.4605,18.14418],[94.462,18.12184],[94.481,18.09428],[94.4905,18.07242],[94.495,18.04865],[94.492,18.02583],[94.482,18.01537],[94.451,18.00253],[94.4445,17.98826],[94.4475,17.97352],[94.4835,17.90216],[94.4895,17.87599],[94.492,17.81698],[94.5015,17.78651],[94.544,17.74794],[94.5535,17.72746],[94.557,17.68221],[94.563,17.66173],[94.574,17.64172],[94.5895,17.62647],[94.595,17.61551],[94.591,17.60407],[94.5905,17.59311],[94.609,17.55974],[94.615,17.54544],[94.597,17.55784],[94.577,17.57643],[94.5605,17.58215],[94.5535,17.55641],[94.554,17.54353],[94.5665,17.51874],[94.5705,17.50539],[94.57,17.49395],[94.5665,17.47678],[94.577,17.35846],[94.5945,17.29212],[94.5845,17.3031],[94.5725,17.31121],[94.546,17.3198],[94.5455,17.29594],[94.533,17.29021],[94.519,17.2883],[94.512,17.27541],[94.5085,17.23004],[94.512,17.21715],[94.518,17.21237],[94.535,17.20521],[94.54,17.19661],[94.538,17.18754],[94.5225,17.17798],[94.519,17.17273],[94.511,17.16891],[94.4645,17.18945],[94.4545,17.17989],[94.4525,17.16604],[94.458,17.15362],[94.4855,17.1412],[94.489,17.12399],[94.484,17.10584],[94.4785,17.09293],[94.462,17.06951],[94.458,17.05948],[94.4565,17.05039],[94.458,16.98298],[94.454,16.96529],[94.4445,16.9495],[94.4645,16.9495],[94.4355,16.91028],[94.423,16.90119],[94.412,16.90071],[94.3905,16.90645],[94.3825,16.90119],[94.379,16.88684],[94.3835,16.87201],[94.3965,16.84665],[94.4005,16.83085],[94.4025,16.78825],[94.3985,16.77581],[94.3795,16.75522],[94.3645,16.70111],[94.3625,16.68579],[94.362,16.63549],[94.352,16.61872],[94.3275,16.60627],[94.3275,16.60004],[94.346,16.59237],[94.349,16.57799],[94.3415,16.54828],[94.331,16.52863],[94.3085,16.52767],[94.273,16.53821],[94.2685,16.52767],[94.273,16.4663],[94.2585,16.38717],[94.254,16.3795],[94.238,16.36079],[94.2355,16.34831],[94.238,16.27297],[94.215,16.15775],[94.209,16.04437],[94.21,16.029],[94.2145,16.01458],[94.2395,15.97613],[94.2515,15.96844],[94.2655,15.97517],[94.2865,15.99728],[94.301,15.98959],[94.3215,15.99007],[94.34,15.99632],[94.348,16.00737],[94.3515,16.03428],[94.3605,16.04918],[94.3755,16.05591],[94.3965,16.05879],[94.428,16.07416],[94.4555,16.10539],[94.507,16.18944],[94.513,16.20528],[94.5175,16.22401],[94.519,16.24753],[94.5155,16.28737],[94.521,16.29553],[94.54,16.29169],[94.562,16.27393],[94.574,16.27153],[94.5835,16.27489],[94.5925,16.28353],[94.599,16.29361],[94.6065,16.32576],[94.618,16.34208],[94.6295,16.34399],[94.6355,16.32672],[94.615,16.28545],[94.5925,16.25905],[94.582,16.24369],[94.584,16.23649],[94.6065,16.24321],[94.628,16.26001],[94.6435,16.28353],[94.6495,16.30897],[94.655,16.32288],[94.6785,16.34831],[94.684,16.36415],[94.684,16.42219],[94.67,16.50945],[94.677,16.53198],[94.684,16.51089],[94.6975,16.50849],[94.7325,16.52479],[94.7315,16.51041],[94.7255,16.50514],[94.7175,16.50274],[94.7105,16.49699],[94.706,16.48452],[94.706,16.47302],[94.7215,16.37854],[94.7325,16.3675],[94.7325,16.36079],[94.7205,16.36223],[94.7105,16.36031],[94.705,16.35311],[94.6855,16.29217],[94.6735,16.27489],[94.665,16.25761],[94.6685,16.24081],[94.684,16.20913],[94.6865,16.16543],[94.679,16.12124],[94.6635,16.07993],[94.6425,16.04486],[94.5885,15.99632],[94.5625,15.96171],[94.5665,15.93527],[94.59,15.93142],[94.615,15.94344],[94.6715,15.9968],[94.689,16.00737],[94.7055,16.02083],[94.718,16.04486],[94.7255,16.06408],[94.752,16.10731],[94.766,16.1395],[94.775,16.1515],[94.7935,16.16207],[94.7925,16.14766],[94.785,16.1395],[94.7725,16.13085],[94.772,16.11116],[94.766,16.09338],[94.7415,16.06744],[94.7325,16.01746],[94.703,15.98238],[94.6655,15.95786],[94.6285,15.93911],[94.6015,15.92132],[94.61,15.90497],[94.6225,15.89151],[94.633,15.88959],[94.6355,15.90834],[94.6445,15.88718],[94.649,15.86843],[94.6585,15.85448],[94.684,15.84678],[94.704,15.84822],[94.721,15.85688],[94.735,15.86843],[94.7455,15.88093],[94.774,15.94344],[94.787,15.96219],[94.846,16.00016],[94.8695,16.04101],[94.864,16.04966],[94.86,16.06552],[94.8505,16.0857],[94.8485,16.09626],[94.8495,16.13998],[94.8545,16.16015],[94.8655,16.16879],[94.893,16.20577],[94.9025,16.20961],[94.9245,16.20865],[94.943,16.21633],[94.967,16.22017],[94.975,16.23169],[94.988,16.24417],[94.9925,16.25089],[94.9924813,16.2508262],[94.987,16.23217],[94.975,16.21441],[94.959,16.20096],[94.941,16.19568],[94.9175,16.19232],[94.9,16.18368],[94.887,16.17071],[94.8685,16.1419],[94.863,16.12797],[94.8635,16.1126],[94.88,16.07993],[94.8845,16.03621],[94.8895,16.01746],[94.924,16.03861],[94.9205,16.01842],[94.907,16.00593],[94.8895,15.99968],[94.8725,15.99728],[94.863,15.99199],[94.8505,15.97805],[94.8395,15.96219],[94.8345,15.94921],[94.836,15.93671],[94.8485,15.90834],[94.85,15.89536],[94.8485,15.86362],[94.853,15.84005],[94.864,15.84438],[94.8825,15.86698],[94.8875,15.8641],[94.893,15.8564],[94.8965,15.84726],[94.8965,15.83909],[94.8905,15.82706],[94.8585,15.80878],[94.847,15.7905],[94.8585,15.7828],[94.9035,15.77799],[94.938,15.76403],[94.95,15.76259],[94.9755,15.76403],[94.9805,15.76692],[94.986,15.77318],[94.9925,15.78857],[94.9975,15.79531],[95.034,15.80589],[95.047,15.82225],[95.055,15.8463],[95.073,15.97084],[95.0735,15.99728],[95.068,16.04822],[95.0705,16.07465],[95.094,16.09386],[95.1215,16.13181],[95.129,16.14862],[95.136,16.14862],[95.1425,16.13469],[95.1485,16.13181],[95.1835,16.14094],[95.189,16.13902],[95.1935,16.12941],[95.2225,16.12413],[95.226,16.1198],[95.2175,16.11356],[95.207,16.11164],[95.1735,16.11356],[95.138,16.10011],[95.11,16.06744],[95.0975,16.02515],[95.108,15.98382],[95.129,16.03861],[95.132639,16.0250301],[95.1375,16.00689],[95.115,15.89391],[95.116,15.85544],[95.1255,15.81744],[95.1445,15.78905],[95.1735,15.77799],[95.2125,15.78665],[95.2245,15.81022],[95.2175,15.8843],[95.224,15.91844],[95.239,15.95017],[95.273,16.00353],[95.276,15.97084],[95.2625,15.94104],[95.246,15.91507],[95.239,15.89391],[95.2515,15.86843],[95.2745,15.8766],[95.297,15.90305],[95.312,15.94729],[95.342,15.98382],[95.3455,15.99632],[95.3485,16.04149],[95.3455,16.06071],[95.332,16.09098],[95.3275,16.10731],[95.3305,16.1198],[95.338,16.12989],[95.429402,16.1868923],[95.3602707,16.143779],[95.3565,16.12893],[95.3495,16.11692],[95.3455,16.10491],[95.3485,16.08618],[95.3635,16.05447],[95.3685,16.03861],[95.369,16.01746],[95.3645,15.98478],[95.3545,15.95113],[95.3385,15.9218],[95.314,15.90065],[95.3175,15.8843],[95.3125,15.8665],[95.3025,15.85255],[95.2905,15.84678],[95.2825,15.83812],[95.288,15.73997],[95.2945,15.72794],[95.3105,15.72313],[95.374,15.71495],[95.3965,15.71639],[95.416,15.72313],[95.432,15.73372],[95.4615,15.76066],[95.5235,15.80349],[95.6645,15.94921],[95.6875,15.98815],[95.6905,16.00064],[95.6905,16.0487],[95.697,16.066],[95.7255,16.10635],[95.7325,16.12749],[95.725,16.22305],[95.7345,16.21297],[95.741,16.19472],[95.746,16.15823],[95.7555,16.14526],[95.7765,16.14046],[95.7975,16.14478],[95.818,16.17599],[95.89,16.24417],[95.886,16.21777],[95.883,16.20913],[95.908,16.21153],[95.922,16.22545],[95.934,16.24321],[95.9515,16.25761],[95.9485,16.23937],[95.9415,16.22641],[95.9425,16.21921],[95.962,16.21681],[95.98,16.22305],[96.019,16.25665],[96.0675,16.31041],[96.0665,16.33584],[96.0065,16.38717],[96.0775,16.36079],[96.0885,16.34975],[96.0975,16.32864],[96.119,16.32192],[96.144,16.3248],[96.164,16.33248],[96.222,16.34495],[96.2855,16.36606],[96.3045,16.40636],[96.3215,16.41547],[96.3365,16.43945],[96.3275,16.45336],[96.31,16.46439],[96.2945,16.49172],[96.2465,16.55499],[96.2345,16.57656],[96.232,16.5871],[96.2335,16.59812],[96.244,16.61968],[96.246,16.63118],[96.241,16.65034],[96.215,16.67956],[96.2045,16.69632],[96.2295,16.71883],[96.2355,16.69776],[96.2555,16.65753],[96.2615,16.64076],[96.265,16.6216],[96.266,16.59668],[96.273,16.58231],[96.29,16.56697],[96.357,16.51856],[96.377,16.50802],[96.4,16.50418],[96.4365,16.47781],[96.4975,16.48404],[96.559,16.49699],[96.616,16.51808],[96.64,16.5454],[96.6795,16.57464],[96.6985,16.62974],[96.7165,16.65849],[96.726,16.66902],[96.766,16.69728],[96.783,16.71213],[96.801,16.73751],[96.791,16.74756],[96.7895,16.75618],[96.7965,16.7624],[96.8115,16.7648],[96.8255,16.79926],[96.832,16.82176],[96.8465,16.84473],[96.849,16.86052],[96.844,16.87392],[96.8345,16.8854],[96.8215,16.89449],[96.808,16.90119],[96.808,16.90885],[96.8555,16.90119],[96.8425,16.91746],[96.835,16.93611],[96.8685,16.92846],[96.879,16.93468],[96.887,16.97963],[96.905,17.01024],[96.911,17.02458],[96.91,17.06665],[96.8955,17.10154],[96.8555,17.16891],[96.8495,17.21285],[96.8655,17.24007],[96.8905,17.26108],[96.911,17.28496],[96.9105,17.31694],[96.8845,17.3389],[96.851,17.35942],[96.8285,17.38853],[96.8215,17.39473],[96.83,17.40236],[96.842,17.40904],[96.8445,17.40284],[96.8555,17.38853],[96.8635,17.40332],[96.8715,17.44148],[96.883,17.45722],[96.8885,17.44434],[96.887,17.41191],[96.89,17.39473],[96.8955,17.38471],[96.9045,17.37517],[97.0135,17.29928],[97.007,17.27827],[97.0235,17.26729],[97.0485,17.26061],[97.0685,17.25153],[97.0785,17.23148],[97.082,17.20999],[97.0885,17.19375],[97.1095,17.18945],[97.1095,17.18228],[97.096,17.16556],[97.1005,17.13355],[97.1145,17.1001],[97.1305,17.07955],[97.142,17.09915],[97.148,17.11683],[97.158,17.12925],[97.182,17.13403],[97.2025,17.13164],[97.2225,17.12543],[97.261,17.10727],[97.2335,17.09532],[97.2025,17.10584],[97.1745,17.11253],[97.157,17.08672],[97.1585,17.07382],[97.1645,17.05948],[97.1785,17.03844],[97.195,17.02171],[97.1985,17.01358],[97.199,16.99733],[97.1865,16.94711],[97.1835,16.92176],[97.1915,16.90119],[97.2025,16.90693],[97.2115,16.90789],[97.2195,16.90119],[97.206,16.8744],[97.2045,16.86004],[97.205,16.84521],[97.209,16.83325],[97.2195,16.82607],[97.221,16.84042],[97.2245,16.85334],[97.233,16.8744],[97.2405,16.8744],[97.2335,16.84904],[97.233,16.83995],[97.2355,16.82942],[97.245,16.81745],[97.23,16.79687],[97.23,16.76911],[97.2405,16.73176],[97.2555,16.69776],[97.286,16.65896],[97.311,16.65226],[97.33,16.68004],[97.3375,16.65561],[97.3375,16.63166],[97.3705,16.48356],[97.3865,16.5037],[97.4025,16.51712],[97.423,16.52336],[97.452,16.52479],[97.4765,16.51808],[97.484,16.52],[97.494,16.52911],[97.5,16.53198],[97.523,16.5363],[97.5485,16.53821],[97.613,16.53055],[97.6305,16.53198],[97.653,16.53965],[97.713,16.57991],[97.7295,16.57272],[97.7355,16.56697],[97.74,16.5593],[97.703,16.55211],[97.674,16.53342],[97.652,16.50706],[97.637,16.47733],[97.6265,16.43753],[97.623,16.39437],[97.6265,16.35167],[97.637,16.31233],[97.65,16.28401],[97.651,16.27153],[97.648,16.25905],[97.639,16.23841],[97.6195,16.12557],[97.612,16.10731],[97.601,16.09242],[97.586,16.08618],[97.577,16.08473],[97.572,16.07993],[97.5695,16.07272],[97.569,16.06263],[97.5755,16.01746],[97.5825,16.00929],[97.6095,15.98382],[97.637,15.94921],[97.6915,15.91219],[97.712,15.88766],[97.706,15.86025],[97.7215,15.8564],[97.727,15.84341],[97.7265,15.77799],[97.7235,15.77173],[97.714,15.76355],[97.713,15.7573],[97.717,15.7496],[97.731,15.73372],[97.734,15.7265],[97.7275,15.71013],[97.7255,15.70147],[97.7385,15.67981],[97.7435,15.66488],[97.7445,15.65092],[97.74,15.64129],[97.7445,15.63455],[97.7475,15.62637],[97.7475,15.6177],[97.7435,15.61047],[97.743,15.6047],[97.7675,15.54401],[97.7745,15.53148],[97.762,15.50402],[97.7615,15.49053],[97.787,15.41921],[97.795,15.40812],[97.775,15.39318],[97.767,15.38932],[97.761,15.39414],[97.7505,15.35991],[97.741,15.35895],[97.734,15.35509],[97.7295,15.34882],[97.7265,15.33966],[97.7385,15.32905],[97.742,15.31796],[97.74,15.29192],[97.741,15.27552],[97.743,15.26684],[97.7695,15.22342],[97.7805,15.21136],[97.795,15.20895],[97.823,15.20943],[97.811,15.1911],[97.807,15.17517],[97.81,15.09505],[97.807,15.07526],[97.795,15.05836],[97.8085,15.03132],[97.797,15.03228],[97.7875,15.03084],[97.78,15.02601],[97.7745,15.01731],[97.791,15.00862],[97.8045,14.99848],[97.813,14.98351],[97.816,14.95887],[97.8135,14.95018],[97.8045,14.93617],[97.8025,14.92457],[97.8025,14.9009],[97.8005,14.89027],[97.795,14.88012],[97.815,14.85064],[97.8425,14.73655],[97.8505,14.7235],[97.856,14.71866],[97.863,14.71576],[97.8755,14.71673],[97.8885,14.72688],[97.894,14.7293],[97.902,14.73752],[97.8945,14.77958],[97.897,14.79795],[97.904,14.79795],[97.9065,14.77572],[97.917,14.75879],[97.931,14.75203],[97.9455,14.76363],[97.946,14.76991],[97.938,14.7849],[97.9455,14.79554],[97.95,14.79892],[97.959,14.77862],[97.9655,14.76943],[97.973,14.76363],[97.9645,14.74719],[97.971,14.73607],[98.0005,14.72204],[97.982,14.71527],[97.9925,14.69303],[98.0275,14.64756],[97.9925,14.66352],[97.9685,14.69641],[97.943,14.72011],[97.904,14.70899],[97.8855,14.68384],[97.8855,14.65578],[97.9,14.63014],[97.925,14.61273],[97.9135,14.5866],[97.9215,14.55756],[97.952,14.50287],[97.962,14.45785],[97.966,14.44816],[97.9765,14.44381],[97.984,14.44962],[97.9915,14.46027],[98.0005,14.4685],[97.996,14.44962],[97.9825,14.41911],[97.9795,14.39732],[97.9815,14.37649],[97.986,14.35276],[97.9935,14.33048],[98.015,14.29947],[98.042,14.24278],[98.0895,14.18122],[98.095,14.19382],[98.101,14.19188],[98.1065,14.18122],[98.11,14.16765],[98.0965,14.16765],[98.1085,14.13274],[98.11,14.12304],[98.1075,14.10995],[98.0975,14.092],[98.0965,14.07843],[98.0885,14.06339],[98.0665,14.03283],[98.0615,14.01003],[98.0655,13.98917],[98.0795,13.94793],[98.0825,13.92464],[98.0855,13.91784],[98.093,13.91202],[98.1065,13.90668],[98.111,13.90231],[98.109,13.8926],[98.1035,13.87658],[98.104,13.83484],[98.11,13.79017],[98.089,13.79502],[98.083,13.76977],[98.092,13.73966],[98.117,13.72897],[98.1035,13.7008],[98.1165,13.69497],[98.124,13.69351],[98.1475,13.69497],[98.1605,13.69011],[98.169,13.68088],[98.1675,13.67311],[98.151,13.6736],[98.158,13.65805],[98.1585,13.6425],[98.152,13.63035],[98.1375,13.62647],[98.151,13.60606],[98.1435,13.6012],[98.135,13.59196],[98.1295,13.58224],[98.1415,13.57301],[98.142,13.54822],[98.1445,13.53704],[98.151,13.55745],[98.164,13.54336],[98.171,13.53801],[98.179,13.53704],[98.187,13.54384],[98.1835,13.55162],[98.1715,13.56377],[98.1685,13.58419],[98.1715,13.60606],[98.1755,13.61675],[98.186,13.63278],[98.1935,13.65173],[98.196,13.66825],[98.1935,13.68623],[98.1795,13.73237],[98.188,13.81493],[98.1975,13.85037],[98.1995,13.8693],[98.195,13.88678],[98.18,13.92512],[98.1825,13.93774],[98.1935,13.95181],[98.1985,13.96491],[98.1995,13.99257],[98.179,14.01974],[98.186,14.06485],[98.192,14.06485],[98.197,14.04836],[98.2085,14.02944],[98.2225,14.01294],[98.2335,14.00276],[98.2335,13.99645],[98.227,13.98917],[98.228,13.98141],[98.2335,13.96152],[98.2335,13.91736],[98.248,13.86299],[98.254,13.85183],[98.248,13.83775],[98.2485,13.82464],[98.254,13.79794],[98.252,13.7824],[98.2405,13.74597],[98.245,13.71392],[98.2575,13.70614],[98.2765,13.70712],[98.302,13.7008],[98.2955,13.68817],[98.2885,13.69497],[98.299,13.67117],[98.3365,13.61966],[98.336,13.59877],[98.3565,13.58467],[98.361,13.57592],[98.357,13.56377],[98.3705,13.5594],[98.384,13.55211],[98.394,13.54287],[98.4035,13.52246],[98.4265,13.48988],[98.4315,13.4787],[98.429,13.4714],[98.4195,13.46217],[98.4185,13.45439],[98.4225,13.44661],[98.439,13.43493],[98.4455,13.42423],[98.451,13.41159],[98.454,13.39651],[98.453,13.37949],[98.459,13.39992],[98.464,13.4077],[98.473,13.41305],[98.471,13.39408],[98.473,13.37949],[98.46,13.36927],[98.4605,13.35565],[98.473,13.325],[98.473,13.30311],[98.4755,13.29289],[98.48,13.28364],[98.49,13.29775],[98.495,13.28559],[98.5005,13.24909],[98.553,13.2082],[98.566,13.20139],[98.5785,13.18678],[98.5835,13.11375],[98.59,13.08453],[98.582,13.07723],[98.5805,13.06554],[98.584,13.02657],[98.586,13.01634],[98.5965,12.99588],[98.6105,12.95982],[98.614,12.95446],[98.607,12.95057],[98.6,12.94179],[98.59,12.91938],[98.601,12.91109],[98.625,12.88429],[98.6345,12.87844],[98.6515,12.79751],[98.647,12.78581],[98.642,12.7824],[98.6345,12.78142],[98.619,12.77508],[98.6175,12.77752],[98.618,12.76631],[98.6275,12.75606],[98.67,12.76094],[98.6785,12.75606],[98.673,12.7468],[98.663,12.74534],[98.6525,12.74534],[98.6445,12.74192],[98.641,12.73461],[98.642,12.72827],[98.6485,12.72339],[98.6615,12.72144],[98.6895,12.72827],[98.693,12.72534],[98.691,12.71022],[98.6865,12.7029],[98.673,12.6873],[98.6675,12.67461],[98.665,12.64632],[98.672,12.63168],[98.673,12.62534],[98.6545,12.62583],[98.6515,12.62241],[98.6445,12.60045],[98.631,12.57947],[98.623,12.558],[98.631,12.5375],[98.64,12.53213],[98.673,12.52969],[98.695,12.517],[98.703,12.51554],[98.7095,12.51261],[98.709,12.50577],[98.7015,12.49894],[98.689,12.49552],[98.6515,12.49552],[98.6285,12.4921],[98.616,12.48576],[98.6115,12.47307],[98.6105,12.4511],[98.605,12.42912],[98.6075,12.41838],[98.621,12.4135],[98.627,12.40959],[98.6515,12.38566],[98.6845,12.37345],[98.7,12.36417],[98.7065,12.34806],[98.698,12.32803],[98.677,12.31533],[98.5875,12.29725],[98.5685,12.2909],[98.552,12.27967],[98.54,12.2611],[98.539,12.24156],[98.547,12.22348],[98.563,12.20784],[98.5965,12.19415],[98.6215,12.20882],[98.641,12.22445],[98.663,12.23667],[98.6965,12.24156],[98.7035,12.23765],[98.71,12.22787],[98.7135,12.21566],[98.7095,12.20442],[98.696,12.19318],[98.6675,12.17754],[98.658,12.16679],[98.673,12.16679],[98.673,12.15896],[98.6505,12.15505],[98.638,12.15114],[98.631,12.14626],[98.6295,12.13208],[98.641,12.1135],[98.6345,12.10128],[98.634,12.09053],[98.645,12.0783],[98.665,12.06021],[98.7125,12.06363],[98.703,12.04799],[98.7055,12.03674],[98.713,12.025],[98.72,12.00838],[98.7215,11.99762],[98.72,11.96436],[98.715,11.96093],[98.703,11.95898],[98.691,11.95458],[98.679,11.93305],[98.664,11.92033],[98.645,11.91006],[98.6275,11.90614],[98.578,11.90663],[98.558,11.89929],[98.549,11.87875],[98.631,11.87875],[98.673,11.89196],[98.694,11.89293],[98.7065,11.87875],[98.681,11.87728],[98.668,11.86358],[98.6605,11.84498],[98.6515,11.8303],[98.641,11.83226],[98.624,11.8303],[98.6195,11.8259],[98.6035,11.80338],[98.631,11.80338],[98.632,11.79311],[98.629,11.79213],[98.6235,11.79311],[98.618,11.78919],[98.606,11.76912],[98.6035,11.76178],[98.6035,11.75346],[98.6085,11.74122],[98.6105,11.73143],[98.617,11.7236],[98.6475,11.70058],[98.674,11.68541],[98.6845,11.68296],[98.6925,11.68688],[98.703,11.69765],[98.7085,11.70989],[98.709,11.72457],[98.712,11.73632],[98.7235,11.74122],[98.744,11.76276],[98.7615,11.7608],[98.768,11.76178],[98.7915,11.8024],[98.8005,11.81366],[98.81,11.82198],[98.816,11.83373],[98.809,11.85134],[98.8255,11.8259],[98.812,11.8024],[98.7905,11.77989],[98.783,11.75493],[98.805,11.73632],[98.8765,11.72262],[98.8915,11.69373],[98.885,11.69373],[98.873,11.70107],[98.8545,11.70695],[98.8355,11.70989],[98.8225,11.70793],[98.818,11.69863],[98.8185,11.68736],[98.817,11.67757],[98.806,11.67317],[98.795,11.67659],[98.788,11.68345],[98.7805,11.68639],[98.768,11.68002],[98.752,11.68149],[98.7415,11.66484],[98.7355,11.64183],[98.733,11.62468],[98.7365,11.58893],[98.7335,11.57326],[98.72,11.55709],[98.726,11.54827],[98.718,11.53211],[98.72,11.52231],[98.729,11.51741],[98.7455,11.52476],[98.7545,11.52231],[98.7635,11.50614],[98.7655,11.46743],[98.775,11.45371],[98.7355,11.45028],[98.7155,11.44342],[98.7065,11.42284],[98.698,11.38804],[98.7025,11.37922],[98.727,11.3851],[98.7215,11.36745],[98.722,11.35029],[98.7265,11.33363],[98.7465,11.28607],[98.7595,11.26891],[98.757,11.26351],[98.751,11.25714],[98.7455,11.23605],[98.733,11.20711],[98.733,11.17621],[98.724,11.1561],[98.7025,11.14384],[98.658,11.13206],[98.6765,11.10066],[98.689,11.09232],[98.7065,11.09772],[98.7105,11.07613],[98.7185,11.05896],[98.7225,11.04472],[98.7165,11.03246],[98.701,11.02509],[98.6955,11.02019],[98.693,11.00841],[98.6965,11.00252],[98.714,10.98976],[98.72,10.98043],[98.7125,10.97454],[98.7175,10.9608],[98.717,10.94214],[98.7125,10.92447],[98.7065,10.91269],[98.7035,10.91612],[98.689,10.91318],[98.675,10.90876],[98.673,10.90532],[98.664,10.90827],[98.653,10.9171],[98.648,10.91907],[98.634,10.91367],[98.614,10.8901],[98.5815,10.88224],[98.579,10.87537],[98.582,10.86702],[98.5865,10.86113],[98.5955,10.85671],[98.62,10.85475],[98.631,10.85082],[98.624,10.84296],[98.616,10.83854],[98.607,10.83658],[98.5965,10.83707],[98.6025,10.81939],[98.6,10.80564],[98.583,10.78206],[98.5775,10.77027],[98.57,10.74326],[98.563,10.72705],[98.554,10.73785],[98.5435,10.74522],[98.5325,10.7467],[98.521,10.7408],[98.531,10.73196],[98.5385,10.71869],[98.5385,10.70445],[98.5285,10.69315],[98.511,10.72312],[98.4985,10.73147],[98.4765,10.73491],[98.4635,10.7295],[98.4595,10.71526],[98.459,10.67251],[98.4635,10.63025],[98.4955,10.55702],[98.5005,10.51524],[98.4935,10.47296],[98.494,10.45231],[98.512,10.4228],[98.5285,10.36428],[98.5285,10.34313],[98.517,10.30722],[98.512,10.26147],[98.5075,10.24474],[98.4905,10.20439],[98.4895,10.19799],[98.4935,10.17929],[98.514,10.14681],[98.515,10.10153],[98.521,10.06953],[98.521,10.02916],[98.5335,10.00651],[98.5355,9.99715],[98.543,9.9873],[98.5605,10.00208],[98.59,10.04196],[98.644,10.15518],[98.665,10.18569],[98.687,10.20833],[98.696,10.22358],[98.703,10.26294],[98.719,10.31263],[98.735,10.34313],[98.74,10.34756],[98.7475,10.35051],[98.7665,10.411],[98.7765,10.46214],[98.7905,10.50049],[98.7915,10.52065],[98.7775,10.58307],[98.7705,10.59388],[98.7515,10.61059],[98.748,10.62288],[98.757,10.66612],[98.7665,10.68873],[98.811,10.7467],[98.83,10.7634],[98.8395,10.76634],[98.861,10.76782],[98.868,10.76978],[98.8755,10.77862],[98.8835,10.79925],[98.892,10.80858],[98.9055,10.81448],[98.9145,10.81251],[98.9235,10.80809],[98.934,10.8076],[98.9745,10.8243],[98.982,10.83265],[98.986,10.84051],[98.99,10.86064],[98.99,10.87537],[98.982,10.8955],[98.9795,10.90778],[98.9825,10.92889],[98.9865,10.9392],[98.9925,10.94803],[99.0015,10.95785],[99.0055,10.95883],[99.0105,10.95638],[99.0345,10.95098],[99.0455,10.94558],[99.055,10.94509],[99.0635,10.95736],[99.0725,10.98779],[99.077,10.99663],[99.093,11.01282],[99.133,11.03344],[99.1515,11.04767],[99.158,11.05748],[99.1675,11.07809],[99.175,11.08742],[99.185,11.09281],[99.206,11.10017],[99.213,11.10802],[99.2435,11.19779],[99.256,11.21987],[99.2885,11.25812],[99.3005,11.28067],[99.3155,11.32088],[99.3265,11.33608],[99.3645,11.37676],[99.3705,11.39343],[99.372,11.41107],[99.3775,11.43558],[99.387,11.45175],[99.416,11.48017],[99.428,11.49683],[99.4375,11.51692],[99.441,11.53358],[99.439,11.57375],[99.4405,11.59726],[99.45,11.61391],[99.466,11.62371],[99.489,11.6286],[99.5305,11.63105],[99.5425,11.64036],[99.607,11.72555],[99.6155,11.74954],[99.63,11.81562],[99.628,11.82541],[99.611,11.8303],[99.592,11.84205],[99.574,11.8577],[99.5615,11.87287],[99.554,11.89489],[99.5575,11.91544],[99.573,11.95604],[99.574,11.9761],[99.567,11.99322],[99.5535,12.00544],[99.5345,12.0118],[99.5185,12.02598],[99.5215,12.05386],[99.5375,12.10079],[99.5395,12.11253],[99.546,12.13208],[99.5415,12.14088],[99.533,12.1443],[99.5225,12.1443],[99.4665,12.12621],[99.4525,12.12915],[99.449,12.14723],[99.454,12.15701],[99.472,12.17363],[99.474,12.18731],[99.4555,12.22739],[99.4545,12.23814],[99.457,12.25621],[99.4545,12.26745],[99.4475,12.2782],[99.432,12.29628],[99.4265,12.30849],[99.4235,12.32754],[99.4205,12.38322],[99.414,12.4052],[99.3915,12.44524],[99.387,12.46574],[99.3895,12.47599],[99.404,12.50821],[99.407,12.53018],[99.4075,12.55165],[99.4035,12.57605],[99.394,12.58972],[99.3445,12.61656],[99.3335,12.62534],[99.3235,12.63558],[99.317,12.64583],[99.3095,12.65364],[99.2865,12.65998],[99.277,12.66534],[99.2735,12.67364],[99.271,12.69364],[99.2665,12.7029],[99.2565,12.70925],[99.2335,12.71315],[99.2245,12.71754],[99.214,12.73461],[99.213,12.75265],[99.2145,12.77167],[99.2105,12.79215],[99.203,12.80385],[99.183,12.82238],[99.1755,12.83359],[99.172,12.84334],[99.1685,12.87405],[99.1555,12.90427],[99.153,12.91353],[99.154,12.92669],[99.1675,12.95593],[99.165,12.97542],[99.151,12.9949],[99.1325,13.01098],[99.1155,13.02121],[99.093,13.03826],[99.0885,13.05823],[99.094,13.08064],[99.1025,13.1045],[99.1055,13.12982],[99.102,13.15173],[99.102,13.17121],[99.114,13.18825],[99.133,13.19506],[99.173,13.19944],[99.1875,13.2121],[99.19,13.22962],[99.186,13.25006],[99.1735,13.28753],[99.173,13.30116],[99.187,13.32889],[99.187,13.33862],[99.1835,13.35808],[99.189,13.4077],[99.188,13.42715],[99.152,13.58176],[99.1495,13.66582],[99.153,13.68866],[99.1525,13.71489],[99.1415,13.73189],[99.109,13.76249],[99.101,13.779],[99.09,13.82658],[99.0895,13.84406],[99.092,13.86348],[99.09,13.87027],[99.085,13.87853],[99.0805,13.88144],[99.061,13.88823],[99.057,13.89406],[99.052,13.9091],[99.0475,13.91493],[99.016,13.93774],[99.007,13.94987],[98.997,13.97171],[98.985,13.99063],[98.953,14.02798],[98.9475,14.04641],[98.9455,14.06921],[98.9355,14.08522],[98.9175,14.09637],[98.8935,14.10316],[98.8725,14.11237],[98.7535,14.20012],[98.731,14.22339],[98.707,14.26991],[98.6975,14.27137],[98.6855,14.26749],[98.6705,14.26797],[98.6635,14.27282],[98.644,14.29559],[98.6145,14.30528],[98.6015,14.31352],[98.593,14.32176],[98.5475,14.37746],[98.478,14.51642],[98.453,14.52804],[98.4455,14.54208],[98.44,14.56628],[98.4315,14.58805],[98.418,14.60741],[98.2975,14.72108],[98.2435,14.80521],[98.2355,14.82454],[98.239,14.84387],[98.236,14.85016],[98.225,14.85886],[98.222,14.86417],[98.2205,14.88544],[98.2215,14.92119],[98.215,14.94293],[98.195,14.97771],[98.191,14.98834],[98.1915,15.00138],[98.201,15.01925],[98.2045,15.02939],[98.199,15.0516],[98.168,15.08298],[98.1605,15.10615],[98.165,15.12594],[98.186,15.16069],[98.1905,15.17903],[98.178,15.20895],[98.177,15.22053],[98.2155,15.21908],[98.233,15.2268],[98.2475,15.24079],[98.283,15.28999],[98.295,15.2924],[98.318,15.28903],[98.336,15.28227],[98.3705,15.26202],[98.385,15.25623],[98.3925,15.25816],[98.3945,15.26491],[98.3945,15.27986],[98.392,15.28565],[98.3775,15.29626],[98.3835,15.31025],[98.3935,15.31652],[98.399,15.32182],[98.4005,15.3305],[98.396,15.34738],[98.397,15.35557],[98.4035,15.35991],[98.4395,15.36763],[98.4555,15.37341],[98.4745,15.38354],[98.495,15.37486],[98.5155,15.36329],[98.53,15.34786],[98.5335,15.32616],[98.56,15.35509],[98.569,15.40234],[98.567,15.45246],[98.5435,15.60132],[98.5455,15.65862],[98.5405,15.71206],[98.543,15.73516],[98.5745,15.8362],[98.5765,15.854],[98.5695,15.89632],[98.5685,15.92036],[98.5805,15.9593],[98.584,15.97709],[98.577,15.9968],[98.55,16.03428],[98.547,16.04726],[98.556,16.05543],[98.5675,16.05398],[98.59,16.04582],[98.6115,16.04678],[98.619,16.0511],[98.63,16.06023],[98.644,16.07945],[98.6505,16.09963],[98.6585,16.11644],[98.6795,16.12605],[98.697,16.12701],[98.7585,16.11932],[98.7705,16.11404],[98.776,16.10683],[98.783,16.10251],[98.7985,16.10443],[98.807,16.11068],[98.831,16.13565],[98.8355,16.14478],[98.8345,16.16783],[98.8365,16.18896],[98.843,16.20865],[98.8555,16.22689],[98.8835,16.25857],[98.8885,16.27441],[98.8935,16.32],[98.9035,16.36367],[98.9025,16.38142],[98.8855,16.40636],[98.862,16.42075],[98.8435,16.43849],[98.8395,16.47254],[98.8185,16.45575],[98.8105,16.43945],[98.802,16.3982],[98.7885,16.3747],[98.7285,16.32816],[98.6985,16.28497],[98.6825,16.27345],[98.6635,16.28689],[98.657,16.30177],[98.6425,16.37374],[98.6295,16.40252],[98.628,16.41355],[98.638,16.43465],[98.64,16.44521],[98.6315,16.46295],[98.5705,16.54157],[98.564,16.55211],[98.564,16.56266],[98.5675,16.5732],[98.568,16.58231],[98.5615,16.60195],[98.547,16.62016],[98.5125,16.64316],[98.4985,16.66232],[98.4915,16.68962],[98.4865,16.70111],[98.4565,16.72314],[98.4545,16.74086],[98.4625,16.76001],[98.4745,16.77677],[98.489,16.78059],[98.5055,16.79065],[98.5175,16.80309],[98.5205,16.8141],[98.513,16.82224],[98.4945,16.83133],[98.49,16.8433],[98.4925,16.85765],[98.5005,16.86244],[98.512,16.85909],[98.5245,16.85047],[98.516,16.87918],[98.5095,16.89258],[98.5,16.8988],[98.4845,16.90598],[98.4805,16.9208],[98.4805,16.93707],[98.4745,16.95046],[98.4635,16.96385],[98.4465,16.99637],[98.436,17.01167],[98.418,17.02888],[98.4,17.04036],[98.38,17.04561],[98.3305,17.04705],[98.3135,17.05183],[98.2995,17.06473],[98.286,17.0872],[98.29,17.09102],[98.2955,17.09962],[98.2945,17.10775],[98.2685,17.10775],[98.266,17.11635],[98.271,17.12782],[98.279,17.13642],[98.2565,17.15171],[98.221,17.20091],[98.202,17.21572],[98.186,17.22431],[98.1005,17.30262],[98.0925,17.31217],[98.0905,17.32505],[98.0945,17.35846],[98.0885,17.37278],[98.077,17.37994],[98.0625,17.38471],[98.0485,17.39139],[98.0355,17.40523],[98.0285,17.41858],[98.018,17.44721],[97.996,17.48059],[97.9915,17.49585],[97.983,17.50539],[97.9485,17.52256],[97.934,17.53162],[97.769,17.67936],[97.7595,17.69126],[97.753,17.70555],[97.7495,17.73985],[97.741,17.75032],[97.717,17.76985],[97.7065,17.7946],[97.6965,17.80651],[97.684,17.8165],[97.676,17.83031],[97.699,17.83316],[97.6855,17.88075],[97.692,17.8955],[97.72,17.94308],[97.7475,17.96115],[97.754,17.96924],[97.752,17.98065],[97.747,17.99254],[97.74,18.003],[97.725,18.03676],[97.72,18.05293],[97.702,18.06196],[97.694,18.06148],[97.693,18.07004],[97.699,18.09048],[97.697,18.10141],[97.6875,18.11994],[97.6845,18.14608],[97.629,18.22066],[97.618,18.24155],[97.6205,18.25105],[97.6355,18.2577],[97.6435,18.27289],[97.644,18.29141],[97.6375,18.30612],[97.6245,18.31324],[97.574,18.33318],[97.5625,18.33033],[97.5605,18.32843],[97.542,18.28001],[97.5375,18.27242],[97.5285,18.26529],[97.508,18.27669],[97.4865,18.29236],[97.4665,18.31135],[97.4525,18.33365],[97.447,18.35833],[97.4465,18.38111],[97.443,18.40341],[97.4175,18.44136],[97.4020222,18.4715651],[97.3945,18.48689],[97.3905,18.50159],[97.379,18.52055],[97.3575,18.53999],[97.3515,18.55137],[97.38,18.54757],[97.389,18.54236],[97.4165,18.4959],[97.4275,18.48973],[97.438,18.48831],[97.463,18.49258],[97.5095,18.49116],[97.5485,18.50917],[97.618,18.55326],[97.6375,18.55942],[97.6905,18.558],[97.738,18.57033],[97.743,18.56938],[97.7455,18.57127],[97.752,18.58265],[97.7595,18.62293],[97.7525,18.66367],[97.741,18.70299],[97.7365,18.7404],[97.736,18.76265],[97.7325,18.78064],[97.7205,18.81756],[97.7195,18.82608],[97.7235,18.8521],[97.719,18.8644],[97.7085,18.87529],[97.6845,18.89232],[97.662,18.9136],[97.658,18.9259],[97.668,18.93536],[97.689,18.94955],[97.7035,18.96421],[97.7105,18.97981],[97.717,19.01811],[97.728,19.03701],[97.79,19.08238],[97.804,19.09797],[97.811,19.11215],[97.815,19.19055],[97.8125,19.2085],[97.805,19.22738],[97.7965,19.23682],[97.7695,19.25712],[97.764,19.26656],[97.768,19.27695],[97.7775,19.27883],[97.7885,19.27789],[97.7985,19.28119],[97.806,19.30102],[97.797,19.31847],[97.783,19.33688],[97.775,19.37084],[97.7675,19.39018],[97.767,19.39773],[97.8005,19.44064],[97.8335,19.46892],[97.842,19.4793],[97.8485,19.49391],[97.848,19.49956],[97.8445,19.50475],[97.841,19.517],[97.839,19.53726],[97.84,19.55517],[97.8485,19.56742],[97.886,19.5726],[97.948,19.60228],[97.9795,19.63336],[97.9905,19.63666],[98.0,19.63619],[98.0085,19.63901],[98.0135,19.65173],[98.014,19.66962],[98.0055,19.70587],[98.0045,19.72376],[98.018,19.78917],[98.0245,19.80281],[98.0455,19.80751],[98.0605,19.79387],[98.073,19.7774],[98.086,19.77317],[98.1115,19.77693],[98.132,19.76611],[98.172,19.73176],[98.206,19.7214],[98.2135,19.71764],[98.218,19.70775],[98.2165,19.68751],[98.219,19.67715],[98.2375,19.66491],[98.263,19.67009],[98.3075,19.68986],[98.3475,19.69081],[98.3945,19.68657],[98.4395,19.68751],[98.4745,19.7054],[98.489,19.70681],[98.4975,19.70069],[98.505,19.69128],[98.5155,19.68327],[98.5325,19.67574],[98.5365,19.67715],[98.538,19.68374],[98.5485,19.69269],[98.5685,19.70022],[98.5905,19.70399],[98.5985,19.70917],[98.6155,19.72987],[98.624,19.73741],[98.6415,19.74493],[98.73,19.75717],[98.749,19.76329],[98.808,19.80657],[98.838,19.7934],[98.852,19.78399],[98.8645,19.77317],[98.8835,19.74541],[98.8995,19.7487],[98.935,19.77364],[98.974,19.78822],[98.9875,19.79952],[99.001,19.82115],[99.009,19.84608],[99.0075,19.86489],[99.0025,19.8837],[98.9995,19.90768],[99.0015,19.91802],[99.0135,19.93495],[99.013,19.94435],[99.007,19.96267],[99.006,19.97254],[99.017,20.04114],[99.0365,20.07495],[99.0735,20.10125],[99.1175,20.11768],[99.1585,20.12332],[99.1775,20.12191],[99.219,20.11064],[99.2365,20.10266],[99.2755,20.07214],[99.2955,20.06227],[99.321,20.0665],[99.4415,20.10172],[99.4745,20.12801],[99.4875,20.14116],[99.5105,20.15383],[99.5205,20.1712],[99.526,20.19607],[99.519,20.21202],[99.4865,20.24533],[99.475,20.30349],[99.4665,20.32225],[99.4295,20.35882],[99.4205,20.37569],[99.44,20.38225],[99.454,20.3771],[99.503,20.34522],[99.5116503,20.3425164],[99.5210345,20.3395833],[99.5237724,20.3387276],[99.5795,20.32131],[99.5895,20.32084],[99.6075,20.32319],[99.618,20.32225],[99.627,20.31897],[99.642,20.30865],[99.652,20.30678],[99.6715,20.31006],[99.7085,20.32506],[99.729,20.32834],[99.7695,20.32834],[99.787,20.33397],[99.804,20.34897],[99.813,20.36538],[99.8265,20.40147],[99.8375,20.41693],[99.8555,20.42818],[99.878,20.43521],[99.9325,20.4427],[99.937,20.44505],[99.942,20.44411],[99.9525,20.43614],[99.959,20.42771],[99.9645,20.4085],[99.9745,20.401],[99.986,20.38694],[99.9965,20.38366],[100.0085,20.38366],[100.023,20.38085],[100.036,20.37335],[100.0550717,20.3449283],[100.0560209,20.3439791],[100.0615266,20.3406932],[100.0645833,20.34375],[100.06875,20.34375],[100.0729167,20.3395833],[100.0854167,20.3395833],[100.0854167,20.3604167],[100.0895833,20.3645833],[100.10625,20.38125],[100.10625,20.3854167],[100.1229167,20.4020833],[100.1229167,20.41875],[100.11875,20.4229167],[100.11875,20.4354167],[100.1229167,20.4395833],[100.1229167,20.44375],[100.1270833,20.4479167],[100.1270833,20.4520833],[100.1354167,20.4604167],[100.1354167,20.46875],[100.1354167,20.4729167],[100.1390494,20.4765494],[100.1395833,20.4802042],[100.1427799,20.5020833],[100.1452149,20.51875],[100.1476042,20.5351042],[100.1479167,20.5372427],[100.1483171,20.5399838],[100.1495,20.54808],[100.15625,20.5703486],[100.157367,20.5740337],[100.16,20.58272],[100.1645833,20.5919642],[100.173,20.60894],[100.173,20.6104167],[100.173,20.62204],[100.18,20.63795],[100.1919637,20.6538697],[100.1991147,20.6633853],[100.2025,20.66789],[100.2048933,20.6757266],[100.20625,20.6801692],[100.2103891,20.6937224],[100.2104167,20.6938127],[100.2115,20.69736],[100.2190926,20.7065926],[100.2245857,20.7120857],[100.2273131,20.7143535],[100.2326007,20.71875],[100.2395833,20.724556],[100.2485,20.73197],[100.2556419,20.7401914],[100.2745,20.7619],[100.29,20.77499],[100.3229167,20.7843317],[100.3267398,20.7854167],[100.33125,20.7854167],[100.3395833,20.79375],[100.3479167,20.8020833],[100.35625,20.8104167],[100.35625,20.8145833],[100.3645833,20.8229167],[100.36875,20.8270833],[100.3770833,20.8270833],[100.3811192,20.8311192],[100.3818593,20.83125],[100.38544,20.83125],[100.40625,20.8281392],[100.4344025,20.8239308],[100.4397918,20.8231252],[100.46875,20.8187963],[100.471,20.81846],[100.4979167,20.8110563],[100.5135,20.80677],[100.5300535,20.8074465],[100.5365,20.80771],[100.569,20.81799],[100.5729167,20.8200032],[100.599,20.83341],[100.6131538,20.84375],[100.6145833,20.8447943],[100.6145833,20.8479167],[100.6354167,20.86875],[100.6354167,20.8729167],[100.6395833,20.8770833],[100.64375,20.8770833],[100.6479167,20.88125],[100.6479167,20.8837285],[100.623,20.88854],[100.5818441,20.8818441],[100.5781927,20.88125],[100.5718915,20.8802248],[100.534,20.87406],[100.51875,20.8844547],[100.5155,20.88667],[100.518,20.90629],[100.5262978,20.94375],[100.527,20.94692],[100.5288049,20.9663049],[100.529,20.9684],[100.53125,20.97097],[100.5335,20.97354],[100.5391171,20.9770833],[100.5403799,20.9778799],[100.5479167,20.9854167],[100.5520833,20.9895833],[100.5520833,21.0083092],[100.5503318,21.0121682],[100.5479167,21.0174892],[100.5468688,21.0197979],[100.5435,21.02722],[100.562,21.03515],[100.5817837,21.0390496],[100.607,21.04402],[100.6104167,21.0459149],[100.6255,21.05428],[100.6302818,21.0604167],[100.6367753,21.06875],[100.6375,21.06968],[100.64375,21.0804444],[100.6442177,21.08125],[100.6679395,21.1221061],[100.6729167,21.1306784],[100.673708,21.1320414],[100.68125,21.145031],[100.6895,21.15924],[100.6930414,21.1729167],[100.6979167,21.1917444],[100.7000734,21.2000734],[100.7017572,21.2065761],[100.7068992,21.2264341],[100.7175443,21.2675443],[100.71875,21.2722007],[100.71875,21.28125],[100.71875,21.2979167],[100.721883,21.3010497],[100.722,21.30372],[100.7229167,21.3057943],[100.7255,21.31164],[100.7372372,21.3145833],[100.7395833,21.3145833],[100.7409464,21.3145833],[100.7565,21.31257],[100.7725,21.30418],[100.78125,21.3010435],[100.7899728,21.2979167],[100.792,21.29719],[100.7942026,21.2974641],[100.8145,21.29999],[100.8515,21.3149],[100.8540163,21.316817],[100.8625,21.32328],[100.8697068,21.3302932],[100.88125,21.3415263],[100.8866004,21.3467329],[100.8920985,21.3520833],[100.896,21.35588],[100.9041737,21.3583263],[100.91,21.36007],[100.9430073,21.3763407],[100.9529666,21.38125],[100.959442,21.384442],[100.9614193,21.3854167],[100.9895833,21.3992999],[101.0035,21.40616],[101.0333997,21.4291003],[101.0395833,21.4338446],[101.0687656,21.4562344],[101.0742167,21.4604167],[101.0850781,21.46875],[101.10625,21.4849939],[101.1229167,21.4977813],[101.1339546,21.50625],[101.1402361,21.5110694],[101.14375,21.5145833],[101.1520833,21.5229167],[101.15625,21.5229167],[101.158457,21.5251237],[101.1604167,21.5324185],[101.1604167,21.5395833],[101.1604462,21.5396129],[101.1595307,21.5479167],[101.159,21.55273],[101.154,21.56807],[101.1541313,21.56875],[101.1575,21.5862],[101.1623719,21.59375],[101.16875,21.6036341],[101.16875,21.60625],[101.1645833,21.6104167],[101.1645833,21.6145833],[101.1604167,21.61875],[101.1604167,21.6229167],[101.1604167,21.64375],[101.15625,21.6479167],[101.1520833,21.6520833],[101.1520833,21.66875],[101.1479167,21.6729167],[101.1395833,21.6729167],[101.1354167,21.6770833],[101.1229167,21.6895833],[101.11875,21.69375],[101.11875,21.71875],[101.11875,21.7270833],[101.1145833,21.73125],[101.1145833,21.74375],[101.1104167,21.7479167],[101.1104167,21.7604167],[101.1114431,21.7614431],[101.083,21.76695],[101.0775181,21.7650181],[101.0762844,21.7645833],[101.071084,21.7627506],[101.0685,21.76184],[101.0555,21.75441],[100.993,21.71122],[100.9745,21.70425],[100.9650439,21.7016228],[100.952229,21.6980623],[100.952001,21.697999],[100.9291502,21.6916502],[100.9217109,21.6895833],[100.8775,21.6773],[100.835,21.65732],[100.797,21.62618],[100.7565,21.56993],[100.704,21.51645],[100.6615,21.49551],[100.646,21.4797],[100.6215,21.46899],[100.572,21.45503],[100.546,21.45317],[100.497,21.46201],[100.4745,21.4569],[100.4565,21.45503],[100.4435,21.46341],[100.4345,21.4783],[100.4295,21.49551],[100.399,21.51877],[100.3835,21.52761],[100.3635,21.5318],[100.342,21.5304],[100.3265,21.52436],[100.3145,21.51273],[100.3025,21.49551],[100.2895,21.48295],[100.275,21.47504],[100.244,21.46434],[100.23,21.4569],[100.198,21.43316],[100.187,21.42804],[100.1625,21.43642],[100.1285,21.48249],[100.108,21.49551],[100.0975,21.50808],[100.09,21.52901],[100.086,21.55087],[100.0855,21.56761],[100.0885,21.58202],[100.095,21.59876],[100.104,21.61549],[100.1155,21.62944],[100.126,21.63501],[100.1435,21.64013],[100.1465,21.64942],[100.143,21.655],[100.1205,21.67359],[100.0825,21.68427],[99.9965,21.68613],[99.9605,21.70471],[99.9505,21.72097],[99.939,21.77717],[99.922,21.81245],[99.918,21.82916],[99.92,21.8519],[99.9555,21.92474],[99.9655,21.96277],[99.9505,21.99523],[99.94,22.00589],[99.9345,22.01887],[99.935,22.03231],[99.9425,22.04575],[99.8689507,22.0351409],[99.8139824,22.0651236],[99.7390256,22.057628],[99.6515761,22.0651236],[99.5591295,22.1075991],[99.4391987,22.1475761],[99.2992794,22.0976049],[99.19434,22.1625674],[99.163269,22.1861378],[99.1599551,22.1842441],[99.1195443,22.1611522],[99.163269,22.1861378],[99.2007474,22.2436046],[99.2207359,22.312315],[99.24822,22.357289],[99.2373841,22.3801338],[99.2430685,22.3931562],[99.282756,22.4119148],[99.3450778,22.4728413],[99.3534493,22.4841068],[99.3577902,22.4954756],[99.3563432,22.5061726],[99.3466281,22.5230708],[99.3441476,22.533251],[99.3470415,22.5533532],[99.3573768,22.5870979],[99.3549996,22.6085436],[99.3078707,22.7195963],[99.3079741,22.7451761],[99.3169658,22.7541161],[99.3271977,22.7604981],[99.3384632,22.7649165],[99.3506588,22.7681463],[99.3590304,22.77489],[99.3788741,22.8132339],[99.4035755,22.8410617],[99.4144275,22.8569005],[99.416908,22.8743413],[99.4112236,22.9192481],[99.413394,22.9307462],[99.4299305,22.9367406],[99.4845008,22.9102565],[99.5152999,22.9088095],[99.5380376,22.9264312],[99.5346269,22.9493238],[99.4987635,22.9951608],[99.4903919,23.0120073],[99.4916321,23.0282079],[99.4950428,23.0434783],[99.4930791,23.0573793],[99.4781962,23.0657508],[99.4032654,23.0683347],[99.3810446,23.0816413],[99.3509689,23.1192618],[99.3338123,23.1296229],[99.3140719,23.1264706],[99.3021863,23.1125955],[99.2940214,23.0967825],[99.284823,23.0881526],[99.2667363,23.0838634],[99.2574345,23.0792125],[99.2361438,23.0623144],[99.2248784,23.0568883],[99.2166101,23.0573793],[99.2095822,23.0615392],[99.2021407,23.0672753],[99.1996603,23.0738382],[99.1993502,23.0922608],[99.1941826,23.0957748],[99.1848808,23.0948447],[99.1827104,23.0952064],[99.1786796,23.0964208],[99.1640035,23.0976869],[99.1386821,23.1052058],[99.1300004,23.1062393],[99.0921733,23.1015109],[99.0749134,23.101666],[99.0550696,23.1095983],[99.0392566,23.1271424],[99.0331588,23.1464177],[99.0264409,23.1604479],[99.0093877,23.1621532],[98.9903707,23.1600345],[98.9707337,23.1622049],[98.9334233,23.1721526],[98.8590092,23.1793873],[98.8601461,23.2122794],[98.9106857,23.2975971],[98.8965263,23.3232803],[98.8604562,23.322376],[98.8534282,23.3248823],[98.8532215,23.334985],[98.8621098,23.3405919],[98.8737887,23.344571],[98.8818502,23.349687],[98.8901184,23.3679029],[98.8922889,23.386894],[98.8896017,23.4067894],[98.8755457,23.4464253],[98.8639702,23.4666049],[98.8488807,23.4804025],[98.8300704,23.480015],[98.8098133,23.474098],[98.7999948,23.4807384],[98.7808745,23.5328541],[98.7843885,23.5470393],[98.796274,23.5579172],[98.8432996,23.5840138],[98.8502242,23.5906284],[98.8573556,23.6043485],[98.856012,23.610007],[98.8496041,23.6147354],[98.8079529,23.6757911],[98.8003048,23.6927151],[98.7990646,23.7432289],[98.7931735,23.7584734],[98.7778772,23.7692996],[98.7383964,23.7755525],[98.7083208,23.7846992],[98.684963,23.7848026],[98.6756613,23.7873864],[98.6636723,23.7969465],[98.663569,23.8030702],[98.6683232,23.8087029],[98.6714238,23.8167386],[98.6641891,23.8903775],[98.6648092,23.9033741],[98.6729741,23.928308],[98.6745244,23.9368863],[98.6657394,23.953216],[98.6588147,23.9611225],[98.6632589,23.9695458],[98.6798987,23.9762637],[98.6992257,23.9815606],[98.7167957,23.9884077],[98.7655782,24.0270617],[98.8562187,24.0838024],[98.8734786,24.1144982],[98.8669674,24.1432561],[98.8657272,24.1456849],[98.8552885,24.138967],[98.8180815,24.1289676],[98.7161756,24.1213453],[98.6817591,24.1068759],[98.6404179,24.1007523],[98.6125127,24.0875489],[98.5971131,24.0830789],[98.585,24.07579],[98.5852275,24.075715],[98.5702413,24.0820971],[98.5430595,24.0939568],[98.5032687,24.1212678],[98.4745366,24.1278307],[98.4349524,24.1302595],[98.395575,24.1280633],[98.3787285,24.1224047],[98.3473092,24.104938],[98.3306694,24.0994862],[98.2932557,24.1001321],[98.2191517,24.1173662],[98.1815312,24.1186581],[98.1050501,24.1015274],[97.8899728,24.0226175],[97.8766403,24.0144009],[97.8363326,23.9717679],[97.8178325,23.9581511],[97.8040865,23.954508],[97.7895138,23.9531385],[97.7678097,23.9464723],[97.7481726,23.9340699],[97.6968063,23.8871219],[97.6769625,23.8786986],[97.6556718,23.8725491],[97.6473448,23.8685244],[97.6370683,23.8635574],[97.6245,23.84687],[97.624666,23.8467109],[97.619705,23.8659862],[97.6154676,23.875133],[97.6098865,23.8831428],[97.5726795,23.9075599],[97.532992,23.9237088],[97.5164555,23.9428291],[97.7076583,24.1252986],[97.7200607,24.1474419],[97.7230579,24.1712648],[97.7187171,24.1815484],[97.7045577,24.1992475],[97.7015605,24.2109264],[97.7046611,24.2217268],[97.7111723,24.2284706],[97.7185104,24.2339741],[97.7240914,24.2415189],[97.718407,24.2776665],[97.6445097,24.3023937],[97.6382052,24.3281027],[97.6536048,24.3387222],[97.6742754,24.340841],[97.6895716,24.3464737],[97.6883313,24.3677127],[97.6809933,24.3777638],[97.6625965,24.3900628],[97.6573255,24.402],[97.6554651,24.4120769],[97.6522612,24.4227223],[97.6473003,24.4323341],[97.6398588,24.4392846],[97.6243559,24.4422818],[97.6006881,24.4419201],[97.5195561,24.4307838],[97.5132516,24.4385869],[97.5138717,24.4616863],[97.538573,24.5972594],[97.5327853,24.7233241],[97.5360926,24.7450282],[97.5361959,24.7450799],[97.6039954,24.7864468],[97.642546,24.8167809],[97.6639401,24.8297775],[97.6859542,24.8335241],[97.7265719,24.8262894],[97.7314942,24.82633],[97.7484827,24.8264702],[97.7650251,24.8345628],[97.7698522,24.8466124],[97.7729298,24.8545628],[97.7640442,24.8663141],[97.7609884,24.8702919],[97.7522211,24.8766893],[97.7240914,24.8972153],[97.7190725,24.9067612],[97.7085,24.92749],[97.7035,24.96058],[97.7042405,24.9943597],[97.7051779,25.0288351],[97.6995968,25.0650086],[97.7036148,25.0738946],[97.7093529,25.0756256],[97.7215,25.07929],[97.7375,25.09061],[97.754,25.1137],[97.7709757,25.1467731],[97.7770081,25.1586205],[97.7984475,25.2292689],[97.800986,25.2376338],[97.8236144,25.2616055],[97.8362724,25.2555707],[97.8605,25.24402],[97.872,25.22774],[97.879,25.21372],[97.8881673,25.2062487],[97.8889393,25.2056461],[97.9099199,25.2075581],[97.9259294,25.2159591],[97.9309017,25.2186371],[97.931,25.21869],[97.9765,25.27206],[97.9925,25.28246],[98.0061008,25.2887562],[98.0335,25.30144],[98.0387746,25.3062101],[98.0448987,25.3119445],[98.0566672,25.3401613],[98.0625721,25.3543192],[98.0756979,25.3760749],[98.0854987,25.3828574],[98.09,25.38594],[98.0910181,25.3861144],[98.1084656,25.3891041],[98.1091836,25.3905203],[98.112,25.39633],[98.11,25.41033],[98.1117164,25.4428817],[98.1119685,25.4483378],[98.1045,25.46677],[98.1002197,25.4895753],[98.0995,25.49341],[98.1,25.50017],[98.1015,25.5024267],[98.1046367,25.5067646],[98.1230335,25.5222159],[98.1341956,25.5346182],[98.1369679,25.5429904],[98.1393632,25.5502245],[98.1384331,25.5989554],[98.1390778,25.6038309],[98.1400867,25.6114611],[98.1461578,25.6124213],[98.15,25.61294],[98.2325,25.58634],[98.247,25.57912],[98.2765,25.55251],[98.2765568,25.5525002],[98.2802942,25.5518533],[98.2894316,25.5503795],[98.3079006,25.5561564],[98.312,25.55747],[98.3325,25.56695],[98.347,25.57777],[98.357,25.59265],[98.3645905,25.6184519],[98.37,25.63684],[98.371596,25.6408684],[98.375,25.64946],[98.413,25.69227],[98.4158161,25.6987953],[98.4165,25.70038],[98.4182922,25.7217786],[98.418726,25.7242191],[98.4200994,25.7257345],[98.4284779,25.7334587],[98.4381266,25.7423538],[98.4392933,25.7435977],[98.4486907,25.7678197],[98.4526258,25.7779625],[98.4543078,25.7811964],[98.4615,25.79451],[98.473472,25.8048704],[98.4745,25.80576],[98.4801954,25.8117584],[98.498,25.83051],[98.5052202,25.8353193],[98.5094698,25.8380622],[98.5161766,25.8383417],[98.527,25.83862],[98.5395,25.83366],[98.5452492,25.8293856],[98.5625,25.81656],[98.5683696,25.8142662],[98.5998561,25.8019616],[98.6004916,25.8017133],[98.6006028,25.8017003],[98.61,25.80081],[98.626,25.80666],[98.6481676,25.8222029],[98.6778317,25.8432816],[98.6848597,25.8531001],[98.6870489,25.8581731],[98.69,25.86561],[98.6919033,25.8758879],[98.6924044,25.87899],[98.6898206,25.891599],[98.6867925,25.8951116],[98.6845,25.89755],[98.6813425,25.8987341],[98.6725,25.90205],[98.6675,25.90565],[98.661934,25.9169812],[98.658,25.92499],[98.6428439,25.9459568],[98.6253284,25.9699922],[98.6221522,25.9732766],[98.616,25.97939],[98.604167,25.9824863],[98.5947303,25.9810791],[98.5924622,25.9807409],[98.582437,25.9822912],[98.5800533,25.9866379],[98.5755,25.99512],[98.5760598,26.0033382],[98.577,26.01714],[98.5725,26.03556],[98.5648506,26.0502303],[98.554,26.07104],[98.5475,26.08811],[98.5458709,26.1023731],[98.54554,26.1056428],[98.5501909,26.120784],[98.5626365,26.1309212],[98.563,26.13121],[98.602,26.13974],[98.6195,26.14557],[98.6255,26.14423],[98.6249723,26.125276],[98.6245,26.10831],[98.631,26.09709],[98.6445,26.09799],[98.6541972,26.1051474],[98.6808289,26.1249698],[98.6829228,26.1279086],[98.6865,26.13345],[98.6865,26.1541],[98.6865134,26.1541107],[98.6865133,26.1541153],[98.6924044,26.1599547],[98.7002592,26.1653291],[98.7054756,26.1748413],[98.702957,26.1852999],[98.7014995,26.1911673],[98.6770048,26.2393297],[98.6766445,26.2396944],[98.6681108,26.2481995],[98.6542382,26.2458398],[98.6481694,26.2448074],[98.6421749,26.2545226],[98.644552,26.2715758],[98.6482674,26.285818],[98.6495,26.29046],[98.658,26.31153],[98.6809992,26.3363167],[98.6975,26.3541],[98.7049076,26.3667077],[98.7073906,26.371053],[98.7133827,26.3891309],[98.7134906,26.3894613],[98.7135621,26.3898317],[98.717,26.40874],[98.721,26.53899],[98.7261789,26.5638041],[98.728,26.57253],[98.7383675,26.5894872],[98.7485,26.60606],[98.7535654,26.6196497],[98.7554907,26.6248736],[98.747,26.65568],[98.7469021,26.6606671],[98.7468158,26.6650576],[98.7465109,26.6805832],[98.746458,26.6810599],[98.7393044,26.6971043],[98.7320166,26.7134497],[98.7345,26.7343],[98.7399895,26.7483265],[98.749,26.77135],[98.7500014,26.7850619],[98.7503854,26.7920092],[98.7447685,26.8049936],[98.7424272,26.810406],[98.7181393,26.8424971],[98.7145259,26.8620093],[98.7148427,26.8628566],[98.718656,26.8726761],[98.7331254,26.8879206],[98.7339892,26.8907071],[98.7363294,26.8982559],[98.7360603,26.9021798],[98.7357093,26.9072993],[98.7126616,26.9951492],[98.7206198,27.0139595],[98.7316785,27.0310644],[98.7336006,27.0366189],[98.7377763,27.048686],[98.7313684,27.0687881],[98.7164856,27.0824824],[98.7027397,27.0868232],[98.6971641,27.0895603],[98.6914792,27.0923511],[98.6885907,27.0980639],[98.6825,27.11011],[98.6725,27.17552],[98.6735,27.20799],[98.68,27.23689],[98.704,27.30399],[98.7075,27.33731],[98.7012252,27.3570946],[98.6973654,27.3689249],[98.6910608,27.3731623],[98.6837228,27.3736274],[98.6825442,27.3740836],[98.6774727,27.3760468],[98.6745,27.3866],[98.6685,27.47536],[98.669992,27.4997089],[98.6711137,27.516151],[98.6746458,27.5295335],[98.6817591,27.5564845],[98.6792786,27.5773359],[98.6782496,27.5791209],[98.6655,27.59728],[98.656,27.60659],[98.6489773,27.6107334],[98.6472392,27.6117266],[98.6353596,27.6490516],[98.4929417,27.8689247],[98.4504663,27.9988497],[98.4304778,28.1187805],[98.4099935,28.2506015],[98.373665,28.2898498],[98.3457597,28.3260233],[98.2580773,28.4311003],[98.1656306,28.4335989],[98.0981696,28.3936219],[97.8975175,28.3553246],[97.6759132,28.2661955],[97.4910199,28.1587575],[97.4460459,28.0738065],[97.3363115,27.9131811],[97.3381718,27.9015539],[97.333521,27.8941641],[97.3149174,27.884604],[97.2929033,27.8775502],[97.2886658,27.8843456],[97.2880457,27.8977556],[97.2763668,27.9103388],[97.2606572,27.9120442],[97.2412268,27.9078584],[97.2229334,27.8997193],[97.2109445,27.8895132],[97.1980254,27.873261],[97.182109,27.8572672],[97.1317762,27.8168562],[96.9688213,27.646553],[96.9513314,27.4816482],[97.0162939,27.3941987],[97.0312852,27.2767664],[97.0679041,27.2170995],[97.0954993,27.1912613],[97.0997585,27.1854049],[97.1012871,27.1833031],[97.1015,27.174014],[97.1017005,27.165268],[97.103531,27.1589667],[97.1045,27.15595],[97.1055976,27.1548335]]],[[[93.7855,19.28639],[93.797,19.27836],[93.8025,19.27647],[93.8235,19.27931],[93.857,19.27883],[93.865,19.28308],[93.8665,19.29111],[93.863,19.2996],[93.863,19.30762],[93.875,19.31376],[93.879,19.31234],[93.8835,19.30149],[93.8895,19.2996],[93.899,19.30337],[93.917,19.31847],[93.94,19.34867],[93.954,19.3548],[93.966,19.36282],[93.9725,19.38169],[93.9735,19.40291],[93.9705,19.41706],[93.956,19.43262],[93.9175,19.45384],[93.8995,19.46798],[93.88,19.4793],[93.858,19.48259],[93.8365,19.4793],[93.82,19.47128],[93.803,19.48731],[93.7555,19.52313],[93.7405,19.54669],[93.731,19.55423],[93.688,19.55941],[93.649,19.51323],[93.6555,19.50428],[93.6565,19.49721],[93.652,19.49344],[93.642,19.49202],[93.659,19.45761],[93.669,19.4463],[93.6835,19.43734],[93.7165,19.42743],[93.7305,19.41942],[93.738,19.40338],[93.7365,19.39678],[93.7265,19.39678],[93.7245,19.39254],[93.7255,19.38688],[93.731,19.37886],[93.7335,19.36801],[93.743,19.35527],[93.75,19.3331],[93.774,19.29866],[93.7855,19.28639]]],[[[93.7425,18.87245],[93.7075,18.86819],[93.6835,18.86914],[93.6635,18.87339],[93.642,18.88948],[93.622,18.91029],[93.611,18.90509],[93.6,18.89043],[93.577,18.88191],[93.484,18.87481],[93.493,18.84926],[93.498,18.84075],[93.594,18.73093],[93.6185,18.71151],[93.6305,18.6992],[93.6355,18.68688],[93.6455,18.6793],[93.6675,18.67504],[93.693,18.67362],[93.7115,18.67646],[93.732,18.68972],[93.747,18.70867],[93.756,18.7314],[93.759,18.75555],[93.757,18.76502],[93.748,18.78774],[93.7455,18.80004],[93.746,18.81093],[93.7515,18.84075],[93.7495,18.86535],[93.7425,18.87245]]],[[[94.4465,15.91315],[94.4685,15.92998],[94.4785,15.94248],[94.478,15.96603],[94.499,15.97997],[94.5535,15.99728],[94.5695,16.00497],[94.5795,16.01314],[94.6295,16.07513],[94.6545,16.1222],[94.6675,16.17215],[94.662,16.22209],[94.643,16.24561],[94.6115,16.22161],[94.5495,16.1491],[94.519,16.12028],[94.511,16.10779],[94.496,16.07561],[94.4855,16.05879],[94.453,16.0338],[94.417,16.01842],[94.3895,16.00112],[94.3825,15.9694],[94.409,15.90738],[94.417,15.87179],[94.4025,15.84678],[94.4025,15.83909],[94.41,15.83909],[94.433,15.86939],[94.441,15.88526],[94.437,15.90065],[94.4465,15.91315]]],[[[98.3875,12.65754],[98.333,12.6712],[98.3155,12.6873],[98.302,12.64632],[98.3025,12.5985],[98.314,12.55312],[98.333,12.51944],[98.334,12.51212],[98.3195,12.50138],[98.3155,12.49552],[98.3165,12.49064],[98.321,12.48722],[98.3255,12.47404],[98.334,12.45988],[98.336,12.4511],[98.333,12.42717],[98.319,12.38615],[98.3155,12.36515],[98.3115,12.35978],[98.302,12.3378],[98.35,12.32608],[98.3915,12.36173],[98.456,12.45793],[98.4655,12.48088],[98.47,12.51749],[98.4705,12.55605],[98.4665,12.58386],[98.451,12.60387],[98.438,12.58728],[98.429,12.55556],[98.4255,12.52969],[98.401,12.57166],[98.398,12.58728],[98.4055,12.63022],[98.4055,12.639],[98.3875,12.65754]]],[[[98.4585,11.80338],[98.4455,11.80338],[98.4475,11.79604],[98.453,11.78919],[98.438,11.78723],[98.3935,11.79408],[98.371,11.78919],[98.3755,11.77989],[98.382,11.77597],[98.4015,11.77549],[98.413,11.77353],[98.4105,11.76863],[98.3925,11.75737],[98.3855,11.75542],[98.38,11.75101],[98.3775,11.73779],[98.3815,11.73143],[98.3995,11.71625],[98.4055,11.70793],[98.382,11.70401],[98.3795,11.69128],[98.3915,11.66288],[98.3975,11.65554],[98.4105,11.64623],[98.4185,11.63203],[98.4115,11.61195],[98.4155,11.6046],[98.419,11.59971],[98.424,11.59922],[98.4315,11.60509],[98.429,11.58305],[98.4325,11.56689],[98.442,11.56395],[98.459,11.58403],[98.465,11.57473],[98.5005,11.56346],[98.524,11.53701],[98.5355,11.52917],[98.5285,11.5806],[98.5315,11.59334],[98.5455,11.60901],[98.549,11.62175],[98.546,11.69912],[98.5555,11.728],[98.5565,11.75884],[98.555,11.76961],[98.549,11.79164],[98.5435,11.79898],[98.5355,11.80338],[98.522,11.80485],[98.487,11.79604],[98.4585,11.80338]]],[[[97.504,16.50802],[97.486,16.50082],[97.47,16.49028],[97.4595,16.47733],[97.455,16.43705],[97.4725,16.40828],[97.48,16.38909],[97.485,16.36415],[97.483,16.34208],[97.469,16.33248],[97.4595,16.30129],[97.4995,16.26961],[97.5105,16.25425],[97.517,16.20961],[97.5475,16.2],[97.5715,16.22257],[97.5665,16.25377],[97.57,16.29025],[97.569,16.29841],[97.572,16.31185],[97.584,16.32912],[97.5895,16.34016],[97.5915,16.36127],[97.5885,16.39964],[97.5895,16.41547],[97.6105,16.44616],[97.61,16.46439],[97.6065,16.48356],[97.585,16.48596],[97.562,16.49219],[97.5205,16.51089],[97.504,16.50802]]],[[[98.2405,11.62468],[98.223,11.61734],[98.217,11.59873],[98.2025,11.58942],[98.1995,11.5806],[98.2015,11.56885],[98.211,11.5615],[98.213,11.55317],[98.1875,11.53505],[98.1995,11.48801],[98.192,11.4787],[98.184,11.47282],[98.175,11.47086],[98.1655,11.4738],[98.1655,11.45371],[98.1765,11.4493],[98.187,11.44636],[98.199,11.44636],[98.2105,11.44881],[98.22,11.45371],[98.2045,11.45861],[98.202,11.46645],[98.21,11.47282],[98.227,11.4738],[98.2235,11.48311],[98.2235,11.48899],[98.2335,11.50173],[98.2375,11.49389],[98.261,11.46792],[98.2615,11.47429],[98.268,11.48801],[98.275,11.48066],[98.2835,11.50957],[98.2825,11.5664],[98.2955,11.59138],[98.288,11.61097],[98.29,11.63154],[98.302,11.67317],[98.3005,11.70499],[98.302,11.71429],[98.3065,11.71723],[98.32,11.72213],[98.323,11.73143],[98.318,11.75003],[98.3065,11.77744],[98.292,11.79898],[98.2785,11.79996],[98.2725,11.78625],[98.268,11.74122],[98.2385,11.68688],[98.2335,11.66631],[98.2345,11.65554],[98.241,11.63595],[98.2405,11.62468]]],[[[98.431,12.10079],[98.431,12.08759],[98.439,12.05679],[98.4405,12.01522],[98.459,11.99615],[98.471,11.98832],[98.473,11.97805],[98.471,11.97023],[98.4615,11.95555],[98.459,11.94773],[98.4595,11.93354],[98.4635,11.92082],[98.478,11.89098],[98.496,11.88853],[98.516,11.89587],[98.5355,11.90908],[98.552,11.92327],[98.5725,11.93158],[98.6315,11.93207],[98.658,11.9399],[98.658,11.93403],[98.659,11.94871],[98.6425,11.95751],[98.6035,11.96729],[98.5745,11.99322],[98.5595,12.00104],[98.5415,11.99517],[98.52,12.00691],[98.5095,12.01669],[98.4935,12.04945],[98.473,12.07733],[98.439,12.11204],[98.431,12.10079]]],[[[98.141,10.97749],[98.1365,10.97061],[98.131,10.94656],[98.113,10.9338],[98.086,10.90385],[98.0775,10.88814],[98.0895,10.87832],[98.1005,10.88224],[98.131,10.90287],[98.1375,10.90925],[98.14,10.92005],[98.1465,10.92447],[98.156,10.92398],[98.1655,10.91907],[98.1715,10.88519],[98.179,10.89845],[98.1985,10.88175],[98.2165,10.85966],[98.2185,10.85573],[98.22,10.841],[98.223,10.83756],[98.2365,10.83363],[98.2405,10.83118],[98.242,10.81448],[98.234,10.78304],[98.2335,10.76831],[98.2515,10.75603],[98.2555,10.7462],[98.2405,10.73491],[98.2335,10.7408],[98.232,10.70838],[98.237,10.69757],[98.2505,10.69315],[98.268,10.69659],[98.2765,10.70494],[98.2885,10.72705],[98.289,10.73343],[98.2905,10.7354],[98.2955,10.73491],[98.2855,10.74522],[98.283,10.75652],[98.287,10.7688],[98.2955,10.78206],[98.2765,10.78452],[98.271,10.79876],[98.2705,10.8189],[98.268,10.83707],[98.2575,10.84984],[98.2435,10.85917],[98.232,10.87046],[98.227,10.88814],[98.2255,10.90729],[98.222,10.92643],[98.2155,10.9446],[98.2055,10.95981],[98.191,10.9711],[98.172,10.97847],[98.1535,10.98092],[98.141,10.97749]]],[[[98.1205,9.92279],[98.118,9.90851],[98.117,9.88191],[98.1205,9.86122],[98.131,9.86467],[98.1335,9.84546],[98.146,9.85679],[98.1715,9.89816],[98.1685,9.90457],[98.179,9.93264],[98.1935,9.93166],[98.228,9.95382],[98.244,9.96022],[98.251,9.9681],[98.258,9.98583],[98.269,10.00257],[98.2885,10.00799],[98.294,10.01931],[98.2895,10.02423],[98.281,10.02817],[98.275,10.03605],[98.2735,10.04196],[98.274,10.04787],[98.28,10.05082],[98.2955,10.04885],[98.2955,10.05574],[98.2825,10.05919],[98.275,10.05574],[98.2545,10.06264],[98.2345,10.05427],[98.2055,10.02916],[98.179,10.01389],[98.1715,10.00799],[98.16,9.98435],[98.1545,9.98041],[98.148,9.97056],[98.1405,9.96317],[98.1275,9.96022],[98.1245,9.93116],[98.1205,9.92279]]],[[[93.5185,19.76188],[93.517,19.77693],[93.505,19.80751],[93.501,19.82539],[93.505,19.87242],[93.499,19.88699],[93.4705,19.90533],[93.461,19.91943],[93.4425,19.93824],[93.422,19.9514],[93.403,19.95328],[93.4228061,19.8634132],[93.457,19.7887],[93.512,19.74588],[93.5185,19.76188]]],[[[98.0905,12.42229],[98.076,12.42717],[98.0635,12.39787],[98.0455,12.38908],[98.042,12.38029],[98.042,12.35831],[98.027,12.36124],[98.014,12.35831],[98.0055,12.3671],[98.0035,12.37394],[98.008,12.38029],[98.0175,12.38908],[98.0235,12.39885],[98.018,12.40276],[98.007,12.40178],[97.976,12.38371],[97.9545,12.37785],[97.94,12.36613],[97.938,12.3378],[97.9455,12.3378],[97.953,12.34903],[97.966,12.35831],[97.971,12.34464],[97.9485,12.32363],[97.9455,12.30996],[97.955,12.30556],[97.9695,12.308],[97.9825,12.30654],[97.9865,12.28944],[97.991,12.28651],[98.0005,12.26892],[98.0105,12.30996],[98.0295,12.31582],[98.0395,12.32266],[98.048,12.33047],[98.0645,12.35978],[98.0655,12.36515],[98.0875,12.36027],[98.0965,12.36515],[98.1045,12.38322],[98.101,12.40471],[98.0905,12.42229]]],[[[98.268,13.05726],[98.281,12.99393],[98.2885,12.97493],[98.288,12.95739],[98.3015,12.93351],[98.302,12.91353],[98.3145,12.92571],[98.3135,12.94618],[98.302,12.98857],[98.3005,13.01975],[98.302,13.02949],[98.3065,13.04021],[98.334,13.067],[98.3365,13.07382],[98.33,13.08453],[98.3185,13.09135],[98.3105,13.08794],[98.3035,13.08307],[98.2955,13.08453],[98.289,13.09866],[98.269,13.19895],[98.2615,13.21453],[98.2475,13.21502],[98.242,13.20382],[98.239,13.15855],[98.2405,13.13907],[98.245,13.11862],[98.268,13.05726]]],[[[98.073,12.16483],[98.0765,12.1619],[98.0825,12.15896],[98.1005,12.16923],[98.1165,12.16532],[98.1295,12.15359],[98.1375,12.13892],[98.14,12.14821],[98.1375,12.19073],[98.132,12.19855],[98.1195,12.19758],[98.106,12.1922],[98.0965,12.18731],[98.098,12.19904],[98.117,12.22103],[98.12,12.23032],[98.124,12.25963],[98.1195,12.27576],[98.108,12.28455],[98.092,12.28846],[98.0725,12.28944],[98.059,12.28162],[98.046,12.26208],[98.037,12.2396],[98.0345,12.22103],[98.0395,12.20735],[98.0595,12.1878],[98.073,12.16483]]],[[[94.7595,15.85207],[94.745,15.83283],[94.725,15.81888],[94.725,15.81215],[94.748,15.79964],[94.778,15.79146],[94.8035,15.79675],[94.819,15.83476],[94.8375,15.86458],[94.8415,15.87756],[94.8395,15.89007],[94.83,15.91651],[94.828,15.9319],[94.8235,15.94584],[94.807,15.93094],[94.78,15.89391],[94.7595,15.85207]]],[[[98.065,11.64623],[98.0895,11.63203],[98.0855,11.64476],[98.0615,11.67317],[98.0675,11.68296],[98.0675,11.69128],[98.0635,11.69716],[98.0555,11.70107],[98.0655,11.70646],[98.0745,11.71331],[98.0805,11.72262],[98.0825,11.73486],[98.058,11.72898],[98.0525,11.74954],[98.0525,11.77597],[98.045,11.78919],[98.014,11.8166],[98.012,11.82736],[98.014,11.86504],[98.0,11.84156],[98.012,11.78723],[98.007,11.76178],[98.0225,11.75591],[98.0285,11.73681],[98.0285,11.71723],[98.0245,11.70793],[98.0115,11.7045],[98.0165,11.69765],[98.0345,11.68688],[98.0495,11.66484],[98.0555,11.65945],[98.0575,11.65309],[98.065,11.64623]]],[[[93.001,19.90674],[93.0085,19.88981],[93.013,19.84655],[93.0185,19.82774],[93.025,19.82774],[93.022,19.87007],[93.0145,19.9058],[92.9675,20.02235],[92.964,20.03691],[92.9625,20.04631],[92.9585,20.05476],[92.917,20.08904],[92.912,20.08482],[92.9085,20.07495],[92.9095,20.06509],[92.92,20.0557],[92.9225,20.05053],[92.926,20.03362],[92.9875,19.92507],[93.001,19.90674]]],[[[98.532,11.08398],[98.5245,11.08643],[98.514,11.06975],[98.5135,11.06288],[98.516,11.04521],[98.514,11.03589],[98.5095,11.02755],[98.503,11.02117],[98.487,11.00841],[98.4785,10.99319],[98.477,10.97356],[98.486,10.95589],[98.508,10.94656],[98.5085,10.95687],[98.512,10.96521],[98.519,10.9711],[98.5285,10.97454],[98.53,10.95736],[98.534,10.95098],[98.5415,10.95392],[98.543,10.9603],[98.5415,10.98779],[98.545,11.01577],[98.5445,11.03098],[98.537,11.06877],[98.532,11.08398]]],[[[98.2335,10.14435],[98.2275,10.15075],[98.228,10.15518],[98.2335,10.16551],[98.241,10.16797],[98.2405,10.1724],[98.222,10.17782],[98.196,10.19307],[98.179,10.19307],[98.179,10.18569],[98.185,10.17683],[98.182,10.16847],[98.1755,10.15961],[98.1715,10.14829],[98.174,10.13992],[98.1835,10.12712],[98.186,10.12122],[98.186,10.04196],[98.1955,10.07051],[98.2015,10.11826],[98.208,10.1286],[98.2335,10.14435]]],[[[98.5265,10.81104],[98.513,10.80957],[98.504,10.80613],[98.4985,10.79385],[98.5095,10.78648],[98.527,10.78697],[98.5415,10.79631],[98.553,10.83265],[98.542,10.86015],[98.519,10.8793],[98.4935,10.89108],[98.491,10.88077],[98.4915,10.86653],[98.495,10.85131],[98.5005,10.83707],[98.5005,10.82332],[98.509,10.82823],[98.5185,10.8297],[98.5255,10.82676],[98.5285,10.81988],[98.5265,10.81104]]],[[[98.482,12.41057],[98.4955,12.40569],[98.5085,12.41008],[98.514,12.42375],[98.517,12.47941],[98.514,12.49552],[98.5,12.51309],[98.4885,12.49308],[98.4745,12.42522],[98.482,12.41057]]],[[[98.2625,12.56873],[98.237,12.55702],[98.2335,12.55361],[98.2295,12.52725],[98.23,12.517],[98.237,12.50626],[98.2605,12.49503],[98.283,12.50382],[98.29,12.52627],[98.268,12.55702],[98.2625,12.56873]]]]}}]}
