{
"type": "FeatureCollection",
"name": "border-unclear-contested",
"crs": { "type": "name", "properties": { "name": "urn:ogc:def:crs:OGC:1.3:CRS84" } },
"features": [
{ "type": "Feature", "properties": { "fid": 1 }, "geometry": { "type": "Polygon", "coordinates": [ [ [ 97.106041300000129, 27.805539043000024 ], [ 97.098186483000063, 27.791017965 ], [ 97.092192017000059, 27.785488587000074 ], [ 97.072348267000052, 27.779184062000084 ], [ 97.065320272000065, 27.773990581000064 ], [ 97.062012981000066, 27.763345235000074 ], [ 97.060359334000111, 27.750451965000067 ], [ 97.056741984000041, 27.746782939000056 ], [ 97.050540812000065, 27.746782939000056 ], [ 97.036174764000066, 27.742920068000032 ], [ 97.004032024000082, 27.734277242000061 ], [ 96.990906210000048, 27.726629130000092 ], [ 96.957006470000124, 27.688078512000018 ], [ 96.939539836000108, 27.674022522000101 ], [ 96.899748983000052, 27.649476217000128 ], [ 96.883522584000048, 27.636324565000066 ], [ 96.870190064000042, 27.619090475000078 ], [ 96.862128540000072, 27.599298401000098 ], [ 96.862025188000132, 27.57836944600011 ], [ 96.866159302000028, 27.568447571000021 ], [ 96.877321412000072, 27.553073832000038 ], [ 96.880318644000113, 27.543849589000033 ], [ 96.881042115000071, 27.534392802000056 ], [ 96.884659465000084, 27.515840963000116 ], [ 96.888483521000126, 27.507185160000077 ], [ 96.890240519000088, 27.492483215000064 ], [ 96.877011352000068, 27.463079325000095 ], [ 96.881352173000096, 27.44411407500003 ], [ 96.90512333200013, 27.408405660000128 ], [ 97.067904094000085, 27.217099508000061 ], [ 97.095499309000047, 27.191261292000021 ], [ 97.101287069000136, 27.183303121000066 ], [ 97.101700481000137, 27.165268046000065 ], [ 97.104387655000096, 27.156017965000061 ], [ 97.111725708000051, 27.148834941000089 ], [ 97.120820761000061, 27.143925680000066 ], [ 97.129295696000042, 27.137879537000018 ], [ 97.134773397000117, 27.12733754500006 ], [ 97.133016399000041, 27.119586080000047 ], [ 97.122887817000105, 27.093696188000123 ], [ 97.119167114000106, 27.087288310000091 ], [ 97.106041300000129, 27.082585754000021 ], [ 97.097979778000138, 27.085893046000095 ], [ 97.089918254000054, 27.092197571000028 ], [ 97.077205851000087, 27.096486715000069 ], [ 97.066973918000031, 27.095246480000057 ], [ 97.058826607000128, 27.092075635000057 ], [ 97.047853638000106, 27.087805074000116 ], [ 97.03803511600006, 27.087029928 ], [ 97.026769654000077, 27.091474101000117 ], [ 97.018914836000135, 27.098708802000075 ], [ 97.011886841000035, 27.107028707000055 ], [ 97.002998495000043, 27.114521790000069 ], [ 96.865332479000131, 27.1716242480001 ], [ 96.842698202000065, 27.188522441000075 ], [ 96.841768026000125, 27.204387106000084 ], [ 96.851276490000032, 27.221181946000073 ], [ 96.859648072000084, 27.240715637000065 ], [ 96.853756958000076, 27.248725485000037 ], [ 96.821717570000089, 27.273065084000066 ], [ 96.809935344000053, 27.285777487000118 ], [ 96.789161417000116, 27.317971904000061 ], [ 96.776345663000029, 27.330632630000096 ], [ 96.758879028000081, 27.341743063000123 ], [ 96.724152466000078, 27.35626414000005 ], [ 96.705238892000125, 27.360759989000073 ], [ 96.687255493000123, 27.361741842000058 ], [ 96.67588667900003, 27.357659404000046 ], [ 96.659246867000036, 27.341433004000024 ], [ 96.649014933000046, 27.336213685000118 ], [ 96.636405884000112, 27.335541891000034 ], [ 96.629274536000082, 27.338694153000077 ], [ 96.623176718000138, 27.343655091000031 ], [ 96.614185018000057, 27.348409323000041 ], [ 96.586899862000053, 27.353576966000034 ], [ 96.576047811000137, 27.345412089000021 ], [ 96.567469524000103, 27.328307191000064 ], [ 96.547315715000138, 27.306448059000033 ], [ 96.531812785000113, 27.298541565000065 ], [ 96.510935507000056, 27.292495422000044 ], [ 96.490058227000077, 27.290738424000054 ], [ 96.474658651000084, 27.295389303000022 ], [ 96.407789347000119, 27.29817983000008 ], [ 96.14258589700006, 27.257510478000128 ], [ 96.074166301000048, 27.229863586000121 ], [ 96.01318811100009, 27.190796204000023 ], [ 95.974844198000085, 27.142892151000083 ], [ 95.938360637000073, 27.079898580000062 ], [ 95.916449830000033, 27.051373189000017 ], [ 95.888854615000128, 27.027033590000102 ], [ 95.86146610500009, 27.014217835000025 ], [ 95.804932088000101, 27.004761048000049 ], [ 95.777956991000053, 26.995149231000042 ], [ 95.734962199000108, 26.947296855000033 ], [ 95.709227336000026, 26.907454326000035 ], [ 95.699305461000108, 26.896188863000063 ], [ 95.686076294000031, 26.891279603000029 ], [ 95.63998091600007, 26.88642201800009 ], [ 95.624271281000119, 26.880737610000054 ], [ 95.613315877000048, 26.867921855000063 ], [ 95.60339400200013, 26.844254049000043 ], [ 95.591301717000078, 26.823738505000065 ], [ 95.57476525900006, 26.816142070000112 ], [ 95.554404744000124, 26.816607157000035 ], [ 95.531357056000047, 26.820276185000026 ], [ 95.489809204000096, 26.810716044000046 ], [ 95.46273075300013, 26.777178040000123 ], [ 95.439993124000068, 26.73537180600006 ], [ 95.410640910000097, 26.701627096 ], [ 95.392657511000095, 26.691756898 ], [ 95.315969686000074, 26.669070943000051 ], [ 95.278969361000122, 26.652947897000061 ], [ 95.260572551000109, 26.647625224000123 ], [ 95.246933118000072, 26.648903921000041 ], [ 95.23907515500008, 26.649640605000073 ], [ 95.223262167000087, 26.670362854000089 ], [ 95.204865357000074, 26.66757232700003 ], [ 95.195563599000138, 26.660751038000072 ], [ 95.181610962000036, 26.641682435000106 ], [ 95.173239380000098, 26.63382761700008 ], [ 95.163420858000109, 26.62974517800005 ], [ 95.141406698000139, 26.624990946000068 ], [ 95.132621705000133, 26.620805155000127 ], [ 95.122803183000087, 26.611606751000025 ], [ 95.119082479000042, 26.604217021000025 ], [ 95.115878540000097, 26.575639954000067 ], [ 95.116188599000054, 26.569335429000049 ], [ 95.114948364000043, 26.562565816000117 ], [ 95.109574016000067, 26.551300354000048 ], [ 95.099238729000092, 26.536107484000027 ], [ 95.069886516000111, 26.506238506 ], [ 95.054383586000085, 26.494869690000101 ], [ 95.040637655000126, 26.475594381000079 ], [ 95.042601359000059, 26.459678040000043 ], [ 95.061721639000098, 26.426605123000073 ], [ 95.066062459000136, 26.407433167000065 ], [ 95.064202108000131, 26.392602031000123 ], [ 95.050456177000115, 26.359064026000013 ], [ 95.043634888000042, 26.327696432 ], [ 95.041774536000048, 26.287595520000096 ], [ 95.046322062000058, 26.247959697000042 ], [ 95.058724406000067, 26.217677307000102 ], [ 95.066372518000037, 26.211011047000099 ], [ 95.07453739500005, 26.208323873000055 ], [ 95.08280562300007, 26.206618551000091 ], [ 95.090763794000054, 26.202691142000035 ], [ 95.094484497000053, 26.195043030000065 ], [ 95.089730265000071, 26.187601624000123 ], [ 95.082392212000059, 26.179798483000113 ], [ 95.078361451000092, 26.171323548000103 ], [ 95.088179973000081, 26.10409250900004 ], [ 95.101719198000126, 26.093395488000041 ], [ 95.137479289000055, 26.082956848 ], [ 95.150088338000103, 26.070967916000043 ], [ 95.151225220000072, 26.049935608000041 ], [ 95.139546346000031, 26.029936829000079 ], [ 95.108230428000127, 25.995106913000129 ], [ 95.065855754000097, 25.953817444000023 ], [ 95.049422649000121, 25.943740540000064 ], [ 95.012008912000056, 25.931441549000041 ], [ 95.000640096000097, 25.922036438000063 ], [ 94.994025513000054, 25.90043569 ], [ 94.993198690000042, 25.880953674000111 ], [ 95.01345585200005, 25.777704163000053 ], [ 95.276139012342853, 25.757607531491821 ], [ 95.503137073723394, 25.726653250394474 ], [ 95.67854466660836, 25.767925625190937 ], [ 95.792043697298638, 25.819516093686513 ], [ 95.946815102785365, 25.922697030677668 ], [ 96.080950320873868, 25.819516093686513 ], [ 96.163495070466794, 25.788561812589169 ], [ 96.194449351564131, 25.933015124376784 ], [ 96.184131257865019, 26.036196061367939 ], [ 96.21508553896237, 26.087786529863518 ], [ 96.297630288555297, 26.005241780270595 ], [ 96.369856944449097, 25.9433332180759 ], [ 96.462719787741136, 25.974287499173247 ], [ 96.514310256236712, 26.01555987396971 ], [ 96.638127380626102, 26.025877967668826 ], [ 96.792898786112843, 25.9433332180759 ], [ 96.844489254608419, 25.767925625190937 ], [ 96.854807348307531, 25.592518032305975 ], [ 96.906397816803107, 25.53060947011128 ], [ 96.999260660095146, 25.520291376412164 ], [ 97.184986346679224, 25.561563751208627 ], [ 97.329439658466839, 25.592518032305975 ], [ 97.525483438750044, 25.582199938606859 ], [ 97.690572937935883, 25.520291376412164 ], [ 97.804071968626161, 25.458382814217472 ], [ 97.948525280413776, 25.48933709531482 ], [ 98.099779093000052, 25.500046692000112 ], [ 98.104636678000134, 25.506764628000056 ], [ 98.123033489000136, 25.522215882000054 ], [ 98.134195598000076, 25.534618225000102 ], [ 98.139363241000069, 25.550224508000056 ], [ 98.138433065000129, 25.598955384000092 ], [ 98.140086711000095, 25.611461080000097 ], [ 98.150215291000052, 25.613063050000036 ], [ 98.23238081900007, 25.586553040000027 ], [ 98.24716027900007, 25.579163310000112 ], [ 98.276615845000094, 25.552446594000045 ], [ 98.289431600000057, 25.550379538000087 ], [ 98.312065877000123, 25.557459208000111 ], [ 98.332633097000098, 25.566967672000104 ], [ 98.347102498000027, 25.577819723000047 ], [ 98.357231079000087, 25.592754212 ], [ 98.369840129000124, 25.636782532000055 ], [ 98.375214478000089, 25.649288229000078 ], [ 98.41324833200008, 25.69207631400009 ], [ 98.41634891800004, 25.700189514 ], [ 98.416658976000122, 25.712591859000057 ], [ 98.418726034000088, 25.724219056000024 ], [ 98.424720500000035, 25.730833639000124 ], [ 98.432265259000076, 25.736104635000046 ], [ 98.439293254000063, 25.7435977170001 ], [ 98.452625773000079, 25.777962545000022 ], [ 98.461307414000089, 25.794654033000072 ], [ 98.474536580000063, 25.805764465000081 ], [ 98.498101034000058, 25.830724183000072 ], [ 98.509469849000027, 25.838062236000056 ], [ 98.526833131000046, 25.838785706000053 ], [ 98.539545532000034, 25.833721415000085 ], [ 98.562386516000117, 25.816358135000073 ], [ 98.590911906000088, 25.806384583000053 ], [ 98.600317016000133, 25.801733704000085 ], [ 98.610032187000058, 25.800596822000088 ], [ 98.626051880000034, 25.806487936000067 ], [ 98.677831665000099, 25.843281555000075 ], [ 98.684859660000029, 25.853100078000054 ], [ 98.690234009000051, 25.865554097000128 ], [ 98.69240441900007, 25.878989971000081 ], [ 98.68982059800004, 25.8915990200001 ], [ 98.684652954000057, 25.897593486000048 ], [ 98.672353963000091, 25.90183095400009 ], [ 98.667289673000028, 25.905758362000043 ], [ 98.658091268000135, 25.925033671000094 ], [ 98.625328410000122, 25.969992168000104 ], [ 98.616233358000045, 25.979397278000064 ], [ 98.604244426000093, 25.982497864 ], [ 98.592462199000067, 25.980740865000129 ], [ 98.582436972000096, 25.982291159000042 ], [ 98.575408977000052, 25.995106913000129 ], [ 98.577165975000128, 26.017327780000059 ], [ 98.572618450000107, 26.035569560000013 ], [ 98.553808228000094, 26.071071269000058 ], [ 98.547296998000036, 26.088279521000047 ], [ 98.545539999000027, 26.105642803000066 ], [ 98.55019087800008, 26.120783997000061 ], [ 98.5630066330001, 26.131222636000118 ], [ 98.602177368000127, 26.139955953000069 ], [ 98.619333944000118, 26.145743714000062 ], [ 98.625741822000123, 26.144348450000066 ], [ 98.624294881000139, 26.108485006000038 ], [ 98.63080611200013, 26.096909485000097 ], [ 98.644448690000047, 26.097891337000064 ], [ 98.680828898000129, 26.12496978800003 ], [ 98.68672001200008, 26.133238017000068 ], [ 98.686513306000052, 26.154115296000029 ], [ 98.69240441900007, 26.159954732000116 ], [ 98.700259237000068, 26.165329082000071 ], [ 98.705530233000104, 26.174940898000088 ], [ 98.701499471000034, 26.191167298 ], [ 98.677004842000088, 26.239329733000076 ], [ 98.668219849000081, 26.248218079000097 ], [ 98.648169393000046, 26.244807434000066 ], [ 98.642174927000099, 26.25452260400003 ], [ 98.644552043000033, 26.271575827000035 ], [ 98.649512980000111, 26.290592753000013 ], [ 98.657781209000063, 26.311625061000129 ], [ 98.697675415000106, 26.354051412000061 ], [ 98.707390584000109, 26.371052959000068 ], [ 98.713488403000099, 26.389449768000063 ], [ 98.717209106000098, 26.408725077000028 ], [ 98.721136516000058, 26.538898011000086 ], [ 98.727957804000027, 26.572591045000038 ], [ 98.748525024000116, 26.605974019000101 ], [ 98.755553019000104, 26.625042623000084 ], [ 98.750695435000068, 26.646126607000028 ], [ 98.747078084000123, 26.655738424000035 ], [ 98.746768026000041, 26.664420064000083 ], [ 98.74738814300008, 26.672688293000036 ], [ 98.746457968000129, 26.681059876000106 ], [ 98.73198856700003, 26.713512675000018 ], [ 98.734365683000135, 26.734286601000079 ], [ 98.749248495000074, 26.771441956000061 ], [ 98.750385376000111, 26.792009176000064 ], [ 98.742427205000126, 26.810405986000049 ], [ 98.718139282000038, 26.842497050000063 ], [ 98.714521932000082, 26.862030741000083 ], [ 98.718656047000081, 26.872676087000073 ], [ 98.733125448000123, 26.88792063400011 ], [ 98.736329386000079, 26.898255921000029 ], [ 98.735709270000029, 26.907299296000062 ], [ 98.712661581000077, 26.995149231000042 ], [ 98.720619751000129, 27.013959452000066 ], [ 98.731678507000026, 27.031064352 ], [ 98.737776326000073, 27.048686015 ], [ 98.731368449000058, 27.068788147000063 ], [ 98.716485637000119, 27.082482402000082 ], [ 98.702739705000056, 27.086823222000064 ], [ 98.691370891000076, 27.092404276000067 ], [ 98.682689250000124, 27.110077617000073 ], [ 98.672560669000063, 27.17560333200008 ], [ 98.673594198000046, 27.207901103000054 ], [ 98.680208781000033, 27.237046611000082 ], [ 98.704186646000039, 27.304174296000028 ], [ 98.707700644000113, 27.337247213000083 ], [ 98.697365357000081, 27.368924866 ], [ 98.691060832000062, 27.373162334000043 ], [ 98.683722779000107, 27.373627422000069 ], [ 98.677314901000045, 27.376107890000057 ], [ 98.674421021000057, 27.386598206000102 ], [ 98.668323202000124, 27.475249126000094 ], [ 98.671113729000069, 27.516151022000102 ], [ 98.68175907400007, 27.556484477000069 ], [ 98.679278605000093, 27.577335918000031 ], [ 98.674214315000029, 27.586120911000123 ], [ 98.665739380000105, 27.597076315 ], [ 98.655920858000059, 27.606765645000038 ], [ 98.647239217000106, 27.611726583000078 ], [ 98.635043579000069, 27.611054789 ], [ 98.625845175000052, 27.605551249000101 ], [ 98.616543417000059, 27.59841990200006 ], [ 98.604554484000062, 27.592735494000109 ], [ 98.578406209000093, 27.59172780400003 ], [ 98.564350220000051, 27.603535869000055 ], [ 98.543369588000076, 27.642525737000042 ], [ 98.522182252000107, 27.656297506000087 ], [ 98.492313273000093, 27.643430074 ], [ 98.474536580000063, 27.657176005000039 ], [ 98.422240031000058, 27.680895487000058 ], [ 98.410251099000106, 27.68425445600009 ], [ 98.409190986980164, 27.683371029282267 ], [ 98.397435343000097, 27.656814270000027 ], [ 98.398158814000112, 27.619813945000075 ], [ 98.392887817000087, 27.587154440000106 ], [ 98.392289003530522, 27.585200247535965 ], [ 98.38327600100007, 27.555786845000071 ], [ 98.363949015000117, 27.532170716000067 ], [ 98.328602336000074, 27.522868957000028 ], [ 98.294702596000093, 27.536614889000063 ], [ 98.27568566900004, 27.570101217000072 ], [ 98.25439497900004, 27.648132629000074 ], [ 98.238065226000117, 27.680223694000077 ], [ 98.20437219300004, 27.727300924000062 ], [ 98.201788371000134, 27.736551005000095 ], [ 98.211503540000081, 27.760322164000044 ], [ 98.208402954000064, 27.766161601000036 ], [ 98.202098429000046, 27.771251729000099 ], [ 98.197860962000107, 27.780631002000078 ], [ 98.198017394879273, 27.785630337663687 ], [ 98.198481079000032, 27.800448914000057 ], [ 98.052865133885987, 27.950650776003702 ], [ 97.905072452182651, 27.984023317033483 ], [ 97.766814782202118, 27.936348258419507 ], [ 97.552277018439227, 27.917278234973917 ], [ 97.256691655032583, 27.812393106023169 ], [ 97.106041300000129, 27.805539043000024 ] ] ] } },
{ "type": "Feature", "properties": { "fid": 2 }, "geometry": { "type": "Polygon", "coordinates": [ [ [ 73.619547152505604, 39.487689008846438 ], [ 73.153501240583026, 39.371203625976385 ], [ 72.410598494246699, 39.102933189799387 ], [ 71.770876684901538, 38.81402656622415 ], [ 71.04588479703628, 38.132170108448378 ], [ 71.048610125963464, 37.782217196312601 ], [ 71.275608187344005, 37.802853383710833 ], [ 71.358152936936918, 37.513946760135596 ], [ 71.42006149913162, 37.039314449976281 ], [ 71.773220662000142, 36.480048320000037 ], [ 71.793787882000103, 36.490745341000043 ], [ 71.858590129000035, 36.494155986000074 ], [ 71.874713176000114, 36.499065246000029 ], [ 71.88763228300013, 36.508005269000073 ], [ 71.899724569000114, 36.518340556000069 ], [ 71.913470500000116, 36.527590637000074 ], [ 71.960909465000043, 36.549604797000043 ], [ 71.977032511000118, 36.563040670000092 ], [ 71.997806438000055, 36.572445780000045 ], [ 72.038837525000062, 36.580455627000035 ], [ 72.054960571000095, 36.592857972 ], [ 72.056304159000035, 36.601901347000066 ], [ 72.052170044000036, 36.610376282000075 ], [ 72.050413045000141, 36.61864451200001 ], [ 72.059094686000094, 36.627119446 ], [ 72.070876912000074, 36.632287089000023 ], [ 72.096095011000045, 36.638901672000102 ], [ 72.154179321000129, 36.645464579000091 ], [ 72.171645956000077, 36.653629456000104 ], [ 72.164617961000076, 36.670062562000069 ], [ 72.149631796000108, 36.689337870000102 ], [ 72.153455852000022, 36.702101949000088 ], [ 72.042700615630224, 36.783536942115397 ], [ 72.13626807676431, 36.714739603018671 ], [ 72.16968225100004, 36.711352031 ], [ 72.213607219000096, 36.726441549000086 ], [ 72.301973918000101, 36.742719625000014 ], [ 72.346208944000111, 36.74489003500009 ], [ 72.387343384000062, 36.755793762000067 ], [ 72.433128703000122, 36.753416646000048 ], [ 72.454109334000123, 36.757964173000076 ], [ 72.516741170000032, 36.800597229000047 ], [ 72.565213664000112, 36.820596008000088 ], [ 72.629602499000086, 36.832946676000049 ], [ 72.695851685000036, 36.836719055000074 ], [ 72.779360799000074, 36.826797180000064 ], [ 72.867727498000121, 36.830414531000045 ], [ 72.896873006000135, 36.836977437000129 ], [ 72.921057576000109, 36.847364400000046 ], [ 72.945862264000127, 36.852221985000078 ], [ 72.976764771000035, 36.842093404000117 ], [ 72.990510702000051, 36.841576641000081 ], [ 73.002292928000074, 36.846124166000024 ], [ 73.02627079300008, 36.85945668500004 ], [ 73.042497192000098, 36.864262594000031 ], [ 73.191842082000036, 36.877026673000024 ], [ 73.223468058000094, 36.874339497999983 ], [ 73.252716919000136, 36.868034973000057 ], [ 73.267496379000121, 36.866536357000072 ], [ 73.281862427000121, 36.867983297000066 ], [ 73.331781861000081, 36.882090963000095 ], [ 73.379737590000047, 36.879248759000021 ], [ 73.445883423000112, 36.886483460000093 ], [ 73.476889282000116, 36.882866109000084 ], [ 73.509342082000032, 36.878680318000058 ], [ 73.64008345600007, 36.896637878000043 ], [ 73.70948256500003, 36.89422106100001 ], [ 73.71112830200012, 36.894163748000054 ], [ 73.711334904000068, 36.894156553000087 ], [ 73.711841990560785, 36.894138894015342 ], [ 73.772891887000071, 36.892012838000092 ], [ 73.834076783000043, 36.882866109000084 ], [ 73.865082642000118, 36.872582499000103 ], [ 73.946938110000133, 36.830879618000075 ], [ 73.976703736000033, 36.824833476000052 ], [ 74.006366007000111, 36.81573842400006 ], [ 74.035304809000138, 36.815583394000029 ], [ 74.094319295000105, 36.831241354000078 ], [ 74.103931112000097, 36.841318258000022 ], [ 74.108788696000033, 36.875631409000036 ], [ 74.115299927000081, 36.889532369 ], [ 74.12966597500008, 36.898420716000132 ], [ 74.145995728000116, 36.901702169000103 ], [ 74.211728150000098, 36.895139262000022 ], [ 74.235706015000105, 36.902167257000038 ], [ 74.284591919000093, 36.934232483000059 ], [ 74.368101033000073, 36.976762187000126 ], [ 74.394042603000116, 36.994022115000099 ], [ 74.435590454000135, 37.003220521000095 ], [ 74.456984497000121, 37.004383240000024 ], [ 74.476621541000043, 36.999318950000045 ], [ 74.480342244000084, 36.996915995000094 ], [ 74.483649536000087, 36.99397043900008 ], [ 74.501736287000085, 36.972421367000052 ], [ 74.52137333100012, 36.958494568000063 ], [ 74.537393026000061, 36.962241109000061 ], [ 74.544214315000033, 36.994022115000099 ], [ 74.548141724000104, 37.00164439000006 ], [ 74.549278606000016, 37.008930766000063 ], [ 74.547418254000092, 37.015674540000091 ], [ 74.542353963000025, 37.021669006000124 ], [ 74.49779276267148, 37.063992572078902 ], [ 74.535233855431485, 37.17321321346914 ], [ 74.59242665327416, 37.415815997950446 ], [ 74.767785680317175, 37.40933232703518 ], [ 74.978461480428919, 37.466978142628847 ], [ 74.986274846579718, 37.665263839867031 ], [ 74.812844982669844, 37.891916908989245 ], [ 74.779063228395486, 38.055018214413373 ], [ 74.651820830184633, 38.223708544396914 ], [ 74.612856235993391, 38.370724248156669 ], [ 74.677158666336055, 38.602664073742588 ], [ 74.491491120705547, 38.712375083145822 ], [ 74.258419940635974, 38.753098581290111 ], [ 74.142256463251044, 38.702671871582801 ], [ 73.941128285929878, 38.548017133408315 ], [ 73.809136241527725, 38.516252445947678 ], [ 73.529465717249252, 38.803070100898196 ], [ 73.609355916848997, 39.012229462162736 ], [ 73.595598633561877, 39.203767737377319 ], [ 73.619547152505604, 39.487689008846438 ] ] ] } },
{ "type": "Feature", "properties": { "fid": 3 }, "geometry": { "type": "Polygon", "coordinates": [ [ [ 74.872359660000072, 36.907102356000095 ], [ 75.246522516943287, 36.703633811800188 ], [ 75.571542468465424, 36.564339546862129 ], [ 75.731472920801707, 36.26511482958778 ], [ 76.200946184111473, 35.790482519428465 ], [ 76.531125182483166, 35.687301582437307 ], [ 76.923212743049561, 35.640870160791287 ], [ 77.232755554023015, 35.604756832844387 ], [ 77.495866943350464, 35.532530176950573 ], [ 77.91374973816464, 35.346804490366495 ], [ 78.202656361739884, 35.228146412826668 ], [ 78.522517266412464, 35.150760710083304 ], [ 78.620539156554059, 35.016625491994802 ], [ 78.708242952996542, 34.727718868419565 ], [ 78.873332452182382, 34.588424603481506 ], [ 79.095171466713367, 34.485243666490355 ], [ 79.317010481244353, 34.387221776348753 ], [ 79.507895214677987, 34.320154167304501 ], [ 79.660501449156939, 34.269950594016734 ], [ 79.793972202055429, 34.431025296380312 ], [ 79.860889757153487, 34.53520699218911 ], [ 79.876090999352996, 34.633733562000742 ], [ 79.898611358167088, 34.718747916523924 ], [ 79.917190654188701, 34.765477661063152 ], [ 79.948762041977247, 34.837463636131723 ], [ 79.993984198043222, 34.861629036781103 ], [ 79.995110215983928, 34.888653467358004 ], [ 80.036772879789993, 34.904417718527867 ], [ 80.040150933612111, 34.989995082021402 ], [ 80.032268808027183, 35.040665889353093 ], [ 80.07398205467041, 35.08099580536215 ], [ 80.117846171520711, 35.0688163378707 ], [ 80.21468371442127, 35.12286519902451 ], [ 80.250534850086012, 35.16175680305458 ], [ 80.245280140070079, 35.434979235738439 ], [ 80.256843621791077, 35.477074755638789 ], [ 80.20099006069502, 35.508570328791514 ], [ 80.115412697201492, 35.540098831131239 ], [ 80.016323118419507, 35.612163979336316 ], [ 79.617392381946175, 35.778794553680271 ], [ 79.441528213937261, 35.90118439487722 ], [ 79.222719247945818, 35.869365385589973 ], [ 79.060015145029098, 35.928447654353967 ], [ 78.874632195577604, 35.869732885884183 ], [ 78.620152140978433, 35.940672016148554 ], [ 78.138216462356965, 35.950806177614893 ], [ 77.913012874216108, 35.995846895243062 ], [ 77.740196525524922, 36.053636553772733 ], [ 77.542502305347128, 36.094067500235433 ], [ 77.479412446853075, 36.299977354570679 ], [ 77.280520242726439, 36.38475264038059 ], [ 77.087561667553757, 36.440337443269136 ], [ 76.717366153093593, 36.392386307596588 ], [ 76.410621547003458, 36.525247062594694 ], [ 76.286642703649093, 36.50071199388362 ], [ 76.214577555444009, 36.528862442401227 ], [ 76.123370102246952, 36.560390944740945 ], [ 75.938703159971453, 36.605431662369121 ], [ 75.844117652952278, 36.677496810574198 ], [ 75.754036217695941, 36.732671689668713 ], [ 75.667332836261693, 36.772082317593366 ], [ 75.584007508649577, 36.769830281711961 ], [ 75.535330324878984, 36.772889443734449 ], [ 75.528292712749575, 36.757125192564587 ], [ 75.538989883186275, 36.743049968305783 ], [ 75.533641297967918, 36.720811113976872 ], [ 75.514780497461132, 36.725033681254516 ], [ 75.501881958000126, 36.737965393000039 ], [ 75.501876375845697, 36.73275306205894 ], [ 75.464649606934927, 36.718033456439549 ], [ 75.455146631306462, 36.720366864711195 ], [ 75.444767837320953, 36.744529099619868 ], [ 75.434878308373783, 36.753302889476799 ], [ 75.420521579629806, 36.776104752776064 ], [ 75.42636499695098, 36.796854712288855 ], [ 75.422986943128862, 36.877928004019566 ], [ 75.379072243441399, 36.949993152224643 ], [ 75.277840591467509, 36.971262135631981 ], [ 75.237303945602164, 36.957186911373178 ], [ 75.216472613699125, 36.971825144602334 ], [ 75.178188003715178, 36.979707270187262 ], [ 75.156230653871447, 36.997160548268184 ], [ 75.161297734604616, 37.007294709734524 ], [ 75.142155429612643, 37.024184978845085 ], [ 75.10274480168799, 37.008983736645575 ], [ 75.048695940534188, 37.0027906379717 ], [ 75.032931689364318, 37.016302853260157 ], [ 74.994647079380371, 36.993782494446066 ], [ 74.950873131935495, 36.989545632018782 ], [ 74.916811089229185, 36.978285452611736 ], [ 74.924966268000091, 36.970871074 ], [ 74.910496867000063, 36.962551168000047 ], [ 74.900781698000117, 36.949916280000124 ], [ 74.891996704000107, 36.920977478000061 ], [ 74.88579553300012, 36.911443176000077 ], [ 74.872359660000072, 36.907102356000095 ] ] ] } },
{ "type": "Feature", "properties": { "fid": 4 }, "geometry": { "type": "Polygon", "coordinates": [ [ [ 91.559775147015472, 27.905687732344919 ], [ 91.559309217922973, 27.906193449069985 ], [ 91.573073096684197, 27.961248964114858 ], [ 91.691826320501562, 28.035469729000713 ], [ 91.992420418289285, 28.105979455642274 ], [ 92.207660636458257, 28.146800876329493 ], [ 92.385790472184311, 28.221021641215348 ], [ 92.519387848978837, 28.376885247475641 ], [ 92.630718996307621, 28.477083280071543 ], [ 92.723494952414939, 28.536459891980225 ], [ 92.942755241465264, 28.567782790415986 ], [ 93.06119943264558, 28.584703389156033 ], [ 93.272728612570262, 28.632946886331837 ], [ 93.469413639517768, 28.714589727706276 ], [ 93.695786972419612, 28.926118907630961 ], [ 93.888760961122841, 28.996628634272522 ], [ 94.05575768211601, 29.11909289633418 ], [ 94.215332326620597, 29.178469508242866 ], [ 94.43057254478957, 29.167336393509988 ], [ 94.619835495248495, 29.171047431754278 ], [ 94.708900413111522, 29.111670819845596 ], [ 94.990939319677764, 29.133937049311349 ], [ 95.157936040670933, 29.100537705112714 ], [ 95.287822379221183, 29.044872131448326 ], [ 95.44739702372577, 29.018894863738275 ], [ 95.647793088917581, 28.970651366562468 ], [ 95.733146968536317, 28.881586448699444 ], [ 95.88158849830802, 28.811076722057884 ], [ 96.178471557851438, 28.699745574729103 ], [ 96.297224781668803, 28.640368962820421 ], [ 96.493909808616309, 28.658924154041884 ], [ 96.690594835563829, 28.747989071904907 ], [ 96.83532532709124, 28.740566995416323 ], [ 97.006033086328699, 28.87416437221086 ], [ 97.147052539611835, 28.933540984119542 ], [ 97.417958331445206, 28.966940328318177 ], [ 97.618354396637002, 28.911274754653785 ], [ 97.740818658698657, 28.863031257477981 ], [ 97.751951773431543, 28.747989071904907 ], [ 97.751951773431543, 28.640368962820421 ], [ 97.681442046789982, 28.573570274423151 ], [ 97.588666090682665, 28.447394974117202 ], [ 97.56264712139118, 28.388848859087894 ], [ 97.510471003805108, 28.427642546656529 ], [ 97.673876728426251, 28.284662537613027 ], [ 97.810048165610553, 27.991893947666806 ], [ 97.828767293058078, 27.957711193197422 ], [ 97.766814782202118, 27.936348258419507 ], [ 97.552277018439227, 27.917278234973917 ], [ 97.256691655032583, 27.812393106023169 ], [ 97.106041300000129, 27.805539043000024 ], [ 97.098186483000063, 27.791017965 ], [ 97.092192017000059, 27.785488587000074 ], [ 97.072348267000052, 27.779184062000084 ], [ 97.065320272000065, 27.773990581000064 ], [ 97.062012981000066, 27.763345235000074 ], [ 97.060359334000111, 27.750451965000067 ], [ 96.839292792253303, 27.837869465470011 ], [ 96.639057546074596, 27.904614547529576 ], [ 96.615721558054474, 27.907796727714139 ], [ 96.61259999913004, 27.91827624696046 ], [ 96.517597885027527, 27.951973013957449 ], [ 96.09328986336314, 28.171278283581742 ], [ 95.792936994095086, 28.309535953562271 ], [ 95.611771771361973, 28.300000941839478 ], [ 95.287581372786946, 28.133138236690559 ], [ 94.90141339801373, 27.847087885006705 ], [ 94.372220247398616, 27.651620144689407 ], [ 94.195822530526911, 27.475222427817695 ], [ 94.04326234296218, 27.298824710945983 ], [ 93.938377214011439, 27.127194499935666 ], [ 93.742909473694127, 26.950796783063954 ], [ 93.433021592703284, 26.89835421858858 ], [ 93.046853617930083, 26.874516689281592 ], [ 92.975341030009119, 26.888819206865787 ], [ 92.913363453810945, 26.969866806509543 ], [ 92.7989433131374, 27.027076876846316 ], [ 92.651150631434078, 27.103356970628678 ], [ 92.669313775045069, 27.133381759046848 ], [ 92.131699235025735, 27.045502459235998 ], [ 91.608284901623506, 27.020813103886837 ], [ 91.609028553586512, 27.024779247689555 ], [ 91.614938543699452, 27.056299194958548 ], [ 91.655475189564811, 27.159892845503354 ], [ 91.752312732465398, 27.409868828339736 ], [ 91.67574351249749, 27.603543914140893 ], [ 91.662231297209047, 27.772446605246557 ], [ 91.559775147015472, 27.905687732344919 ] ] ] } }
]
}
