{
"type": "FeatureCollection",
"name": "ccp-resistance-areas-1941-1942-p199-v2",
"crs": { "type": "name", "properties": { "name": "urn:ogc:def:crs:OGC:1.3:CRS84" } },
"features": [
{ "type": "Feature", "properties": { "fid": 1 }, "geometry": { "type": "Polygon", "coordinates": [ [ [ 117.705971, 38.369862 ], [ 117.574633474592844, 38.289551095082849 ], [ 117.705971, 38.369862 ], [ 117.532942298126457, 38.251364266367538 ], [ 117.539890827537548, 38.185854428806152 ], [ 117.574633474592844, 38.125751944691928 ], [ 117.658015827525645, 38.071070348940346 ], [ 117.762243768691633, 38.060129120257137 ], [ 117.852574651035496, 38.065599939127331 ], [ 117.908162886323979, 38.120285626508426 ], [ 117.935957003968269, 38.164004711394448 ], [ 117.977544, 38.194837 ], [ 117.963346, 38.210694 ], [ 117.94866298052365, 38.226465762871428 ], [ 117.933763982505155, 38.236279131360703 ], [ 117.900157, 38.246161 ], [ 117.837169, 38.270901 ], [ 117.803894, 38.294018 ], [ 117.795080175843438, 38.302503139210195 ], [ 117.751808, 38.333752 ], [ 117.705971, 38.369862 ] ] ] } },
{ "type": "Feature", "properties": { "fid": 2 }, "geometry": { "type": "Polygon", "coordinates": [ [ [ 118.232613417685769, 37.985093027357543 ], [ 118.187488009815937, 37.916022376297889 ], [ 118.173590950993827, 37.872247645274072 ], [ 118.184013745110434, 37.814753595858789 ], [ 118.211807862754668, 37.757214485391181 ], [ 118.222230656871275, 37.721572464386398 ], [ 118.20485933334362, 37.663960446267026 ], [ 118.20485933334362, 37.598063037903522 ], [ 118.194436539227013, 37.529357440269294 ], [ 118.20485933334362, 37.49360535292189 ], [ 118.201385068638089, 37.446826643260486 ], [ 118.229179186282366, 37.422049527684607 ], [ 118.274344627454283, 37.427556266167024 ], [ 118.298664480393001, 37.457836046842097 ], [ 118.319510068626187, 37.488103503360442 ], [ 118.336881392153884, 37.51835863229492 ], [ 118.378572568620257, 37.543103657034116 ], [ 118.40984095097005, 37.54035461753503 ], [ 118.451532127436451, 37.529357440269294 ], [ 118.486274774491775, 37.529357440269294 ], [ 118.549462417685774, 37.548895027357545 ], [ 118.559063417685763, 37.56704102735754 ], [ 118.591407417685772, 37.585583027357544 ], [ 118.604399774479901, 37.628273310610304 ], [ 118.60791141768577, 37.683422027357544 ], [ 118.619019417685763, 37.69731202735754 ], [ 118.611794417685772, 37.757874027357545 ], [ 118.55346041768577, 37.798146027357546 ], [ 118.446750417685763, 37.902718027357544 ], [ 118.471972417685762, 37.942214027357544 ], [ 118.410416417685767, 37.980374027357541 ], [ 118.327366417685766, 37.996753027357542 ], [ 118.232613417685769, 37.985093027357543 ] ] ] } },
{ "type": "Feature", "properties": { "fid": 3 }, "geometry": { "type": "Polygon", "coordinates": [ [ [ 118.882253692483758, 37.484998814984145 ], [ 118.839265827406805, 37.483420649943852 ], [ 118.794100386234874, 37.466877230504366 ], [ 118.714192298007646, 37.442055235806755 ], [ 118.623861415663811, 37.408946430200793 ], [ 118.523107739203354, 37.350970798407651 ], [ 118.474468033325863, 37.320584726681766 ], [ 118.411931268626248, 37.259775715760306 ], [ 118.345920239221158, 37.165701522767812 ], [ 118.345920239221158, 37.113079577929717 ], [ 118.401508474509697, 37.065965765884513 ], [ 118.557850386258679, 37.10753829677558 ], [ 118.613438621547175, 37.149088021021228 ], [ 118.665552592130169, 37.176775162218497 ], [ 118.741986415651894, 37.187847178759696 ], [ 118.818420239173619, 37.182311373363753 ], [ 118.922648180339635, 37.168470084768629 ], [ 118.971287886217056, 37.171238545345858 ], [ 119.030350386211154, 37.176775162218497 ], [ 119.075515827383086, 37.182311373363753 ], [ 119.099861, 37.209305 ], [ 119.057083, 37.239861 ], [ 119.052864384481424, 37.232949455225011 ], [ 119.042735, 37.242377 ], [ 119.030121, 37.257799 ], [ 119.01474, 37.269843 ], [ 118.990489, 37.274726 ], [ 118.972423, 37.280666 ], [ 118.961192, 37.29564 ], [ 118.958095882126429, 37.306350390314634 ], [ 118.934593, 37.32597 ], [ 118.930969, 37.345699 ], [ 118.948200299295195, 37.347112922273126 ], [ 118.948077479587269, 37.348168228866896 ], [ 118.89875, 37.360695 ], [ 118.940697, 37.353752 ], [ 118.943466, 37.37125 ], [ 118.930969, 37.390694 ], [ 118.901634689064068, 37.443006655726812 ], [ 118.882253692483758, 37.484998814984145 ] ] ] } },
{ "type": "Feature", "properties": { "fid": 4 }, "geometry": { "type": "Polygon", "coordinates": [ [ [ 119.389936783233836, 37.039624704472665 ], [ 119.337822812650842, 37.000789635899835 ], [ 119.336085680298069, 36.949441428081023 ], [ 119.344771342061904, 36.895280146031553 ], [ 119.363879797942317, 36.864710659056961 ], [ 119.389936783233836, 36.863320846183406 ], [ 119.41773090087807, 36.886944226834089 ], [ 119.429890827347464, 36.909171321699937 ], [ 119.448999283227863, 36.927226069084121 ], [ 119.482004797930443, 36.966098696873146 ], [ 119.494164724399795, 36.993852713611211 ], [ 119.499376121458127, 37.017435667295899 ], [ 119.497638989105354, 37.057648523733349 ], [ 119.438576489111284, 37.056262228057392 ], [ 119.393411047939352, 37.047943922128802 ], [ 119.389936783233836, 37.039624704472665 ] ] ] } },
{ "type": "Feature", "properties": { "fid": 5 }, "geometry": { "type": "Polygon", "coordinates": [ [ [ 120.173383474331487, 37.046557449165164 ], [ 120.098686783162506, 37.028530996152099 ], [ 120.027464356699085, 37.003564227620764 ], [ 120.006618768465898, 36.991077767508635 ], [ 119.964927591999469, 36.968874554084351 ], [ 119.952767665530146, 36.931391942194935 ], [ 119.97187612141056, 36.899447764261261 ], [ 120.018778694935264, 36.878607397383412 ], [ 120.086526856693126, 36.874438641337228 ], [ 120.152537886098273, 36.882775925885575 ], [ 120.171646341978715, 36.905004234533607 ], [ 120.187280533153597, 36.920282441334855 ], [ 120.218548915503391, 36.939723005409654 ], [ 120.242868768442122, 36.957770517929752 ], [ 120.246343033147653, 36.989690256490093 ], [ 120.25676582726426, 37.01327450121709 ], [ 120.263714356675322, 37.036851429327548 ], [ 120.242868768442122, 37.054875907053578 ], [ 120.215074650797831, 37.063193453151619 ], [ 120.173383474331487, 37.046557449165164 ] ] ] } },
{ "type": "Feature", "properties": { "fid": 6 }, "geometry": { "type": "Polygon", "coordinates": [ [ [ 120.574661047820541, 37.535783981233116 ], [ 120.512124283120954, 37.479285138400911 ], [ 120.482593033123905, 37.450330149349455 ], [ 120.442638989010277, 37.415845305385311 ], [ 120.418319136071545, 37.384105218994776 ], [ 120.383576489016221, 37.352351691405289 ], [ 120.385313621368994, 37.317821747032056 ], [ 120.3939992831328, 37.270835554903186 ], [ 120.41310773901327, 37.247331455283238 ], [ 120.449587518421339, 37.245948632793265 ], [ 120.519072812532002, 37.274982575802213 ], [ 120.564238253703934, 37.288804328907361 ], [ 120.593769503700955, 37.305387081712524 ], [ 120.619826488992473, 37.323347604758297 ], [ 120.664991930164405, 37.346827967011983 ], [ 120.699734577219701, 37.350970798407651 ], [ 120.746637150744405, 37.367539837838962 ], [ 120.76748273897762, 37.391006381306511 ], [ 120.777905533094199, 37.410326256068409 ], [ 120.816122444855068, 37.426882184013266 ], [ 120.82307097426613, 37.46411963791563 ], [ 120.798751121327385, 37.486177530477043 ], [ 120.764008474272089, 37.52200771877343 ], [ 120.736214356627826, 37.541293773776083 ], [ 120.661517665458845, 37.563328872335468 ], [ 120.626775018403521, 37.559197787619333 ], [ 120.574661047820541, 37.535783981233116 ] ] ] } },
{ "type": "Feature", "properties": { "fid": 7 }, "geometry": { "type": "Polygon", "coordinates": [ [ [ 122.404861, 37.394581 ], [ 122.388227224108732, 37.333016878098555 ], [ 122.416021341752995, 37.297096162286131 ], [ 122.478558106452596, 37.277747129491331 ], [ 122.54792, 37.278469 ], [ 122.560030743624367, 37.274851852005256 ], [ 122.560069, 37.274726 ], [ 122.566661, 37.266343 ], [ 122.589854, 37.243354 ], [ 122.594737, 37.236884 ], [ 122.59669, 37.220893 ], [ 122.597666830532148, 37.219157870012943 ], [ 122.621529, 37.2057 ], [ 122.624031, 37.19347 ], [ 122.611542, 37.20042 ], [ 122.594025, 37.194584 ], [ 122.593902875183048, 37.189523803923464 ], [ 122.585216, 37.188707 ], [ 122.574311, 37.18537 ], [ 122.563243, 37.173163 ], [ 122.568858, 37.165676 ], [ 122.577159, 37.157782 ], [ 122.574778069398064, 37.146624893275323 ], [ 122.538661732376085, 37.156438381789521 ], [ 122.51002, 37.155219 ], [ 122.482677, 37.13996 ], [ 122.470714, 37.110297 ], [ 122.464447, 37.110297 ], [ 122.465831, 37.145168 ], [ 122.464447, 37.151842 ], [ 122.453949, 37.154283 ], [ 122.447602, 37.147447 ], [ 122.444347, 37.136542 ], [ 122.441742, 37.117092 ], [ 122.43629, 37.099189 ], [ 122.436371, 37.089789 ], [ 122.440522, 37.084906 ], [ 122.44752, 37.082261 ], [ 122.454112, 37.07746 ], [ 122.457042, 37.065904 ], [ 122.448497, 37.057196 ], [ 122.411225, 37.036526 ], [ 122.402354, 37.02147 ], [ 122.40919, 37.006293 ], [ 122.418859717483457, 37.004603349340293 ], [ 122.428084804838221, 37.006008740474243 ], [ 122.435433356215512, 37.010625059651026 ], [ 122.436806, 37.027363 ], [ 122.440468645837129, 37.028247460345845 ], [ 122.461192, 37.030829 ], [ 122.471508071272183, 37.028772425083169 ], [ 122.47847, 37.010971 ], [ 122.479858, 37.022915 ], [ 122.492303296173162, 37.02462659447194 ], [ 122.513031, 37.020494 ], [ 122.54005, 37.027737 ], [ 122.528545473923216, 36.962363096192249 ], [ 122.519577, 36.949589 ], [ 122.528265039046005, 36.937229633378657 ], [ 122.532725, 36.92593 ], [ 122.526459, 36.914252 ], [ 122.517345, 36.903144 ], [ 122.507416, 36.898017 ], [ 122.498546, 36.904202 ], [ 122.500092, 36.915595 ], [ 122.503753661835432, 36.919955879079026 ], [ 122.50264, 36.93375 ], [ 122.49456452357596, 36.933496974663981 ], [ 122.493907, 36.932603 ], [ 122.477306, 36.925971 ], [ 122.456635, 36.92064 ], [ 122.439952, 36.918443 ], [ 122.430512, 36.920111 ], [ 122.420909, 36.923082 ], [ 122.425326836765478, 36.921715213062434 ], [ 122.410416, 36.906807 ], [ 122.432233875730859, 36.883780969018993 ], [ 122.435151, 36.879218 ], [ 122.436065753071034, 36.872811069184081 ], [ 122.409027, 36.862362 ], [ 122.378754, 36.867085 ], [ 122.371246, 36.857639 ], [ 122.357361, 36.865421 ], [ 122.375687, 36.849861 ], [ 122.342361, 36.829861 ], [ 122.332916, 36.839584 ], [ 122.296806, 36.833191 ], [ 122.219856, 36.853199 ], [ 122.193400132513048, 36.846053582566327 ], [ 122.185313, 36.849921 ], [ 122.180675, 36.8664 ], [ 122.184825, 36.884955 ], [ 122.196869, 36.898017 ], [ 122.26588, 36.898017 ], [ 122.25294, 36.905951 ], [ 122.211192, 36.918443 ], [ 122.174653, 36.941107 ], [ 122.16269, 36.945787 ], [ 122.178559, 36.986274 ], [ 122.179549436309685, 37.003257788925794 ], [ 122.205696, 37.008194 ], [ 122.202919, 37.044582 ], [ 122.205696, 37.008194 ], [ 122.179549436309685, 37.003257788925794 ], [ 122.179698, 37.005805 ], [ 122.178333914497543, 37.006638247241831 ], [ 122.158752, 37.002922 ], [ 122.148873375021367, 36.967906128252054 ], [ 122.149181, 36.962144 ], [ 122.142914, 36.945787 ], [ 122.128429, 36.945624 ], [ 122.112766644544749, 36.950983669222808 ], [ 122.104814607502064, 36.951562150427208 ], [ 122.09433, 36.950914 ], [ 122.087657, 36.929023 ], [ 122.080903, 36.916571 ], [ 122.065196, 36.906724 ], [ 122.046886, 36.900336 ], [ 122.033051, 36.898017 ], [ 122.035411, 36.916815 ], [ 122.03476, 36.94184 ], [ 122.037608, 36.96369 ], [ 122.049815, 36.97309 ], [ 122.053803, 36.975246 ], [ 122.049164, 36.979926 ], [ 122.039643, 36.984605 ], [ 122.029307, 36.986762 ], [ 122.004161, 36.986029 ], [ 121.961436, 36.992865 ], [ 121.92628, 36.993598 ], [ 121.914887, 36.985826 ], [ 121.92335, 36.968492 ], [ 121.851453327103911, 36.959158611013017 ], [ 121.778493768287746, 36.960546678793015 ], [ 121.755911047701773, 36.971650310072533 ], [ 121.740276856526862, 36.985527571569591 ], [ 121.714219871235343, 37.003564227620764 ], [ 121.637786047713632, 37.010500263912228 ], [ 121.580460680072363, 37.006338718083484 ], [ 121.490129797728457, 37.010500263912228 ], [ 121.415433106559504, 37.007725925342115 ], [ 121.34594781244887, 37.003564227620764 ], [ 121.311205165393545, 36.989690256490093 ], [ 121.215662885991378, 36.959158611013017 ], [ 121.15312612129182, 36.924448693867319 ], [ 121.050635312478576, 36.905004234533607 ], [ 120.963778694840272, 36.917504813179157 ], [ 120.887344871318547, 36.93000334312039 ], [ 120.849127959557649, 36.954994255854757 ], [ 120.842179430146615, 37.006338718083484 ], [ 120.830019503677235, 37.065965765884513 ], [ 120.831756636030008, 37.095068931780254 ], [ 120.817859577207855, 37.153241738720752 ], [ 120.803962518385717, 37.193382578384345 ], [ 120.803962518385717, 37.241800013074496 ], [ 120.810911047796793, 37.297096162286131 ], [ 120.831756636029951, 37.3164402191181 ], [ 120.871710680143607, 37.341303836223901 ], [ 120.927298915432146, 37.341303836223901 ], [ 120.982887150720686, 37.331635629521934 ], [ 121.035001121303665, 37.3164402191181 ], [ 121.087115091886673, 37.290186364602974 ], [ 121.146177591880715, 37.272217920584453 ], [ 121.194817297758192, 37.247331455283231 ], [ 121.264302591868841, 37.222436768360787 ], [ 121.358107738918193, 37.215520118732314 ], [ 121.467547077142541, 37.226586453709622 ], [ 121.559615091839177, 37.263923345786445 ], [ 121.608254797716626, 37.3164402191181 ], [ 121.636048915360902, 37.362017231141721 ], [ 121.660368768299634, 37.407566578918505 ], [ 121.666809, 37.430141 ], [ 121.677635, 37.438473 ], [ 121.673203554770424, 37.44173479679511 ], [ 121.668058337187745, 37.446219931292497 ], [ 121.66597, 37.458195 ], [ 121.669861, 37.459583 ], [ 121.670143, 37.451252 ], [ 121.73764, 37.452362 ], [ 121.896618768275872, 37.466877230504366 ], [ 121.939583, 37.471249 ], [ 121.949953862143985, 37.459010854728255 ], [ 121.950805, 37.455642 ], [ 121.952602654096182, 37.450614216941695 ], [ 121.949067, 37.448391 ], [ 121.944591, 37.440741 ], [ 121.944591, 37.432522 ], [ 121.949799, 37.425605 ], [ 121.957286, 37.423814 ], [ 121.988048, 37.425605 ], [ 121.997406, 37.434068 ], [ 121.977794, 37.471666 ], [ 121.981212, 37.48017 ], [ 121.99464, 37.486721 ], [ 122.016368, 37.517564 ], [ 122.025645, 37.528022 ], [ 122.043793, 37.533922 ], [ 122.061534, 37.537177 ], [ 122.071788, 37.544501 ], [ 122.06986603809932, 37.552053910780884 ], [ 122.072503, 37.552847 ], [ 122.081834, 37.547937 ], [ 122.085667, 37.543875 ], [ 122.09183, 37.538926 ], [ 122.095403, 37.533035 ], [ 122.10304, 37.526052 ], [ 122.110501, 37.528417 ], [ 122.116197, 37.532825 ], [ 122.116167, 37.534419 ], [ 122.117571, 37.536719 ], [ 122.121604, 37.536993 ], [ 122.124178, 37.538621 ], [ 122.122368, 37.543953 ], [ 122.121475, 37.549769 ], [ 122.124377, 37.552856 ], [ 122.12944, 37.550829 ], [ 122.134815, 37.541024 ], [ 122.142872, 37.542488 ], [ 122.145537, 37.538867 ], [ 122.144705, 37.537258 ], [ 122.145673, 37.531337 ], [ 122.152014965294839, 37.529143076676078 ], [ 122.152599, 37.514553 ], [ 122.135509, 37.500678 ], [ 122.129893, 37.483466 ], [ 122.141449, 37.45661 ], [ 122.143699291630227, 37.454050136125161 ], [ 122.143921, 37.453033 ], [ 122.14664, 37.446217 ], [ 122.150526, 37.438729 ], [ 122.15549, 37.435591 ], [ 122.162485, 37.431103 ], [ 122.160598, 37.423782 ], [ 122.160406, 37.41853 ], [ 122.164256, 37.413095 ], [ 122.166278, 37.412661 ], [ 122.165332, 37.416989 ], [ 122.168753, 37.419309 ], [ 122.173702, 37.416624 ], [ 122.178352, 37.414623 ], [ 122.184415, 37.413775 ], [ 122.191044, 37.414307 ], [ 122.193518, 37.42118 ], [ 122.197398, 37.429892 ], [ 122.199934, 37.433574 ], [ 122.203332, 37.437034 ], [ 122.209388, 37.437103 ], [ 122.213749, 37.435094 ], [ 122.219781, 37.4363 ], [ 122.223737, 37.440908 ], [ 122.228059, 37.441178 ], [ 122.23355, 37.440555 ], [ 122.241568, 37.443837 ], [ 122.24615, 37.445939 ], [ 122.254238, 37.44511 ], [ 122.260041, 37.443117 ], [ 122.267287, 37.440907 ], [ 122.267958021655375, 37.441008175339825 ], [ 122.276573620317862, 37.427122072022712 ], [ 122.325966, 37.408749 ], [ 122.380417, 37.415421 ], [ 122.404861, 37.394581 ] ] ] } },
{ "type": "Feature", "properties": { "fid": 8 }, "geometry": { "type": "Polygon", "coordinates": [ [ [ 114.940016, 39.941773 ], [ 114.973235, 39.658522 ], [ 115.181733658657123, 39.638816941219652 ], [ 115.315954, 39.622348 ], [ 115.515094, 39.695315 ], [ 115.561743, 39.77688 ], [ 115.556954246854659, 39.849855647890905 ], [ 115.515263070388258, 39.935155670154565 ], [ 115.424932188044423, 39.983090274396254 ], [ 115.306807188056297, 39.927163302842089 ], [ 115.24427042335671, 39.916505361468197 ], [ 115.16088807042388, 39.945810708192127 ], [ 115.091402776313259, 39.985752322679026 ], [ 115.039288805730223, 40.017688810978889 ], [ 114.948957923386388, 40.041631373356921 ], [ 114.914215276331063, 40.017688810978889 ], [ 114.940016, 39.941773 ] ] ] } },
{ "type": "Feature", "properties": { "fid": 9 }, "geometry": { "type": "Polygon", "coordinates": [ [ [ 115.1087740998409, 39.155558246212053 ], [ 115.03581454102472, 39.236333760032281 ], [ 114.94200939397534, 39.263238291862869 ], [ 114.841255717514898, 39.279376056038984 ], [ 114.754399099876565, 39.295510103504512 ], [ 114.657119688121654, 39.338516056281136 ], [ 114.577211599894397, 39.386866147593949 ], [ 114.490354982256079, 39.421764839729889 ], [ 114.365281452856863, 39.42444863115135 ], [ 114.177671158758116, 39.416396946855265 ], [ 114.129031452880639, 39.346576729047818 ], [ 114.059546158769976, 39.239024677694964 ], [ 114.031752041125728, 39.131307486664447 ], [ 113.990060864659341, 39.028823310882593 ], [ 113.969215276426141, 38.907268024636544 ], [ 113.937946894076319, 38.815287964878081 ], [ 113.88930718819887, 38.712345972212709 ], [ 113.840667482321408, 38.617399638864498 ], [ 113.771182188210759, 38.489702330384645 ], [ 113.771182188210759, 38.410797264549487 ], [ 113.795502041149504, 38.337256390096748 ], [ 113.858038805849091, 38.260912855872313 ], [ 113.969215276426141, 38.247271629619803 ], [ 114.118608658764046, 38.326355089693486 ], [ 114.22978512934111, 38.46794403398588 ], [ 114.28189909992409, 38.525045552955163 ], [ 114.438241011673085, 38.579385863309113 ], [ 114.521623364605858, 38.66624490560131 ], [ 114.62585130577186, 38.750289247577143 ], [ 114.688388070471447, 38.82070184992228 ], [ 114.792616011637435, 38.874818060833675 ], [ 114.86904983515916, 38.901860726856611 ], [ 114.973277776325133, 38.931595767791983 ], [ 115.084454246902197, 38.985627552629708 ], [ 115.122671158663081, 39.053109331722354 ], [ 115.122671158663081, 39.098960146149928 ], [ 115.1087740998409, 39.155558246212053 ] ] ] } },
{ "type": "Feature", "properties": { "fid": 10 }, "geometry": { "type": "Polygon", "coordinates": [ [ [ 112.756696894195159, 39.058505091483973 ], [ 112.617726305973861, 39.055807263141041 ], [ 112.534343953041045, 39.031522169891019 ], [ 112.523921158924466, 38.980226228273352 ], [ 112.579509394212977, 38.94510757642913 ], [ 112.676788805967888, 38.931595767791983 ], [ 112.798388070661545, 38.94510757642913 ], [ 112.843553511833491, 38.96942234335944 ], [ 112.836604982422401, 39.028823310882593 ], [ 112.756696894195159, 39.058505091483973 ] ] ] } },
{ "type": "Feature", "properties": { "fid": 11 }, "geometry": { "type": "Polygon", "coordinates": [ [ [ 112.32588807070907, 38.590248996318159 ], [ 112.218185864837551, 38.568521087089678 ], [ 112.183443217782212, 38.486982902505147 ], [ 112.235557188365235, 38.429851214230176 ], [ 112.339785129531208, 38.427129529131605 ], [ 112.398847629525278, 38.451621002053834 ], [ 112.482229982458051, 38.459782979728942 ], [ 112.572560864801929, 38.465223785172697 ], [ 112.687211600084495, 38.47882400312799 ], [ 112.680263070673448, 38.522327459400238 ], [ 112.607303511857225, 38.573953680591821 ], [ 112.544766747157638, 38.601110485974864 ], [ 112.430116011875072, 38.609255524682212 ], [ 112.364104982469939, 38.606540614501817 ], [ 112.32588807070907, 38.590248996318159 ] ] ] } },
{ "type": "Feature", "properties": { "fid": 12 }, "geometry": { "type": "Polygon", "coordinates": [ [ [ 112.374527776586547, 38.121652244422172 ], [ 112.315465276592477, 38.151711366666959 ], [ 112.218185864837594, 38.16537051065233 ], [ 112.10700939426053, 38.14351465217996 ], [ 112.020152776622211, 38.088846355548547 ], [ 111.971513070744734, 38.04508225932053 ], [ 111.929821894278348, 38.006767203086909 ], [ 111.870759394284264, 37.960214845384293 ], [ 111.804748364879146, 37.91911471428589 ], [ 111.721366011946373, 37.875249245459926 ], [ 111.617138070780356, 37.795676473750717 ], [ 111.589343953136108, 37.743496063074467 ], [ 111.55460130608077, 37.691278839811886 ], [ 111.530281453142067, 37.652779445285802 ], [ 111.505961600203335, 37.586734025384196 ], [ 111.533755717847583, 37.542671158296962 ], [ 111.624086600191461, 37.542671158296962 ], [ 111.672726306068881, 37.523385459512482 ], [ 111.724840276651904, 37.495825811180637 ], [ 111.794325570762538, 37.459983058323957 ], [ 111.929821894278348, 37.457225211460965 ], [ 111.943718953100486, 37.471013428672315 ], [ 111.97498733545028, 37.572967179189469 ], [ 111.97498733545028, 37.67203163928955 ], [ 112.002781453094528, 37.743496063074467 ], [ 112.013204247211121, 37.798421791087065 ], [ 112.027101306033259, 37.83410163132875 ], [ 112.075741011910708, 37.891701859643 ], [ 112.113957923671578, 37.927336579180846 ], [ 112.190391747193303, 37.965693126142533 ], [ 112.232082923659704, 37.993078399005064 ], [ 112.305042482475912, 38.017716406546882 ], [ 112.353682188353346, 38.058761351626671 ], [ 112.381476305997637, 38.091580742244666 ], [ 112.374527776586547, 38.121652244422172 ] ] ] } },
{ "type": "Feature", "properties": { "fid": 13 }, "geometry": { "type": "Polygon", "coordinates": [ [ [ 112.829656453011381, 37.443434451622423 ], [ 112.982524100054832, 37.493069286723554 ], [ 113.09022630592635, 37.526140864664136 ], [ 113.229196894147648, 37.537161467537146 ], [ 113.312579247080421, 37.539916363808956 ], [ 113.382064541191099, 37.564705849671682 ], [ 113.420281452951954, 37.597745669451847 ], [ 113.500189541179211, 37.67203163928955 ], [ 113.562726305878797, 37.691278839811893 ], [ 113.677377041161407, 37.710521045976577 ], [ 113.726016747038841, 37.683030651090995 ], [ 113.764233658799725, 37.641775949936218 ], [ 113.778130717621821, 37.578474223130577 ], [ 113.764233658799725, 37.515118633459231 ], [ 113.739913805860979, 37.471013428672315 ], [ 113.691274099983531, 37.432400013281914 ], [ 113.649582923517116, 37.39928693753501 ], [ 113.583571894111984, 37.363397920921933 ], [ 113.541880717645597, 37.338541618438576 ], [ 113.527983658823487, 37.283275932272893 ], [ 113.534932188234549, 37.244565784928284 ], [ 113.531457923529004, 37.197533861802313 ], [ 113.524509394117956, 37.164317203734434 ], [ 113.48281821765157, 37.120005609172438 ], [ 113.416807188246437, 37.095068931780283 ], [ 113.368167482368946, 37.08675488157575 ], [ 113.260465276497442, 37.070124045005784 ], [ 113.201402776503372, 37.061807258790601 ], [ 113.131917482392737, 37.04517095087612 ], [ 113.086752041220805, 36.956382399543564 ], [ 113.06243218828206, 36.875828251968059 ], [ 113.01031821769908, 36.820224110628999 ], [ 112.975575570643741, 36.786842218835353 ], [ 112.909564541238623, 36.778494472386875 ], [ 112.836604982422415, 36.800753108828722 ], [ 112.826182188305836, 36.848031236256602 ], [ 112.829656453011381, 36.950829672976582 ], [ 112.808810864778152, 37.006338718083512 ], [ 112.791439541250512, 37.070124045005784 ], [ 112.774068217722814, 37.128316010313256 ], [ 112.756696894195173, 37.175391046036431 ], [ 112.746274100078566, 37.219670184614785 ], [ 112.749748364784111, 37.261158284481247 ], [ 112.756696894195173, 37.321966178416872 ], [ 112.756696894195173, 37.363397920921933 ], [ 112.798388070661559, 37.396526853771398 ], [ 112.829656453011381, 37.443434451622423 ] ] ] } },
{ "type": "Feature", "properties": { "fid": 14 }, "geometry": { "type": "Polygon", "coordinates": [ [ [ 114.337487335212629, 37.705023782465979 ], [ 114.271476305807511, 37.652779445285802 ], [ 114.274950570513042, 37.608755684106114 ], [ 114.205465276402379, 37.603250880465986 ], [ 114.15682557052493, 37.619764069181649 ], [ 114.115134394058543, 37.592240051084339 ], [ 114.069968952886612, 37.55093493103216 ], [ 114.04564909994788, 37.526140864664136 ], [ 113.9726895411317, 37.509606907284613 ], [ 113.910152776432113, 37.501338554866408 ], [ 113.878884394082291, 37.440675994568501 ], [ 113.903204247021023, 37.385485502275877 ], [ 113.903204247021023, 37.349589880009326 ], [ 113.885832923493368, 37.327491731417524 ], [ 113.840667482321422, 37.316440219118121 ], [ 113.722542482333324, 37.263923345786466 ], [ 113.691274099983531, 37.203068551274555 ], [ 113.673902776455847, 37.142164651171591 ], [ 113.653057188222661, 37.092297683058817 ], [ 113.597468952934122, 37.042397878323143 ], [ 113.514086600001363, 37.003564227620778 ], [ 113.451549835301762, 37.017435667295914 ], [ 113.371641747074506, 37.02020965142539 ], [ 113.319527776491526, 37.003564227620778 ], [ 113.260465276497442, 36.950829672976582 ], [ 113.246568217675318, 36.881386441668141 ], [ 113.159711600036999, 36.834128937002873 ], [ 113.107597629453991, 36.803534983688252 ], [ 113.06243218828206, 36.767362729423091 ], [ 113.038112335343328, 36.706109257676324 ], [ 113.027689541226735, 36.647594454650665 ], [ 113.045060864754419, 36.608559866288637 ], [ 113.159711600037014, 36.563924705010372 ], [ 113.232671158853208, 36.544388706757474 ], [ 113.288259394141733, 36.499716454583179 ], [ 113.329950570608119, 36.455018414979627 ], [ 113.35079615884132, 36.37953203254628 ], [ 113.371641747074506, 36.301172395405565 ], [ 113.371641747074506, 36.225536682665684 ], [ 113.364693217663444, 36.166658284853355 ], [ 113.36816748236896, 36.116155856715046 ], [ 113.395961600013251, 36.074045672235911 ], [ 113.437652776479638, 36.031912928485795 ], [ 113.500189541179211, 36.009432911279596 ], [ 113.590520423523088, 36.009432911279596 ], [ 113.635685864695006, 36.023483673564769 ], [ 113.698222629394593, 36.054386531878144 ], [ 113.74686233527207, 36.088084907508581 ], [ 113.861513070554651, 36.116155856715046 ], [ 113.9518439528985, 36.121768842927551 ], [ 114.052597629358971, 36.116155856715046 ], [ 114.115134394058558, 36.124575185559706 ], [ 114.111660129352998, 36.183485202022545 ], [ 114.076917482297674, 36.23954882175866 ], [ 114.066494688181095, 36.298372379049098 ], [ 114.080391747003205, 36.376734831806225 ], [ 114.076917482297674, 36.438250004321624 ], [ 114.080391747003205, 36.482957711035318 ], [ 114.108185864647467, 36.616926085213613 ], [ 114.135979982291744, 36.672677677012736 ], [ 114.17767115875813, 36.711679774603418 ], [ 114.264527776396449, 36.725604300117638 ], [ 114.320116011684974, 36.725604300117638 ], [ 114.340961599918174, 36.775711688179335 ], [ 114.340961599918174, 36.803534983688259 ], [ 114.330538805801581, 36.859151255891781 ], [ 114.302744688157347, 36.917504813179171 ], [ 114.274950570513042, 36.97026244473151 ], [ 114.264527776396449, 36.992465253215819 ], [ 114.226310864635622, 37.083983328819713 ], [ 114.257579246985401, 37.120005609172438 ], [ 114.276687702865857, 37.13454821237579 ], [ 114.330973088889792, 37.166393672776344 ], [ 114.33835590138905, 37.223820022180114 ], [ 114.37396711462074, 37.254936525384132 ], [ 114.390469871972016, 37.273600260884251 ], [ 114.420001121969037, 37.301241736247945 ], [ 114.431292482262052, 37.31505866581189 ], [ 114.432161048438417, 37.364778585298403 ], [ 114.43302961461481, 37.397906908359204 ], [ 114.438241011673085, 37.436538118321131 ], [ 114.43302961461481, 37.478595864224275 ], [ 114.441715276378645, 37.527518529076076 ], [ 114.433898180791189, 37.566771267953705 ], [ 114.435635313143948, 37.593616493864452 ], [ 114.436503879320327, 37.623203855300666 ], [ 114.429555349909265, 37.642463716153323 ], [ 114.413921158734382, 37.664468872834512 ], [ 114.400024099912258, 37.689904205393418 ], [ 114.38265277638456, 37.701587785708178 ], [ 114.367018585209692, 37.707772465191759 ], [ 114.337487335212629, 37.705023782465979 ] ] ] } },
{ "type": "Feature", "properties": { "fid": 15 }, "geometry": { "type": "Polygon", "coordinates": [ [ [ 119.330005717063457, 35.437568930461168 ], [ 119.222303511191939, 35.460210941273481 ], [ 119.090281452381674, 35.485675587884543 ], [ 118.947836599454831, 35.502647538049729 ], [ 118.85055718769992, 35.477188268437686 ], [ 118.76717483476709, 35.414920550283554 ], [ 118.742854981828401, 35.312924065565753 ], [ 118.694215275950924, 35.145484749927007 ], [ 118.669895423012179, 35.117070973459718 ], [ 118.603884393607089, 35.026080291519825 ], [ 118.572616011257267, 34.957770735379547 ], [ 118.496182187735542, 34.85234854550631 ], [ 118.480346, 34.752904 ], [ 118.593731, 34.79282 ], [ 118.655155, 34.723526 ], [ 118.796227, 34.788078 ], [ 118.885299834755244, 34.818128510210251 ], [ 118.937413805338224, 34.846646194076818 ], [ 118.993002040626763, 34.883704413701281 ], [ 119.038167481798695, 34.940684440759242 ], [ 119.07638439355955, 35.003316774016689 ], [ 119.083332922970627, 35.034614976927806 ], [ 119.125024099437027, 35.071588313747576 ], [ 119.159766746492352, 35.094332814826672 ], [ 119.152818217081261, 35.193765409829986 ], [ 119.197983658253193, 35.250529472007102 ], [ 119.243149099425125, 35.318593917012244 ], [ 119.288314540597057, 35.34410332895331 ], [ 119.330005717063457, 35.437568930461168 ] ] ] } },
{ "type": "Feature", "properties": { "fid": 16 }, "geometry": { "type": "Polygon", "coordinates": [ [ [ 119.121549834731468, 34.463689962334065 ], [ 119.013847628859978, 34.400647643859578 ], [ 118.937413805338252, 34.331819996525397 ], [ 118.860979981816527, 34.237089714716419 ], [ 118.843608658288872, 34.168127932460919 ], [ 118.847082922994375, 34.122122081268706 ], [ 118.913093952399521, 34.104863429276001 ], [ 118.996476305332322, 34.122122081268706 ], [ 119.107652775909344, 34.14800345531058 ], [ 119.152818217081261, 34.228472577463407 ], [ 119.177138070020007, 34.303125127462657 ], [ 119.2084064523698, 34.369108657467457 ], [ 119.2084064523698, 34.414979618778439 ], [ 119.173663805314462, 34.452231259899598 ], [ 119.121549834731468, 34.463689962334065 ] ] ] } },
{ "type": "Feature", "properties": { "fid": 17 }, "geometry": { "type": "Polygon", "coordinates": [ [ [ 118.993002040626763, 34.035793618633114 ], [ 118.933939540632721, 34.004117808806342 ], [ 118.920042481810597, 33.946495153085941 ], [ 118.913093952399521, 33.871527345941175 ], [ 118.937413805338252, 33.836904588248515 ], [ 118.979104981804625, 33.845561593367222 ], [ 119.017321893565509, 33.87441194217871 ], [ 119.07638439355955, 33.900368920735325 ], [ 119.11460130532042, 33.93208338846442 ], [ 119.131972628848075, 33.966667524616142 ], [ 119.12849836414253, 34.0012376036278 ], [ 119.100704246498282, 34.024276510054925 ], [ 119.059013070031909, 34.038672651501933 ], [ 118.993002040626763, 34.035793618633114 ] ] ] } },
{ "type": "Feature", "properties": { "fid": 18 }, "geometry": { "type": "Polygon", "coordinates": [ [ [ 119.889362334654265, 34.334688943859788 ], [ 119.809454246426995, 34.271549443741989 ], [ 119.771237334666139, 34.196868864134139 ], [ 119.73302042290527, 34.13362589266935 ], [ 119.66006086408909, 34.096232782807832 ], [ 119.594049834683958, 34.05594479649443 ], [ 119.521090275867778, 34.027155933757008 ], [ 119.458553511168162, 33.98683511281353 ], [ 119.396016746468575, 33.906136065496071 ], [ 119.354325570002203, 33.845561593367222 ], [ 119.326531452357898, 33.776281003945591 ], [ 119.378645422940934, 33.712724534561424 ], [ 119.482873364106908, 33.669363584653389 ], [ 119.618369687622689, 33.669363584653389 ], [ 119.771237334666139, 33.721394098844549 ], [ 119.86504248171552, 33.779168815129211 ], [ 119.941476305237245, 33.810928311633234 ], [ 119.976218952292569, 33.871527345941175 ], [ 120.01791012875897, 33.937848387054565 ], [ 120.042229981697716, 34.018517369559468 ], [ 120.063075569930902, 34.06457954952846 ], [ 120.083921158164088, 34.11061670455063 ], [ 120.094343952280695, 34.162378571262551 ], [ 120.087395422869648, 34.216981689471702 ], [ 120.09086968757515, 34.262935834692563 ], [ 120.073498364047509, 34.311734618165673 ], [ 120.049178511108764, 34.334688943859788 ], [ 120.004013069936846, 34.3547688276442 ], [ 119.951899099353852, 34.3547688276442 ], [ 119.889362334654265, 34.334688943859788 ] ] ] } },
{ "type": "Feature", "properties": { "fid": 19 }, "geometry": { "type": "Polygon", "coordinates": [ [ [ 120.417450569895223, 33.599940579515113 ], [ 120.330593952256947, 33.597046740100545 ], [ 120.292377040496078, 33.542045346864462 ], [ 120.28195424637947, 33.463825228635201 ], [ 120.306274099318202, 33.388435380305914 ], [ 120.330593952256947, 33.327495805268015 ], [ 120.382707922839927, 33.289749930620111 ], [ 120.43134762871739, 33.272323247703333 ], [ 120.476513069889322, 33.275227936459245 ], [ 120.528627040472301, 33.286845725084589 ], [ 120.549472628705487, 33.307173133891617 ], [ 120.566843952233171, 33.3681269299232 ], [ 120.559895422822123, 33.429038049961804 ], [ 120.54252409929444, 33.498598452351558 ], [ 120.511255716944646, 33.536253688573574 ], [ 120.483461599300398, 33.576787145619768 ], [ 120.462616011067183, 33.59125876997448 ], [ 120.417450569895223, 33.599940579515113 ] ] ] } },
{ "type": "Feature", "properties": { "fid": 20 }, "geometry": { "type": "Polygon", "coordinates": [ [ [ 120.778774099270663, 33.094227006262585 ], [ 120.723185863982124, 33.060748186150477 ], [ 120.684968952221283, 33.028713047342279 ], [ 120.62416931987444, 32.973352191751722 ], [ 120.615483658110634, 32.928163668745633 ], [ 120.620695055168937, 32.885869627758943 ], [ 120.634592113991076, 32.834798200821858 ], [ 120.651963437518731, 32.793919894603945 ], [ 120.672809025751917, 32.764709593612082 ], [ 120.707551672807242, 32.738412125426791 ], [ 120.740557187509808, 32.728183235713644 ], [ 120.77529983456516, 32.726721869932582 ], [ 120.823939540442595, 32.738412125426791 ], [ 120.834362334559202, 32.742795575940519 ], [ 120.839139448529323, 32.772925959989813 ], [ 120.840008014705703, 32.805783839795424 ], [ 120.850430808822267, 32.836440239744739 ], [ 120.862590735291676, 32.858331189777601 ], [ 120.865196433820813, 32.881675583480984 ], [ 120.866933566173586, 32.910847430789119 ], [ 120.864327867644448, 32.936364914572628 ], [ 120.855642205880599, 32.958959968084507 ], [ 120.844350845587627, 32.98519213634593 ], [ 120.827848088236294, 33.003404335222193 ], [ 120.811345330885047, 33.018699677273148 ], [ 120.805265367650335, 33.055106478741557 ], [ 120.801791102944833, 33.080582286393451 ], [ 120.795711139710136, 33.092953588660805 ], [ 120.778774099270663, 33.094227006262585 ] ] ] } },
{ "type": "Feature", "properties": { "fid": 21 }, "geometry": { "type": "Polygon", "coordinates": [ [ [ 121.177011691142397, 32.429019573855527 ], [ 121.105789264678947, 32.424620753398088 ], [ 121.05541242644874, 32.411423004881925 ], [ 121.013721249982339, 32.380620751992254 ], [ 120.99113852939638, 32.330728168494154 ], [ 121.003298455865718, 32.286682451647742 ], [ 121.041515367626616, 32.257306747963625 ], [ 121.100577867620672, 32.236738097521993 ], [ 121.131846249970465, 32.226452025603955 ], [ 121.19612014702281, 32.213225365363897 ], [ 121.236074191136439, 32.194116792763936 ], [ 121.269079705839005, 32.158828885549383 ], [ 121.312508014658164, 32.113228441463271 ], [ 121.340302132302398, 32.073493356907392 ], [ 121.368096249946703, 32.039631324640773 ], [ 121.427158749940759, 31.986604732525667 ], [ 121.4862212499348, 31.974816879683036 ], [ 121.52443816169567, 31.986604732525667 ], [ 121.552232279339947, 31.99102478691449 ], [ 121.602609117570168, 32.016067738258982 ], [ 121.621717573450553, 32.036686207877601 ], [ 121.602609117570168, 32.054355487286543 ], [ 121.564392205809298, 32.067605208146489 ], [ 121.526175294048443, 32.076437289101122 ], [ 121.470587058759918, 32.083796704836303 ], [ 121.439318676410096, 32.091155528013758 ], [ 121.402838897002013, 32.104399916252554 ], [ 121.399364632296496, 32.141179805263661 ], [ 121.378519044063282, 32.161770066705749 ], [ 121.361147720535641, 32.192646736323326 ], [ 121.335090735244123, 32.239676761352513 ], [ 121.343776397007986, 32.266120457677857 ], [ 121.348987794066261, 32.298430069687669 ], [ 121.350724926419034, 32.341002420855574 ], [ 121.322930808774771, 32.383554752548797 ], [ 121.293399558777722, 32.405556719218289 ], [ 121.234337058783666, 32.434884334052036 ], [ 121.177011691142397, 32.429019573855527 ] ] ] } },
{ "type": "Feature", "properties": { "fid": 22 }, "geometry": { "type": "Polygon", "coordinates": [ [ [ 121.408484577148556, 30.251399382205435 ], [ 121.365056268329354, 30.222133808335442 ], [ 121.361582003623852, 30.192859524030013 ], [ 121.382427591857038, 30.144049707390398 ], [ 121.433672996263653, 30.107238643453339 ], [ 121.477969871259205, 30.105735859579923 ], [ 121.504026856550695, 30.112498207023865 ], [ 121.514449650667302, 30.125270267059907 ], [ 121.517923915372805, 30.149307310334528 ], [ 121.511843952138165, 30.167331250106077 ], [ 121.491866930081329, 30.20411989464656 ], [ 121.473627040377281, 30.219131718426816 ], [ 121.440621525674715, 30.238643664827062 ], [ 121.408484577148556, 30.251399382205435 ] ] ] } },
{ "type": "Feature", "properties": { "fid": 23 }, "geometry": { "type": "Polygon", "coordinates": [ [ [ 121.068875202182724, 29.950826839035411 ], [ 121.045423915420372, 29.90942672187926 ], [ 121.041949650714841, 29.844657494196092 ], [ 121.061926672771648, 29.800952184356088 ], [ 121.096669319826972, 29.761751872680595 ], [ 121.129674834529538, 29.736866793443955 ], [ 121.169628878643195, 29.721781921431443 ], [ 121.208714356580401, 29.732341569988289 ], [ 121.236508474224649, 29.75044123880852 ], [ 121.24085130510656, 29.799444763903047 ], [ 121.23911417275383, 29.835616584380304 ], [ 121.233034209519147, 29.891355820296763 ], [ 121.225217113931706, 29.910932482395186 ], [ 121.199160128640202, 29.93502155418135 ], [ 121.180051672759745, 29.94480607427516 ], [ 121.146177591880814, 29.956094709174135 ], [ 121.120120606589339, 29.964372226867741 ], [ 121.086246525710379, 29.968134507023933 ], [ 121.068875202182724, 29.950826839035411 ] ] ] } },
{ "type": "Feature", "properties": { "fid": 24 }, "geometry": { "type": "Polygon", "coordinates": [ [ [ 114.245419320516078, 31.002530496003441 ], [ 114.29058476168801, 31.127522174936754 ], [ 114.287110496982464, 31.237497656972668 ], [ 114.25236784992714, 31.365146314962193 ], [ 114.193305349933098, 31.445209344621389 ], [ 114.116871526411373, 31.486696604461212 ], [ 114.068231820533896, 31.471881836462302 ], [ 114.033489173478557, 31.4363168261015 ], [ 114.005695055834309, 31.365146314962193 ], [ 113.995272261717716, 31.249379243040039 ], [ 113.995272261717716, 31.157257874252679 ], [ 114.012643585245371, 31.047189235535608 ], [ 114.016117849950902, 30.978703943586975 ], [ 114.054334761711758, 30.93699316128172 ], [ 114.113397261705828, 30.925072450019076 ], [ 114.186356820522008, 30.942952959555317 ], [ 114.224573732282849, 30.963809326679968 ], [ 114.245419320516078, 31.002530496003441 ] ] ] } },
{ "type": "Feature", "properties": { "fid": 25 }, "geometry": { "type": "Polygon", "coordinates": [ [ [ 114.492092114608894, 31.198872181885399 ], [ 114.436503879320369, 31.151311480430408 ], [ 114.415658291087169, 31.076950093786383 ], [ 114.412184026381638, 30.993596236279025 ], [ 114.457349467553584, 30.922092040001154 ], [ 114.530309026369778, 30.916130941358833 ], [ 114.582422996952772, 30.925072450019076 ], [ 114.61369137930258, 30.957850829281206 ], [ 114.634536967535738, 31.002530496003441 ], [ 114.644959761652373, 31.050165740335402 ], [ 114.634536967535738, 31.118599647030912 ], [ 114.61369137930258, 31.157257874252679 ], [ 114.572000202836179, 31.184012028732155 ], [ 114.492092114608894, 31.198872181885399 ] ] ] } },
{ "type": "Feature", "properties": { "fid": 26 }, "geometry": { "type": "Polygon", "coordinates": [ [ [ 115.002809026322254, 30.954871441180451 ], [ 114.954169320444791, 30.942952959555317 ], [ 114.92984946750606, 30.895264171285643 ], [ 114.943746526328184, 30.841585881412538 ], [ 114.97154064397246, 30.820702875319302 ], [ 115.016706085144364, 30.823686440027931 ], [ 115.047974467494186, 30.850534350313175 ], [ 115.061871526316295, 30.883338260431088 ], [ 115.051448732199702, 30.91315025274476 ], [ 115.041025938083095, 30.934013122797744 ], [ 115.002809026322254, 30.954871441180451 ] ] ] } },
{ "type": "Feature", "properties": { "fid": 27 }, "geometry": { "type": "Polygon", "coordinates": [ [ [ 113.053746526518268, 30.939973106869299 ], [ 112.94951858535228, 30.98466113960562 ], [ 112.866136232419507, 30.978703943586975 ], [ 112.807073732425465, 30.95189196015232 ], [ 112.814022261836527, 30.907188596956672 ], [ 112.866136232419507, 30.856499532525021 ], [ 112.925198732413577, 30.814735467825084 ], [ 112.966889908879963, 30.796831021101905 ], [ 113.022478144168488, 30.799815327217061 ], [ 113.057220791223827, 30.826669912037268 ], [ 113.081540644162544, 30.844568797116871 ], [ 113.095437702984697, 30.868428783829017 ], [ 113.08848917357362, 30.892282832795008 ], [ 113.053746526518268, 30.939973106869299 ] ] ] } },
{ "type": "Feature", "properties": { "fid": 28 }, "geometry": { "type": "Polygon", "coordinates": [ [ [ 113.474132555887778, 30.775938284322628 ], [ 113.376853144132838, 30.734139198040864 ], [ 113.331687702960906, 30.683358781148378 ], [ 113.331687702960906, 30.596671711943657 ], [ 113.390750202954976, 30.55180310557034 ], [ 113.529720791176288, 30.55479499173607 ], [ 113.609628879403559, 30.557786785676118 ], [ 113.720805349980623, 30.566761614089042 ], [ 113.814610497029975, 30.60863316698326 ], [ 113.811136232324472, 30.659452867484855 ], [ 113.769445055858043, 30.701284333512042 ], [ 113.727753879391656, 30.731152854781975 ], [ 113.682588438219724, 30.763997539929662 ], [ 113.609628879403559, 30.775938284322628 ], [ 113.526246526470771, 30.790862130919777 ], [ 113.474132555887778, 30.775938284322628 ] ] ] } },
{ "type": "Feature", "properties": { "fid": 29 }, "geometry": { "type": "Polygon", "coordinates": [ [ [ 112.362367850117238, 30.907188596956672 ], [ 112.299831085417637, 30.853516987794777 ], [ 112.299831085417637, 30.769968097336776 ], [ 112.348470791295085, 30.710245861221463 ], [ 112.397110497172562, 30.71621975053414 ], [ 112.445750203050011, 30.769968097336776 ], [ 112.445750203050011, 30.829653291342133 ], [ 112.431853144227901, 30.871410864724783 ], [ 112.362367850117238, 30.907188596956672 ] ] ] } },
{ "type": "Feature", "properties": { "fid": 30 }, "geometry": { "type": "Polygon", "coordinates": [ [ [ 115.140042482190793, 30.485958287598955 ], [ 115.105299835135497, 30.538338476674411 ], [ 115.060134393963565, 30.560778487385182 ], [ 115.009757555733302, 30.551803105570372 ], [ 115.001071893969495, 30.520382734042894 ], [ 114.999334761616723, 30.491946023057999 ], [ 115.021917482202696, 30.460506302312726 ], [ 115.075768585138448, 30.436545416766258 ], [ 115.103562702782725, 30.408084216670552 ], [ 115.141779614543566, 30.375118774255849 ], [ 115.160888070423979, 30.379614716838478 ], [ 115.179996526304436, 30.394599698429584 ], [ 115.174785129246132, 30.429056432209396 ], [ 115.164362335129525, 30.456014084971294 ], [ 115.140042482190793, 30.485958287598955 ] ] ] } },
{ "type": "Feature", "properties": { "fid": 31 }, "geometry": { "type": "Polygon", "coordinates": [ [ [ 115.115722629252048, 30.157568691674502 ], [ 115.108774099841, 30.107990026819525 ], [ 115.150465276307401, 30.038838850314953 ], [ 115.202579246890409, 30.002740799594161 ], [ 115.256430349826147, 29.974153858985542 ], [ 115.301595790998093, 29.965124694294001 ], [ 115.306807188056368, 29.986191468760417 ], [ 115.291172996881457, 30.023799592949143 ], [ 115.237321893945705, 30.086949133064156 ], [ 115.204316379243153, 30.129026440957315 ], [ 115.178259393951663, 30.147054086239251 ], [ 115.150465276307401, 30.162074607993492 ], [ 115.115722629252048, 30.157568691674502 ] ] ] } },
{ "type": "Feature", "properties": { "fid": 32 }, "geometry": { "type": "Polygon", "coordinates": [ [ [ 115.513525938035585, 30.103481640918456 ], [ 115.477046158627488, 30.056882946384555 ], [ 115.471834761569156, 30.016279108598631 ], [ 115.499628879213446, 29.986191468760417 ], [ 115.541320055679819, 29.983182203099076 ], [ 115.574325570382399, 30.002740799594161 ], [ 115.595171158615585, 30.032823421212612 ], [ 115.617753879201544, 30.112498207023869 ], [ 115.56390277626582, 30.145551908250987 ], [ 115.522211599799405, 30.145551908250987 ], [ 115.513525938035585, 30.103481640918456 ] ] ] } },
{ "type": "Feature", "properties": { "fid": 33 }, "geometry": { "type": "Polygon", "coordinates": [ [ [ 115.975603143871481, 29.897379818307023 ], [ 115.855741011530554, 29.947063903775728 ], [ 115.767147261539492, 29.960609804278253 ], [ 115.71329615860374, 29.941042911207155 ], [ 115.71329615860374, 29.882319140626635 ], [ 115.810575570358651, 29.856710767487652 ], [ 115.913066379171894, 29.846164232933862 ], [ 115.949546158579963, 29.853697585588282 ], [ 116.008608658574005, 29.882319140626635 ], [ 115.975603143871481, 29.897379818307023 ] ] ] } },
{ "type": "Feature", "properties": { "fid": 34 }, "geometry": { "type": "Polygon", "coordinates": [ [ [ 118.409325570097266, 30.954871441180451 ], [ 118.325943217164465, 30.907188596956672 ], [ 118.287726305403609, 30.857990770106799 ], [ 118.228663805409553, 30.796831021101905 ], [ 118.213029614234614, 30.719206556426663 ], [ 118.19739542305976, 30.656464212372164 ], [ 118.216503878940173, 30.580222299996763 ], [ 118.270354981875926, 30.560778487385168 ], [ 118.346788805397679, 30.572744371805218 ], [ 118.423222628919405, 30.60863316698326 ], [ 118.480547996560688, 30.643014120920579 ], [ 118.551770423024109, 30.687840481313035 ], [ 118.579564540668372, 30.728166418985843 ], [ 118.612570055370924, 30.78787754686325 ], [ 118.617781452429199, 30.814735467825091 ], [ 118.600410128901558, 30.883338260431088 ], [ 118.584775937726675, 30.91464060865901 ], [ 118.553507555376882, 30.941463044825323 ], [ 118.510079246557709, 30.963809326679979 ], [ 118.463176673033018, 30.971256925620118 ], [ 118.409325570097266, 30.954871441180451 ] ] ] } },
{ "type": "Feature", "properties": { "fid": 35 }, "geometry": { "type": "Polygon", "coordinates": [ [ [ 119.521090275867778, 31.693856766915005 ], [ 119.432496525876701, 31.67611823951912 ], [ 119.376908290588162, 31.649504093866732 ], [ 119.385593952351996, 31.596252939207659 ], [ 119.470713437637571, 31.574055966330828 ], [ 119.545410128806523, 31.574055966330828 ], [ 119.60794689350611, 31.606609716898653 ], [ 119.611421158211613, 31.648025306692929 ], [ 119.574941378803544, 31.668726186070632 ], [ 119.554095790570358, 31.684987926942071 ], [ 119.521090275867778, 31.693856766915005 ] ] ] } },
{ "type": "Feature", "properties": { "fid": 36 }, "geometry": { "type": "Polygon", "coordinates": [ [ [ 118.586513070079448, 34.025356305392442 ], [ 118.433645423036012, 34.028235692456597 ], [ 118.433645423036012, 33.944693815923422 ], [ 118.510079246557737, 33.863954817002799 ], [ 118.59346159949051, 33.863954817002799 ], [ 118.669895423012235, 33.875493640633572 ], [ 118.715060864184167, 33.924516235532252 ], [ 118.70463807006756, 33.970629392708986 ], [ 118.649049834779049, 34.010957904652308 ], [ 118.586513070079448, 34.025356305392442 ] ] ] } },
{ "type": "Feature", "properties": { "fid": 37 }, "geometry": { "type": "Polygon", "coordinates": [ [ [ 118.207818217176339, 33.699357241285178 ], [ 118.100116011304848, 33.647313383055206 ], [ 117.943774099555867, 33.560503667478393 ], [ 117.902082923089466, 33.548922437023677 ], [ 117.735318217223863, 33.525755318861393 ], [ 117.658884393702138, 33.528651548169833 ], [ 117.467799834897832, 33.537339654062912 ], [ 117.412211599609321, 33.482300241748646 ], [ 117.401788805492714, 33.395324669810798 ], [ 117.405263070198274, 33.308261968540066 ], [ 117.450428511370205, 33.264697979976283 ], [ 117.547707923125117, 33.232737237536959 ], [ 117.610244687824704, 33.229831135971949 ], [ 117.683204246640869, 33.255982573060045 ], [ 117.721421158401753, 33.299550910678555 ], [ 117.804803511334526, 33.363411790021289 ], [ 117.89513439367839, 33.351804203242104 ], [ 117.954196893672417, 33.308261968540066 ], [ 117.954196893672417, 33.20948572132292 ], [ 117.940299834850308, 33.128056773246819 ], [ 117.933351305439231, 33.058200363059775 ], [ 117.964619687789025, 33.020338306575972 ], [ 118.009785128960957, 33.03198990321129 ], [ 118.04105351131075, 33.058200363059775 ], [ 118.086218952482682, 33.113507932377694 ], [ 118.117487334832475, 33.154238612054833 ], [ 118.148755717182297, 33.192043029399265 ], [ 118.19739542305976, 33.224018643139068 ], [ 118.273829246581485, 33.261792940952027 ], [ 118.350263070103196, 33.276317169829071 ], [ 118.381531452453004, 33.299550910678555 ], [ 118.391954246569583, 33.34890206466855 ], [ 118.405851305391735, 33.41852667965599 ], [ 118.38847998186408, 33.479402460963996 ], [ 118.367634393630837, 33.517066048962022 ], [ 118.360685864219789, 33.566293700433143 ], [ 118.385005717158521, 33.606813058940581 ], [ 118.398902775980659, 33.650205534693804 ], [ 118.38847998186408, 33.682012788203672 ], [ 118.353737334808727, 33.713808277971388 ], [ 118.277303511287002, 33.739814015909126 ], [ 118.207818217176339, 33.699357241285178 ] ] ] } },
{ "type": "Feature", "properties": { "fid": 38 }, "geometry": { "type": "Polygon", "coordinates": [ [ [ 118.885299834755273, 33.517066048962022 ], [ 118.854031452405479, 33.401125753218828 ], [ 118.867928511227603, 33.30245469330918 ], [ 118.951310864160391, 33.215299179696686 ], [ 119.027744687682116, 33.174596862991237 ], [ 119.114601305320448, 33.183320380447967 ], [ 119.104178511203841, 33.253077244200831 ], [ 119.069435864148517, 33.322778464575777 ], [ 119.059013070031938, 33.369215002842857 ], [ 119.038167481798723, 33.441722491482786 ], [ 119.00342483474337, 33.479402460963996 ], [ 118.979104981804625, 33.502581992798738 ], [ 118.885299834755273, 33.517066048962022 ] ] ] } },
{ "type": "Feature", "properties": { "fid": 39 }, "geometry": { "type": "Polygon", "coordinates": [ [ [ 118.867928511227603, 33.023251350133883 ], [ 118.728957923006291, 33.020338306575972 ], [ 118.70463807006756, 33.043639959427445 ], [ 118.649049834779049, 33.09895668157322 ], [ 118.569141746551765, 33.107687721217943 ], [ 118.548296158318578, 33.06402385033627 ], [ 118.523976305379833, 32.964972194766581 ], [ 118.471862334796853, 32.947480944842653 ], [ 118.423222628919405, 32.921237580147114 ], [ 118.419748364213874, 32.8628911246333 ], [ 118.492707923030039, 32.81034647406188 ], [ 118.555244687729655, 32.751927071900347 ], [ 118.569141746551765, 32.711010675066099 ], [ 118.621255717134758, 32.693469328228147 ], [ 118.659472628895628, 32.740238589346085 ], [ 118.735906452417353, 32.807426415114158 ], [ 118.79844321711694, 32.781141567895844 ], [ 118.864454246522087, 32.737316229106405 ], [ 118.982579246510213, 32.673000066367507 ], [ 119.083332922970655, 32.649600880343741 ], [ 119.149343952375773, 32.678848905631959 ], [ 119.152818217081318, 32.734393773035201 ], [ 119.125024099437027, 32.7606924273666 ], [ 119.125024099437027, 32.801586009408418 ], [ 119.13892115825918, 32.83078420005284 ], [ 119.149343952375773, 32.906654569030266 ], [ 119.114601305320448, 32.956227002537389 ], [ 119.048590275915302, 32.991202577480472 ], [ 119.020796158271054, 33.011598598366774 ], [ 118.867928511227603, 33.023251350133883 ] ] ] } },
{ "type": "Feature", "properties": { "fid": 40 }, "geometry": { "type": "Polygon", "coordinates": [ [ [ 117.860391746623066, 32.6876214464518 ], [ 117.683204246640869, 32.611564141411314 ], [ 117.561604981947241, 32.591076125110035 ], [ 117.453902776075708, 32.588148883173979 ], [ 117.408737334903805, 32.497356986743291 ], [ 117.384417481965059, 32.397673297467925 ], [ 117.391366011376107, 32.300816118585075 ], [ 117.440005717253598, 32.236187087471563 ], [ 117.516439540775323, 32.227370472217991 ], [ 117.599821893708096, 32.259693878849603 ], [ 117.74226674663494, 32.31549811361171 ], [ 117.881237334856252, 32.336048909070634 ], [ 117.999362334844378, 32.341919708097976 ], [ 118.082744687777179, 32.359529819777784 ], [ 118.131384393654642, 32.374202293604839 ], [ 118.169601305415483, 32.400606744120168 ], [ 118.134858658360159, 32.462187099910736 ], [ 118.075796158366103, 32.541300013324758 ], [ 118.013259393666516, 32.608637568819631 ], [ 117.947248364261398, 32.675924533868546 ], [ 117.922928511322681, 32.70224043264777 ], [ 117.860391746623066, 32.6876214464518 ] ] ] } },
{ "type": "Feature", "properties": { "fid": 41 }, "geometry": { "type": "Polygon", "coordinates": [ [ [ 117.585924834885986, 32.781141567895844 ], [ 117.464325570192329, 32.81910607523124 ], [ 117.377468952553983, 32.784062490128086 ], [ 117.335777776087596, 32.713933897628841 ], [ 117.370520423142921, 32.664226089483599 ], [ 117.474748364308894, 32.640824606457471 ], [ 117.516439540775323, 32.649600880343741 ], [ 117.61719321723578, 32.664226089483599 ], [ 117.634564540763392, 32.675924533868546 ], [ 117.634564540763392, 32.70224043264777 ], [ 117.63109027605789, 32.731471221136921 ], [ 117.585924834885986, 32.781141567895844 ] ] ] } },
{ "type": "Feature", "properties": { "fid": 42 }, "geometry": { "type": "Polygon", "coordinates": [ [ [ 120.370547996370519, 32.573511239545724 ], [ 120.34622814343183, 32.557407071705342 ], [ 120.332331084609706, 32.482704537361471 ], [ 120.382707922839927, 32.440198943488959 ], [ 120.450456084597803, 32.435800668375755 ], [ 120.478250202242037, 32.448994849932824 ], [ 120.495621525769735, 32.497356986743291 ], [ 120.476513069889322, 32.535442184670842 ], [ 120.434821893422921, 32.563263467220516 ], [ 120.407027775778644, 32.588148883173979 ], [ 120.370547996370519, 32.573511239545724 ] ] ] } },
{ "type": "Feature", "properties": { "fid": 43 }, "geometry": { "type": "Polygon", "coordinates": [ [ [ 119.826825569954678, 32.766535518349002 ], [ 119.792082922899297, 32.788443693657399 ], [ 119.727809025846994, 32.785522915280957 ], [ 119.720860496435904, 32.750466095447308 ], [ 119.726071893494208, 32.708087356712042 ], [ 119.757340275844001, 32.674462312084941 ], [ 119.790345790546525, 32.655451251122741 ], [ 119.819877040543602, 32.653988694316411 ], [ 119.847671158187865, 32.673000066367507 ], [ 119.87199101112661, 32.690545435219981 ], [ 119.873728143479354, 32.716857024395779 ], [ 119.863305349362747, 32.743160853749771 ], [ 119.85288255524614, 32.762153236063789 ], [ 119.826825569954678, 32.766535518349002 ] ] ] } },
{ "type": "Feature", "properties": { "fid": 44 }, "geometry": { "type": "Polygon", "coordinates": [ [ [ 117.877328787062496, 31.611047983302893 ], [ 117.818266287068425, 31.611047983302893 ], [ 117.764415184132702, 31.591813967630902 ], [ 117.724461140019045, 31.568135880691067 ], [ 117.681032831199886, 31.544451779815752 ], [ 117.646290184144547, 31.519280835967177 ], [ 117.623707463558574, 31.480770978723168 ], [ 117.616758934147526, 31.437798971117456 ], [ 117.609810404736464, 31.388875814282216 ], [ 117.621970331205802, 31.354762774592832 ], [ 117.651501581202822, 31.32063735489924 ], [ 117.663661507672231, 31.298374980274058 ], [ 117.689718492963721, 31.277592018009077 ], [ 117.722724007666272, 31.271653187393344 ], [ 117.764415184132702, 31.276107345408647 ], [ 117.792209301776936, 31.293921874052369 ], [ 117.809580625304605, 31.316185300895118 ], [ 117.818266287068425, 31.354762774592832 ], [ 117.806106360599046, 31.390358708971569 ], [ 117.813054890010122, 31.421494087013173 ], [ 117.873854522356964, 31.451137221496406 ], [ 117.913808566470593, 31.458546540114778 ], [ 117.943339816467613, 31.485215233212184 ], [ 117.953762610584221, 31.498546729913013 ], [ 117.964185404700828, 31.535568692034069 ], [ 117.957236875289723, 31.571095970497272 ], [ 117.941602684114855, 31.585895009840058 ], [ 117.929442757645475, 31.594773305518199 ], [ 117.917282831176124, 31.603650755088658 ], [ 117.877328787062496, 31.611047983302893 ] ] ] } },
{ "type": "Feature", "properties": { "fid": 45 }, "geometry": { "type": "Polygon", "coordinates": [ [ [ 117.602861875325388, 36.903962427178392 ], [ 117.505582463570477, 36.919240842632597 ], [ 117.444782831223662, 36.923407152076024 ], [ 117.382246066524075, 36.95256494351618 ], [ 117.337080625352144, 36.971997272453699 ], [ 117.255435404772115, 36.965057724322989 ], [ 117.222429890069549, 36.934516197622926 ], [ 117.224167022422321, 36.877565229703769 ], [ 117.258909669477646, 36.851158905283242 ], [ 117.337080625352144, 36.837257174681049 ], [ 117.361400478290889, 36.84559851632946 ], [ 117.411777316521096, 36.846988651480061 ], [ 117.467365551809635, 36.837257174681049 ], [ 117.496896801806642, 36.823352916877859 ], [ 117.549010772389636, 36.815009149289011 ], [ 117.57680489003387, 36.820571762084732 ], [ 117.637604522380741, 36.840037722989067 ], [ 117.641078787086272, 36.874786046365124 ], [ 117.63413025767521, 36.891459629395818 ], [ 117.602861875325388, 36.903962427178392 ] ] ] } },
{ "type": "Feature", "properties": { "fid": 46 }, "geometry": { "type": "Polygon", "coordinates": [ [ [ 118.01803650763658, 36.653517619201047 ], [ 117.974608198817435, 36.677205721032543 ], [ 117.919019963528896, 36.678598911732621 ], [ 117.877328787062496, 36.656304833105793 ], [ 117.83911187530164, 36.606119548128973 ], [ 117.847797537065475, 36.548924289371961 ], [ 117.868643125298661, 36.523800795058513 ], [ 117.910334301765062, 36.514028343068247 ], [ 117.955499742936993, 36.512632177747655 ], [ 117.988505257639559, 36.523800795058513 ], [ 118.01803650763658, 36.553110744801742 ], [ 118.033670698811491, 36.582409582515254 ], [ 118.035407831164221, 36.614486031789404 ], [ 118.038882095869766, 36.629822227629646 ], [ 118.01803650763658, 36.653517619201047 ] ] ] } },
{ "type": "Feature", "properties": { "fid": 47 }, "geometry": { "type": "Polygon", "coordinates": [ [ [ 117.767889448838218, 36.494479736744147 ], [ 117.708826948844134, 36.512632177747655 ], [ 117.670610037083279, 36.519612752477954 ], [ 117.56290783121176, 36.51542448320194 ], [ 117.434360037107055, 36.509839771547348 ], [ 117.392668860640683, 36.502858315302319 ], [ 117.354451948879813, 36.481910169171968 ], [ 117.326657831235508, 36.459559235791332 ], [ 117.323183566530005, 36.428816180719345 ], [ 117.338817757704916, 36.413440085682112 ], [ 117.368349007701937, 36.407848023577088 ], [ 117.451731360634724, 36.405051841573744 ], [ 117.540325110625801, 36.417633868084913 ], [ 117.611547537089251, 36.424623002200335 ], [ 117.712301213549708, 36.428816180719345 ], [ 117.776575110602025, 36.445586629941296 ], [ 117.78699790471866, 36.459559235791332 ], [ 117.78699790471866, 36.472132428841959 ], [ 117.767889448838218, 36.494479736744147 ] ] ] } },
{ "type": "Feature", "properties": { "fid": 48 }, "geometry": { "type": "Polygon", "coordinates": [ [ [ 117.910334301765062, 36.381280231922005 ], [ 117.859957463534855, 36.340711887820802 ], [ 117.866905992945917, 36.288921581793694 ], [ 117.877328787062496, 36.235695733827718 ], [ 117.901648640001227, 36.196453484191849 ], [ 117.920757095881669, 36.155788980496908 ], [ 117.927705625292745, 36.133344359675583 ], [ 117.945076948820414, 36.08843585627136 ], [ 117.948551213525931, 36.063163540817904 ], [ 117.953762610584221, 36.011189393552442 ], [ 117.948551213525931, 35.954962552808503 ], [ 117.960711139995269, 35.888844838766921 ], [ 117.979819595875739, 35.857877134023795 ], [ 118.019773639989353, 35.817037578753364 ], [ 118.049304889986402, 35.802950099460631 ], [ 118.08925893410003, 35.79731440804693 ], [ 118.122264448802568, 35.804358959844194 ], [ 118.18132694879661, 35.840980557570056 ], [ 118.184801213502169, 35.881807786956557 ], [ 118.113578787038719, 35.942305993152807 ], [ 118.087521801747258, 35.969023018809366 ], [ 118.061464816455739, 36.061759285174844 ], [ 118.04756775763363, 36.14597024908992 ], [ 118.049304889986402, 36.196453484191849 ], [ 118.054516287044677, 36.259511780974613 ], [ 118.066676213514057, 36.300122401050977 ], [ 118.033670698811491, 36.37708448740031 ], [ 117.971133934111904, 36.389671041878259 ], [ 117.910334301765062, 36.381280231922005 ] ] ] } },
{ "type": "Feature", "properties": { "fid": 49 }, "geometry": { "type": "Polygon", "coordinates": [ [ [ 117.882540184120828, 36.099665389338945 ], [ 117.814792022362923, 36.185237798075377 ], [ 117.689718492963749, 36.210470832802685 ], [ 117.620233198853072, 36.217478565731653 ], [ 117.526428051803663, 36.200658952344163 ], [ 117.498633934159429, 36.179629352676507 ], [ 117.489948272395594, 36.154386379844865 ], [ 117.526428051803663, 36.127732201106724 ], [ 117.592439081208809, 36.101068968147722 ], [ 117.654975845908368, 36.072992628538792 ], [ 117.700141287080299, 36.035073666553714 ], [ 117.757466654721611, 35.999947230741114 ], [ 117.792209301776964, 35.981675297635171 ], [ 117.833900478243336, 35.978863855385967 ], [ 117.858220331182082, 35.988703465056396 ], [ 117.887751581179103, 36.006973770347876 ], [ 117.894700110590179, 36.021024970994667 ], [ 117.892962978237406, 36.053333225020147 ], [ 117.882540184120828, 36.099665389338945 ] ] ] } },
{ "type": "Feature", "properties": { "fid": 50 }, "geometry": { "type": "Polygon", "coordinates": [ [ [ 117.759203787074398, 35.876177695305557 ], [ 117.665398640025003, 35.870547203502475 ], [ 117.644553051791817, 35.848021235288165 ], [ 117.625444595911361, 35.819854774715814 ], [ 117.658450110613927, 35.79590542272571 ], [ 117.724461140019045, 35.776177004852954 ], [ 117.767889448838218, 35.760672670211086 ], [ 117.788735037071433, 35.721193455468189 ], [ 117.795683566482495, 35.660526556203578 ], [ 117.795683566482495, 35.637941049628246 ], [ 117.814792022362923, 35.592750884213437 ], [ 117.847797537065475, 35.56449406807419 ], [ 117.887751581179103, 35.540467937414135 ], [ 117.932917022351035, 35.536227284609708 ], [ 117.978082463522952, 35.554601827472787 ], [ 118.011087978225532, 35.565907145633069 ], [ 118.014562242931035, 35.61534915839534 ], [ 117.990242389992346, 35.649234601104723 ], [ 117.965922537053601, 35.691571199666349 ], [ 117.906860037059516, 35.745165313466444 ], [ 117.892962978237406, 35.766310959774394 ], [ 117.879065919415268, 35.805767795239028 ], [ 117.847797537065475, 35.829714173275718 ], [ 117.825214816479502, 35.855061287971544 ], [ 117.759203787074398, 35.876177695305557 ] ] ] } },
{ "type": "Feature", "properties": { "fid": 51 }, "geometry": { "type": "Polygon", "coordinates": [ [ [ 117.456942757693042, 35.536227284609694 ], [ 117.37008614005471, 35.546121792395141 ], [ 117.356189081232586, 35.530572732133834 ], [ 117.352714816527026, 35.505122314556324 ], [ 117.39093172828791, 35.466931561842379 ], [ 117.430885772401524, 35.459857208846586 ], [ 117.460417022398573, 35.461272129221506 ], [ 117.469102684162408, 35.469761128819528 ], [ 117.479525478279015, 35.499465570492141 ], [ 117.477788345926243, 35.515020657978894 ], [ 117.456942757693042, 35.536227284609694 ] ] ] } },
{ "type": "Feature", "properties": { "fid": 52 }, "geometry": { "type": "Polygon", "coordinates": [ [ [ 117.587227684150506, 35.332412514513805 ], [ 117.519479522392615, 35.336663915459198 ], [ 117.45346849298744, 35.311152155472783 ], [ 117.441308566518117, 35.284214343568294 ], [ 117.456942757693028, 35.234568592736686 ], [ 117.496896801806642, 35.214701778587951 ], [ 117.545536507684076, 35.186312179578678 ], [ 117.561170698858987, 35.166433556781143 ], [ 117.601124742972615, 35.16217321951698 ], [ 117.639341654733485, 35.153651875501843 ], [ 117.653238713555595, 35.116715738516426 ], [ 117.663661507672231, 35.099662639878147 ], [ 117.696667022374783, 35.057014285547702 ], [ 117.724461140019045, 35.035681749940821 ], [ 117.762678051779915, 35.017189046613062 ], [ 117.814792022362909, 35.001538107387702 ], [ 117.825214816479502, 35.000115146245051 ], [ 117.896437242942923, 35.021456964836425 ], [ 117.927705625292703, 35.02999213295638 ], [ 117.929442757645475, 35.045637626507478 ], [ 117.93465415470375, 35.092556129052554 ], [ 117.887751581179103, 35.133765268525657 ], [ 117.840849007654398, 35.14228869505601 ], [ 117.764415184132673, 35.172113659298724 ], [ 117.734883934135652, 35.191990893211383 ], [ 117.701878419433086, 35.228892856441888 ], [ 117.681032831199886, 35.251593418926355 ], [ 117.654975845908368, 35.274287626517939 ], [ 117.635867390027968, 35.292721989670582 ], [ 117.587227684150506, 35.332412514513805 ] ] ] } },
{ "type": "Feature", "properties": { "fid": 53 }, "geometry": { "type": "Polygon", "coordinates": [ [ [ 117.451731360634724, 35.133765268525657 ], [ 117.401354522404461, 35.145129638916792 ], [ 117.366611875349165, 35.109610714394222 ], [ 117.389194595935123, 35.069811132546306 ], [ 117.40482878711002, 35.051326154121625 ], [ 117.460417022398545, 35.022879554740008 ], [ 117.533376581214753, 35.004383955434108 ], [ 117.606336140030891, 35.000115146245051 ], [ 117.628918860616864, 35.018611710772497 ], [ 117.608073272383692, 35.042793214138776 ], [ 117.582016287092202, 35.058436256496492 ], [ 117.540325110625801, 35.079762848802218 ], [ 117.517742390039842, 35.096820109875331 ], [ 117.514268125334311, 35.103926249054936 ], [ 117.451731360634724, 35.133765268525657 ] ] ] } },
{ "type": "Feature", "properties": { "fid": 54 }, "geometry": { "type": "Polygon", "coordinates": [ [ [ 116.433771801913565, 35.034259382828878 ], [ 116.392080625447207, 35.064123892647444 ], [ 116.329543860747592, 35.086870474446158 ], [ 116.258321434284156, 35.086870474446158 ], [ 116.235738713698183, 35.041370970815557 ], [ 116.192310404879066, 35.000115146245051 ], [ 116.169727684293093, 34.971650727391882 ], [ 116.155830625470955, 34.943176413846416 ], [ 116.155830625470955, 34.911843244868308 ], [ 116.159304890176458, 34.864821061482189 ], [ 116.187099007820763, 34.832032114948582 ], [ 116.23226444899268, 34.803509369590557 ], [ 116.284378419575674, 34.787817650907385 ], [ 116.350389448980806, 34.783537572997211 ], [ 116.393817757799965, 34.787817650907385 ], [ 116.456354522499524, 34.80636208848604 ], [ 116.515417022493622, 34.830606212228396 ], [ 116.544948272490657, 34.839161258153972 ], [ 116.574479522487678, 34.866246371458594 ], [ 116.598799375426424, 34.894747382682716 ], [ 116.586639448957015, 34.927511325086051 ], [ 116.541474007785084, 34.977344402852772 ], [ 116.492834301907649, 35.014343644041446 ], [ 116.44072033132467, 35.027147175931923 ], [ 116.433771801913565, 35.034259382828878 ] ] ] } },
{ "type": "Feature", "properties": { "fid": 55 }, "geometry": { "type": "Polygon", "coordinates": [ [ [ 116.19752180193737, 35.346582981235585 ], [ 116.161042022529259, 35.35650082922443 ], [ 116.110665184299037, 35.315404674484014 ], [ 116.091556728418595, 35.275705803449441 ], [ 116.067236875479878, 35.25584906696762 ], [ 116.025545699013477, 35.211863265253626 ], [ 116.001225846074732, 35.193410509606977 ], [ 115.95953466960836, 35.162173219516973 ], [ 115.917843493141959, 35.152231564719116 ], [ 115.896997904908773, 35.132344610678629 ], [ 115.891786507850469, 35.108189635228193 ], [ 115.90394643431982, 35.068389359721785 ], [ 115.940426213727918, 35.055592289835353 ], [ 115.98906591960538, 35.04563762650745 ], [ 116.067236875479878, 35.042793214138769 ], [ 116.081133934302017, 35.04705979555208 ], [ 116.122825110768389, 35.058436256496485 ], [ 116.157567757823742, 35.084027498504057 ], [ 116.176676213704155, 35.098241387264935 ], [ 116.188836140173535, 35.118136668996186 ], [ 116.204470331348389, 35.14939086877461 ], [ 116.206207463701162, 35.172113659298724 ], [ 116.211418860759494, 35.223216723077819 ], [ 116.213155993112252, 35.250174819931075 ], [ 116.214893125465025, 35.272869424755683 ], [ 116.213155993112252, 35.294139843762785 ], [ 116.213155993112252, 35.313987192989671 ], [ 116.19752180193737, 35.346582981235585 ] ] ] } },
{ "type": "Feature", "properties": { "fid": 56 }, "geometry": { "type": "Polygon", "coordinates": [ [ [ 115.797981360801032, 35.253011993097815 ], [ 115.763238713745736, 35.277123955549762 ], [ 115.737181728454217, 35.289886206977449 ], [ 115.704176213751666, 35.292721989670582 ], [ 115.674644963754602, 35.292721989670582 ], [ 115.59994827258565, 35.292721989670582 ], [ 115.551308566708229, 35.282796315630449 ], [ 115.528725846122256, 35.271451198163092 ], [ 115.523514449063924, 35.253011993097815 ], [ 115.528725846122256, 35.218959362494871 ], [ 115.563468493177581, 35.217540192672423 ], [ 115.626005257877168, 35.191990893211369 ], [ 115.639902316699306, 35.179213229457659 ], [ 115.664222169638052, 35.155072161490949 ], [ 115.693753419635058, 35.143709179381666 ], [ 115.719810404926534, 35.136606509856911 ], [ 115.73891886080699, 35.128082488417355 ], [ 115.761501581392963, 35.12382014308497 ], [ 115.787558566684453, 35.125240949647377 ], [ 115.82403834609255, 35.129503220624045 ], [ 115.832724007856385, 35.140868185940263 ], [ 115.843146801972992, 35.167853619607961 ], [ 115.843146801972992, 35.186312179578678 ], [ 115.834461140209157, 35.211863265253626 ], [ 115.829249743150825, 35.224635793642555 ], [ 115.797981360801032, 35.253011993097815 ] ] ] } },
{ "type": "Feature", "properties": { "fid": 57 }, "geometry": { "type": "Polygon", "coordinates": [ [ [ 115.923054890200234, 35.449952069408717 ], [ 115.907420699025351, 35.502293992323757 ], [ 115.872678051969984, 35.513606683625831 ], [ 115.777135772567846, 35.527745306444928 ], [ 115.735444596101473, 35.513606683625831 ], [ 115.638165184346533, 35.499465570492141 ], [ 115.566942757883083, 35.471175874973277 ], [ 115.520040184358422, 35.457027293435999 ], [ 115.476611875539248, 35.418813693839404 ], [ 115.473137610833717, 35.393327886011576 ], [ 115.483560404950325, 35.370667070712969 ], [ 115.518303052005649, 35.370667070712969 ], [ 115.54783430200267, 35.370667070712969 ], [ 115.577365551999719, 35.37208355813825 ], [ 115.601685404938451, 35.376332871249133 ], [ 115.634690919641002, 35.373500020702998 ], [ 115.702439081398893, 35.376332871249133 ], [ 115.766712978451267, 35.376332871249133 ], [ 115.796244228448259, 35.376332871249133 ], [ 115.839672537267461, 35.376332871249133 ], [ 115.867466654911695, 35.383414562524813 ], [ 115.893523640203213, 35.413150877392056 ], [ 115.923054890200234, 35.449952069408717 ] ] ] } },
{ "type": "Feature", "properties": { "fid": 58 }, "geometry": { "type": "Polygon", "coordinates": [ [ [ 114.922466655006772, 34.447575712871128 ], [ 114.830398640310136, 34.451873150110558 ], [ 114.771336140316095, 34.430383752976397 ], [ 114.73659349326077, 34.420353476299113 ], [ 114.674056728561183, 34.406022422196429 ], [ 114.663633934444576, 34.373051680448974 ], [ 114.672319596208411, 34.344370916694231 ], [ 114.701850846205431, 34.314245553334494 ], [ 114.740067757966301, 34.28841520557333 ], [ 114.776547537374398, 34.245346977043994 ], [ 114.797393125607613, 34.216622573965068 ], [ 114.826924375604634, 34.183577400286794 ], [ 114.852981360896123, 34.160581815588564 ], [ 114.872089816776565, 34.144768717019623 ], [ 114.905095331479131, 34.118886352269165 ], [ 114.93288944912338, 34.123200630086828 ], [ 114.962420699120401, 34.130390603940675 ], [ 114.997163346175739, 34.14045553996452 ], [ 115.033643125583836, 34.154831940489281 ], [ 115.084019963814043, 34.189325317380622 ], [ 115.099654154988954, 34.235294550510865 ], [ 115.108339816752789, 34.30420136207497 ], [ 115.113551213811064, 34.311375907010962 ], [ 115.117025478516624, 34.354410300459179 ], [ 115.108339816752789, 34.3859548215529 ], [ 115.077071434402995, 34.40888882946107 ], [ 114.990214816764635, 34.423219392434461 ], [ 114.939837978534428, 34.437547499475947 ], [ 114.922466655006772, 34.447575712871128 ] ] ] } },
{ "type": "Feature", "properties": { "fid": 59 }, "geometry": { "type": "Polygon", "coordinates": [ [ [ 114.978054890295311, 34.587844227451335 ], [ 114.951997905003807, 34.570681182675209 ], [ 114.943312243239987, 34.547791610942042 ], [ 114.965894963825946, 34.532051377098618 ], [ 115.00063761088127, 34.520602065029173 ], [ 115.023220331467229, 34.50485669117316 ], [ 115.054488713817022, 34.50485669117316 ], [ 115.078808566755768, 34.520602065029173 ], [ 115.084019963814043, 34.529189196643316 ], [ 115.08575709616683, 34.557806573601475 ], [ 115.073597169697464, 34.569250768981306 ], [ 115.044065919700429, 34.594994450079703 ], [ 115.016271802056153, 34.597854366823306 ], [ 114.978054890295311, 34.587844227451335 ] ] ] } },
{ "type": "Feature", "properties": { "fid": 60 }, "geometry": { "type": "Polygon", "coordinates": [ [ [ 114.819975846193586, 34.559237184141793 ], [ 114.833872905015681, 34.533482430433615 ], [ 114.823450110899074, 34.50342514602265 ], [ 114.793918860902068, 34.490540133362465 ], [ 114.719222169733115, 34.483380932618246 ], [ 114.675793860913956, 34.491971899768451 ], [ 114.637576949153086, 34.540637328163612 ], [ 114.625417022683706, 34.564959380256802 ], [ 114.614994228567127, 34.597854366823306 ], [ 114.625417022683706, 34.607863299972472 ], [ 114.675793860913956, 34.600714185099733 ], [ 114.726170699144163, 34.592134434872662 ], [ 114.755701949141184, 34.593564454783873 ], [ 114.771336140316095, 34.592134434872662 ], [ 114.819975846193586, 34.559237184141793 ] ] ] } },
{ "type": "Feature", "properties": { "fid": 61 }, "geometry": { "type": "Polygon", "coordinates": [ [ [ 114.813027316782495, 34.715026130332618 ], [ 114.783496066785474, 34.713598204390124 ], [ 114.780021802079929, 34.692176356985577 ], [ 114.786970331490977, 34.656460955022929 ], [ 114.82171297854633, 34.623589186045237 ], [ 114.846032831485047, 34.610722773584413 ], [ 114.879038346187613, 34.602144057311598 ], [ 114.892935405009752, 34.623589186045237 ], [ 114.896409669715297, 34.646457882943864 ], [ 114.889461140304221, 34.665034056011891 ], [ 114.877301213834841, 34.679320586518095 ], [ 114.865141287365489, 34.689319691624242 ], [ 114.854718493248882, 34.700745761515968 ], [ 114.813027316782495, 34.715026130332618 ] ] ] } },
{ "type": "Feature", "properties": { "fid": 62 }, "geometry": { "type": "Polygon", "coordinates": [ [ [ 116.799438162170858, 36.724560048261097 ], [ 116.740375662176774, 36.706457426814758 ], [ 116.726478603354664, 36.681385217440521 ], [ 116.729952868060195, 36.643761575997296 ], [ 116.76469551511552, 36.6367922170584 ], [ 116.799438162170858, 36.634004296943111 ], [ 116.856763529812142, 36.643761575997296 ], [ 116.886294779809162, 36.654911238765614 ], [ 116.915826029806183, 36.666059287173454 ], [ 116.934934485686654, 36.679992077202073 ], [ 116.943620147450474, 36.693922344131281 ], [ 116.933197353333867, 36.710635333439306 ], [ 116.917563162158956, 36.721775307226629 ], [ 116.894980441573026, 36.730129227414764 ], [ 116.84460360334279, 36.731521459093713 ], [ 116.799438162170858, 36.724560048261097 ] ] ] } },
{ "type": "Feature", "properties": { "fid": 63 }, "geometry": { "type": "Polygon", "coordinates": [ [ [ 116.681313162182732, 36.618668933239874 ], [ 116.606616471013794, 36.625639931356453 ], [ 116.552765368078028, 36.622851607757141 ], [ 116.504125662200551, 36.618668933239874 ], [ 116.465908750439695, 36.60054138812113 ], [ 116.450274559264784, 36.572644538160354 ], [ 116.44853742691204, 36.547528753835756 ], [ 116.472857279850757, 36.52659269749865 ], [ 116.524971250433765, 36.514028343068247 ], [ 116.570136691605683, 36.518216687907156 ], [ 116.622250662188691, 36.52380079505852 ], [ 116.660467573949546, 36.52938449917778 ], [ 116.686524559241008, 36.536363562526496 ], [ 116.703895882768705, 36.544737607176117 ], [ 116.733427132765712, 36.561482975322818 ], [ 116.738638529824001, 36.572644538160354 ], [ 116.738638529824001, 36.581014651791357 ], [ 116.729952868060195, 36.597752156855819 ], [ 116.71779294159083, 36.607514025103228 ], [ 116.681313162182732, 36.618668933239874 ] ] ] } },
{ "type": "Feature", "properties": { "fid": 64 }, "geometry": { "type": "Polygon", "coordinates": [ [ [ 115.673776397578195, 37.505817359434815 ], [ 115.61297676523138, 37.516840964414548 ], [ 115.546965735826262, 37.511329365438058 ], [ 115.519171618181957, 37.479629773105074 ], [ 115.526120147593048, 37.465843145203124 ], [ 115.569548456412221, 37.449295835209902 ], [ 115.61297676523138, 37.454812012025805 ], [ 115.659879338756085, 37.465843145203124 ], [ 115.684199191694802, 37.474115427105353 ], [ 115.710256176986292, 37.485143712198791 ], [ 115.715467574044567, 37.496170369584107 ], [ 115.715467574044567, 37.504439294338532 ], [ 115.673776397578195, 37.505817359434815 ] ] ] } },
{ "type": "Feature", "properties": { "fid": 65 }, "geometry": { "type": "Polygon", "coordinates": [ [ [ 115.8040613240357, 37.446537594254387 ], [ 115.764107279922044, 37.436882950080467 ], [ 115.739787426983312, 37.409291389050374 ], [ 115.731101765219478, 37.389971247456529 ], [ 115.73631316227781, 37.370646125480818 ], [ 115.758895882863769, 37.360981697135649 ], [ 115.786690000508017, 37.355458607777067 ], [ 115.81795838285781, 37.360981697135649 ], [ 115.859649559324211, 37.372026656482461 ], [ 115.885706544615701, 37.394111697096044 ], [ 115.904815000496143, 37.429986013021917 ], [ 115.897866471085081, 37.452053974467916 ], [ 115.868335221088017, 37.454812012025805 ], [ 115.8040613240357, 37.446537594254387 ] ] ] } },
{ "type": "Feature", "properties": { "fid": 66 }, "geometry": { "type": "Polygon", "coordinates": [ [ [ 116.132379338708532, 37.481008296026765 ], [ 116.043785588717455, 37.48376526557395 ], [ 115.998620147545495, 37.471358101522341 ], [ 115.976037426959536, 37.438262261229283 ], [ 115.972563162254033, 37.417569924900477 ], [ 115.998620147545495, 37.396871869800727 ], [ 116.050734118128474, 37.395491796154097 ], [ 116.097636691653179, 37.402391910266076 ], [ 116.116745147533649, 37.412051002663027 ], [ 116.160173456352794, 37.438262261229283 ], [ 116.165384853411098, 37.454812012025805 ], [ 116.132379338708532, 37.481008296026765 ] ] ] } },
{ "type": "Feature", "properties": { "fid": 67 }, "geometry": { "type": "Polygon", "coordinates": [ [ [ 115.897866471085081, 37.309877614769228 ], [ 115.772792941685879, 37.304350766768508 ], [ 115.74499882404163, 37.294677805290789 ], [ 115.731101765219478, 37.273945841993324 ], [ 115.753684485805437, 37.235230898149638 ], [ 115.78495286815523, 37.22693225051551 ], [ 115.833592574032721, 37.228315421882414 ], [ 115.894392206379536, 37.232464783757564 ], [ 115.911763529907219, 37.261503922696072 ], [ 115.916974926965523, 37.29053186956039 ], [ 115.897866471085081, 37.309877614769228 ] ] ] } },
{ "type": "Feature", "properties": { "fid": 68 }, "geometry": { "type": "Polygon", "coordinates": [ [ [ 115.539148640238793, 36.985180670877291 ], [ 115.480086140244751, 36.918546435593655 ], [ 115.382806728489811, 36.912990951649562 ], [ 115.309847169673617, 36.935210459215376 ], [ 115.219516287329782, 36.951870840044357 ], [ 115.150030993219119, 36.918546435593655 ], [ 115.122236875574842, 36.860193674793095 ], [ 115.13613393439698, 36.801796323743041 ], [ 115.202144963802098, 36.757273191291375 ], [ 115.268155993207216, 36.737786189242811 ], [ 115.351538346140018, 36.723863872468385 ], [ 115.45229202260046, 36.723863872468385 ], [ 115.528725846122185, 36.740570349655464 ], [ 115.573891287294117, 36.765623248581321 ], [ 115.615582463760518, 36.790667965398974 ], [ 115.632953787288173, 36.851853925467893 ], [ 115.65651, 36.919379 ], [ 115.632953787288173, 36.979630044669292 ], [ 115.608633934349456, 37.001830119661243 ], [ 115.539148640238793, 36.985180670877291 ] ] ] } },
{ "type": "Feature", "properties": { "fid": 69 }, "geometry": { "type": "Polygon", "coordinates": [ [ [ 115.55825709611922, 36.622154511097285 ], [ 115.467926213775343, 36.629125194011621 ], [ 115.386280993195342, 36.655608039088769 ], [ 115.330692757906832, 36.668149366510903 ], [ 115.299424375557038, 36.650033459935379 ], [ 115.275104522618292, 36.585896799051625 ], [ 115.278578787323823, 36.530082433853295 ], [ 115.26120746379614, 36.509141654256076 ], [ 115.228201949093616, 36.482608531987871 ], [ 115.209093493213146, 36.45466911005856 ], [ 115.205619228507643, 36.432310323150404 ], [ 115.231676213799147, 36.400158280929119 ], [ 115.328955625554059, 36.379182387955396 ], [ 115.372383934373232, 36.388971842299874 ], [ 115.434920699072819, 36.451874614055967 ], [ 115.467926213775343, 36.468640079756945 ], [ 115.495720331419633, 36.490988394785418 ], [ 115.547834302002613, 36.528686558204505 ], [ 115.570417022588586, 36.56636635752222 ], [ 115.580839816705193, 36.598449474125744 ], [ 115.55825709611922, 36.622154511097285 ] ] ] } },
{ "type": "Feature", "properties": { "fid": 70 }, "geometry": { "type": "Polygon", "coordinates": [ [ [ 115.716336140220974, 36.330216633289581 ], [ 115.511354522594544, 36.341411521178181 ], [ 115.455766287306005, 36.309221882512503 ], [ 115.426235037308999, 36.236396309394898 ], [ 115.460977684364295, 36.201359841739539 ], [ 115.634690919640946, 36.156490271414654 ], [ 115.726758934337582, 36.159295372362656 ], [ 115.794507096095472, 36.202761601704097 ], [ 115.836198272561859, 36.264414183767592 ], [ 115.797981360800975, 36.303622327262829 ], [ 115.716336140220974, 36.330216633289581 ] ] ] } },
{ "type": "Feature", "properties": { "fid": 71 }, "geometry": { "type": "Polygon", "coordinates": [ [ [ 115.031905993230964, 35.930350714202568 ], [ 114.934626581476053, 35.900806391688043 ], [ 114.839084302073914, 35.872658684819811 ], [ 114.793918860901982, 35.82619310010012 ], [ 114.821712978546259, 35.740230520823445 ], [ 114.866878419718176, 35.704973107400768 ], [ 114.990214816764592, 35.719077945114755 ], [ 115.05622584616971, 35.751509597374501 ], [ 115.129185404985904, 35.782518816040046 ], [ 115.153505257924635, 35.8656201949454 ], [ 115.115288346163737, 35.897992071246392 ], [ 115.073597169697393, 35.935976953066792 ], [ 115.031905993230964, 35.930350714202568 ] ] ] } },
{ "type": "Feature", "properties": { "fid": 72 }, "geometry": { "type": "Polygon", "coordinates": [ [ [ 115.671170699049043, 36.056844193060449 ], [ 115.532200110827731, 36.073694659236814 ], [ 115.45229202260046, 36.062461416129203 ], [ 115.386280993195342, 36.003460578812927 ], [ 115.358486875551051, 35.955665635563101 ], [ 115.358486875551051, 35.882511520275948 ], [ 115.355012610845549, 35.812107245268919 ], [ 115.320269963790224, 35.727539649501793 ], [ 115.282053052029369, 35.654175027902319 ], [ 115.212567757918706, 35.586393969781561 ], [ 115.143082463808057, 35.546828496241375 ], [ 115.007586140292275, 35.45631979902938 ], [ 114.927678052064991, 35.379873794583567 ], [ 114.924203787359474, 35.314695936842249 ], [ 114.847769963837749, 35.274996718087586 ], [ 114.743542022671747, 35.25797680720428 ], [ 114.712273640321953, 35.204056841855767 ], [ 114.774810405021555, 35.150101052058005 ], [ 114.809553052076893, 35.110321244684798 ], [ 114.819975846193472, 35.033548189989247 ], [ 114.854718493248825, 35.013632277929567 ], [ 114.89293540500968, 35.033548189989247 ], [ 114.899883934420757, 35.079052052177303 ], [ 114.906832463831805, 35.141578443596892 ], [ 114.934626581476053, 35.204056841855767 ], [ 114.979792022647985, 35.246628213841618 ], [ 115.021483199114414, 35.283505332703577 ], [ 115.101391287341627, 35.360042622636698 ], [ 115.153505257924635, 35.377041068347161 ], [ 115.17435084615785, 35.354375678609216 ], [ 115.153505257924635, 35.286341338911591 ], [ 115.104865552047187, 35.20973431512229 ], [ 115.077071434402924, 35.152941723209665 ], [ 115.059700110875255, 35.059147232684438 ], [ 115.070122904991834, 34.973785902072649 ], [ 115.101391287341627, 34.908281900411239 ], [ 115.153505257924635, 34.865533719558293 ], [ 115.198670699096567, 34.837022580013375 ], [ 115.24731040497403, 34.83131916667503 ], [ 115.320269963790224, 34.848428221348023 ], [ 115.368909669667659, 34.871234761834259 ], [ 115.410600846134088, 34.928223439477044 ], [ 115.427972169661743, 34.985172560311604 ], [ 115.434920699072777, 35.070522009670789 ], [ 115.431446434367274, 35.11884712494264 ], [ 115.403652316723026, 35.181342979600458 ], [ 115.386280993195342, 35.246628213841618 ], [ 115.396703787311949, 35.294848761495103 ], [ 115.39322952260639, 35.368542292962452 ], [ 115.389755257900845, 35.41102721862184 ], [ 115.396703787311949, 35.484614721963432 ], [ 115.448817757894957, 35.620291680079923 ], [ 115.54609716964984, 35.704973107400768 ], [ 115.632953787288173, 35.741640492791987 ], [ 115.692016287282243, 35.755738839031579 ], [ 115.758027316687361, 35.789564679580614 ], [ 115.820564081386948, 35.8402764554233 ], [ 115.886575110792094, 35.896584873501702 ], [ 115.876152316675487, 35.947228229489646 ], [ 115.844883934325679, 36.003460578812927 ], [ 115.782347169626092, 36.037180754799166 ], [ 115.671170699049043, 36.056844193060449 ] ] ] } },
{ "type": "Feature", "properties": { "fid": 73 }, "geometry": { "type": "Polygon", "coordinates": [ [ [ 112.613817758180105, 36.98656826415543 ], [ 112.603394964063483, 37.042051237131503 ], [ 112.579075111124766, 37.097493691272682 ], [ 112.506115552308586, 37.125199716809512 ], [ 112.412310405259177, 37.083636877599751 ], [ 112.342825111148542, 37.017088912158997 ], [ 112.325453787620845, 36.933821929706241 ], [ 112.342825111148542, 36.839342595389233 ], [ 112.339350846442997, 36.789276806932449 ], [ 112.283762611154472, 36.755881426694899 ], [ 112.183008934694016, 36.783711920474168 ], [ 112.162163346460801, 36.864363208208495 ], [ 112.16563761116636, 36.919935243348284 ], [ 112.169111875871906, 36.958811590114415 ], [ 112.123946434699974, 36.972691192471018 ], [ 112.089203787644635, 36.944929457438747 ], [ 112.068358199411435, 36.836562021808938 ], [ 112.037089817061641, 36.769797936310006 ], [ 112.002347170006317, 36.700190140990614 ], [ 111.950233199423323, 36.605422300187563 ], [ 111.964130258245433, 36.532874109576952 ], [ 112.030141287650565, 36.474227762766503 ], [ 112.116997905288898, 36.460257800009884 ], [ 112.228174375865933, 36.45466911005856 ], [ 112.290711140565534, 36.451874614055967 ], [ 112.318505258209811, 36.429515021787701 ], [ 112.328928052326404, 36.362397599146149 ], [ 112.321979522915342, 36.326018135559572 ], [ 112.193431728810609, 36.312021509351155 ], [ 112.130894964111022, 36.300822398857946 ], [ 112.10657511117229, 36.244802726518522 ], [ 112.113523640583367, 36.171917084639702 ], [ 112.08572952293909, 36.135448815674884 ], [ 112.009295699417379, 36.163502835610402 ], [ 111.898119228840343, 36.174721633573967 ], [ 111.85990231707946, 36.141060422421845 ], [ 111.835582464140742, 36.087733957178983 ], [ 111.877273640607115, 36.048417606634942 ], [ 111.960655993539916, 36.025942299414453 ], [ 112.00582143471182, 36.000649912878131 ], [ 112.023192758239503, 35.958477904000226 ], [ 111.984975846478633, 35.930350714202568 ], [ 111.905067758251391, 35.890955832373237 ], [ 111.804314081790935, 35.902213514384194 ], [ 111.741777317091348, 35.893770402966602 ], [ 111.727880258269209, 35.837459984338864 ], [ 111.779994228852189, 35.775472327939099 ], [ 111.852953787668412, 35.744460361817119 ], [ 111.950233199423323, 35.76419664801994 ], [ 112.016244228828455, 35.772653557833308 ], [ 112.096152317055697, 35.772653557833308 ], [ 112.224700111160402, 35.772653557833308 ], [ 112.301133934682142, 35.755738839031579 ], [ 112.381042022909384, 35.710615342026877 ], [ 112.443578787608999, 35.665466284519006 ], [ 112.516538346425165, 35.608994038859407 ], [ 112.624240552296712, 35.600519760808666 ], [ 112.731942758168231, 35.611818598761985 ], [ 112.797953787573334, 35.648528800904117 ], [ 112.843119228745266, 35.685222141450588 ], [ 112.825747905217625, 35.724719181233937 ], [ 112.784056728751196, 35.747280130956945 ], [ 112.731942758168231, 35.761377478261096 ], [ 112.700674375818423, 35.803654532775994 ], [ 112.707622905229471, 35.854357310831226 ], [ 112.752788346401417, 35.871251036860301 ], [ 112.825747905217625, 35.88532639102467 ], [ 112.919553052266991, 35.938789922340526 ], [ 112.933450111089144, 35.947228229489646 ], [ 112.961244228733378, 35.980972446462637 ], [ 112.961244228733378, 36.0147022406844 ], [ 112.91607878756146, 36.048417606634942 ], [ 112.867439081684012, 36.042799381173374 ], [ 112.843119228745266, 36.048417606634942 ], [ 112.832696434628673, 36.087733957178983 ], [ 112.846593493450783, 36.171917084639702 ], [ 112.857016287567419, 36.20836839053969 ], [ 112.860490552272921, 36.239198548885071 ], [ 112.891758934622715, 36.267215418638976 ], [ 112.912604522855915, 36.298022369937151 ], [ 112.912604522855915, 36.3456091893351 ], [ 112.89523319932826, 36.407148987510475 ], [ 112.850067758156328, 36.449080017372779 ], [ 112.804902316984396, 36.488195207905008 ], [ 112.745839816990355, 36.532874109576952 ], [ 112.718045699346078, 36.627731107862395 ], [ 112.721519964051623, 36.683474880489271 ], [ 112.704148640523968, 36.733609759278551 ], [ 112.669405993468629, 36.772580935190497 ], [ 112.638137611118836, 36.842123067879328 ], [ 112.624240552296712, 36.906046027663564 ], [ 112.613817758180105, 36.98656826415543 ] ] ] } },
{ "type": "Feature", "properties": { "fid": 74 }, "geometry": { "type": "Polygon", "coordinates": [ [ [ 112.424470331728557, 35.566613675068027 ], [ 112.389727684673218, 35.631587725469615 ], [ 112.311556728798749, 35.685222141450602 ], [ 112.236860037629768, 35.699330473418151 ], [ 112.167374743519133, 35.709204820811472 ], [ 112.050986875883765, 35.720488291591451 ], [ 111.981501581773117, 35.714846755902855 ], [ 111.948496067070565, 35.678167039666398 ], [ 111.974553052362069, 35.632999618925822 ], [ 112.030141287650565, 35.608994038859414 ], [ 112.078780993528042, 35.583568512464915 ], [ 112.097889449408456, 35.515727635816603 ], [ 112.082255258233587, 35.467638962920255 ], [ 112.035352684708883, 35.447829380888336 ], [ 111.981501581773117, 35.469053746408875 ], [ 111.917227684720757, 35.497344188758603 ], [ 111.839056728846273, 35.504415243335806 ], [ 111.806051214143707, 35.470468505007688 ], [ 111.78694275826328, 35.415274480198129 ], [ 111.783468493557734, 35.352958880463333 ], [ 111.778257096499416, 35.284923348224602 ], [ 111.783468493557734, 35.240953321411716 ], [ 111.816474008260315, 35.209734315122297 ], [ 111.866850846490522, 35.20831498402098 ], [ 111.93981040530673, 35.22676435296043 ], [ 111.984975846478633, 35.246628213841646 ], [ 112.09267805235018, 35.245209527966487 ], [ 112.155214817049767, 35.23527803185322 ], [ 112.170849008224636, 35.201217956365646 ], [ 112.189957464105106, 35.152941723209679 ], [ 112.20906591998552, 35.10605797001778 ], [ 112.235122905277009, 35.063412959798057 ], [ 112.283762611154472, 35.044926532700167 ], [ 112.354985037617908, 35.032125785742871 ], [ 112.454001581725564, 34.999403656394101 ], [ 112.553018125833262, 34.993711514881667 ], [ 112.61729202288565, 35.002249578679262 ], [ 112.70241150817121, 35.022168262882317 ], [ 112.744102684637582, 35.069100249229983 ], [ 112.76321114051801, 35.104636828903843 ], [ 112.773633934634603, 35.162883291225654 ], [ 112.77189680228183, 35.201217956365646 ], [ 112.728468493462671, 35.269323811718337 ], [ 112.671143125821416, 35.309025812124638 ], [ 112.624240552296712, 35.33737246054018 ], [ 112.599920699357966, 35.37279179252824 ], [ 112.587760772888601, 35.406779733194611 ], [ 112.537383934658394, 35.435092074074461 ], [ 112.485269964075385, 35.461979580076232 ], [ 112.443578787608999, 35.47754192463993 ], [ 112.42273319937577, 35.512899687110639 ], [ 112.424470331728557, 35.566613675068027 ] ] ] } },
{ "type": "Feature", "properties": { "fid": 75 }, "geometry": { "type": "Polygon", "coordinates": [ [ [ 111.892907831781983, 39.48313070838568 ], [ 112.045775478825433, 39.445579876968743 ], [ 112.059672537647586, 39.348927583497115 ], [ 112.024929890592233, 39.246760491042828 ], [ 111.927650478837322, 39.203698171468574 ], [ 111.816474008260258, 39.101319308285667 ], [ 111.746988714149595, 39.014990041024099 ], [ 111.802576949438148, 38.906930080590975 ], [ 111.84426812590452, 38.80953526107168 ], [ 111.802576949438148, 38.625203547355987 ], [ 111.746988714149595, 38.549164134577218 ], [ 111.531584302406586, 38.358713532491713 ], [ 111.462099008295922, 38.227828458116115 ], [ 111.350922537718859, 38.031058536900098 ], [ 111.205003420086456, 37.905066902001252 ], [ 111.170260773031131, 37.745899917057322 ], [ 111.156363714209022, 37.613916067522005 ], [ 111.086878420098358, 37.432055160868188 ], [ 110.934010773054908, 37.310568442205238 ], [ 110.815885773066796, 37.266342691152303 ], [ 110.829782831888934, 37.194420420638487 ], [ 110.781143126011457, 36.978242324845191 ], [ 110.788091655422548, 36.733609759278551 ], [ 110.836731361299996, 36.510537882542216 ], [ 110.822834302477887, 36.365195315423982 ], [ 110.788091655422548, 36.236396309394898 ], [ 110.635224008379097, 36.258811412600501 ], [ 110.551841655446282, 36.331616082259352 ], [ 110.44066518486926, 36.432310323150404 ], [ 110.26695194959261, 36.432310323150404 ], [ 110.086290184904897, 36.320419786685463 ], [ 109.884782831983969, 36.146671627813994 ], [ 109.585996067308159, 36.045608544019835 ], [ 109.363643126154045, 35.921910605162665 ], [ 109.15518724382207, 35.803654532775994 ], [ 109.148238714411008, 35.544001643487427 ], [ 109.134341655588869, 35.374208242662554 ], [ 109.078753420300359, 35.135896208819595 ], [ 108.911988714434784, 35.044926532700167 ], [ 108.634047537992146, 34.913979977389559 ], [ 108.40474606742697, 34.913979977389559 ], [ 108.314415185083092, 34.988018977470375 ], [ 108.342209302727383, 35.141578443596892 ], [ 108.425591655660156, 35.2778330222881 ], [ 108.453385773304404, 35.402532023927918 ], [ 108.52981959682613, 35.55530845657637 ], [ 108.522871067415082, 35.696509006676408 ], [ 108.418643126249108, 35.781109568383044 ], [ 108.237981361561381, 35.775472327939099 ], [ 108.050371067462592, 35.696509006676408 ], [ 107.904451949830232, 35.617467419375593 ], [ 107.675150479265042, 35.623115841044843 ], [ 107.418054891055604, 35.6626436200456 ], [ 107.279084302834306, 35.775472327939099 ], [ 107.195701949901533, 35.831826742193186 ], [ 106.966400479336357, 36.039990118098778 ], [ 106.910812244047833, 36.242000687927323 ], [ 106.862172538170398, 36.482608531987879 ], [ 106.799635773470769, 36.767014836411455 ], [ 106.750996067593334, 37.277401565832669 ], [ 106.771841655826535, 37.48169754795066 ], [ 106.785738714648673, 37.899584101282628 ], [ 106.862172538170398, 38.052948049746114 ], [ 107.028937244035944, 38.09670744160217 ], [ 107.119268126379808, 38.091238949501452 ], [ 107.272135773423258, 38.052948049746114 ], [ 107.404157832233508, 37.992736146165811 ], [ 107.50143724398842, 37.93247477792702 ], [ 107.619562243976546, 37.839246339046383 ], [ 107.716841655731471, 37.745899917057322 ], [ 107.828018126308521, 37.624923688675636 ], [ 107.987834302763048, 37.591895936411468 ], [ 108.244929890972486, 37.619420081816173 ], [ 108.27967253802781, 37.784350961362911 ], [ 108.307466655672059, 37.926994019829955 ], [ 108.488128420359786, 38.058419405474595 ], [ 108.703532832102823, 38.162297426339613 ], [ 108.87724606737946, 38.162297426339613 ], [ 109.037062243833944, 38.113110462827919 ], [ 109.099599008533545, 38.003687444948405 ], [ 109.092650479122483, 37.855706992456206 ], [ 109.085701949711435, 37.72391891739273 ], [ 109.169084302644208, 37.624923688675636 ], [ 109.273312243810196, 37.591895936411468 ], [ 109.502613714375343, 37.580883426785327 ], [ 109.606841655541373, 37.586389885253716 ], [ 109.662429890829884, 37.6634375267911 ], [ 109.585996067308159, 37.718422647866909 ], [ 109.530407832019634, 37.789842335669618 ], [ 109.523459302608572, 37.894100892098955 ], [ 109.606841655541373, 37.905066902001266 ], [ 109.808349008462244, 37.899584101282628 ], [ 109.968165184916785, 37.806314010112736 ], [ 110.051547537849558, 37.806314010112736 ], [ 110.009856361383171, 37.888617274470008 ], [ 109.926474008450398, 37.943435068351086 ], [ 109.850040184928673, 37.987259883566274 ], [ 109.794451949640134, 38.069360889816679 ], [ 109.850040184928673, 38.085770048253316 ], [ 109.933422537861446, 38.069360889816679 ], [ 110.002907831972124, 38.036531528562726 ], [ 110.121032831960235, 37.987259883566274 ], [ 110.204415184892994, 37.9708286431689 ], [ 110.218312243715147, 37.998211999966344 ], [ 110.204415184892994, 38.052948049746114 ], [ 110.107135773138083, 38.102175524536271 ], [ 110.072393126082758, 38.140440646800307 ], [ 110.17662106724876, 38.216910714832451 ], [ 110.30864312605901, 38.227828458116115 ], [ 110.405922537813936, 38.184147655547136 ], [ 110.482356361335633, 38.24420200082556 ], [ 110.489304890746709, 38.369609963755494 ], [ 110.537944596624172, 38.511114238427837 ], [ 110.642172537790159, 38.570897897291523 ], [ 110.934010773054908, 38.684892296827108 ], [ 111.010444596576633, 38.793289824912442 ], [ 111.079929890687296, 38.885298315601304 ], [ 111.170260773031174, 38.993391234426838 ], [ 111.246694596552899, 39.106711382437837 ], [ 111.253643125963947, 39.225232633728766 ], [ 111.274488714197133, 39.295174015427669 ], [ 111.330076949485672, 39.386530498485364 ], [ 111.427356361240584, 39.413377325458718 ], [ 111.892907831781983, 39.48313070838568 ] ] ] } }
]
}
