{
"type": "FeatureCollection",
"name": "french-india",
"crs": { "type": "name", "properties": { "name": "urn:ogc:def:crs:OGC:1.3:CRS84" } },
"features": [
{ "type": "Feature", "properties": { "fid": 3, "name": "Pondichéry", "alt_name": "Pudocherry" }, "geometry": { "type": "MultiPolygon", "coordinates": [ [ [ [ 79.874230678821874, 12.041924638316988 ], [ 79.858659414555575, 12.009019325150513 ], [ 79.853885206172052, 12.0082113821933 ], [ 79.848743750989783, 12.011296255302657 ], [ 79.845291631081693, 12.011222805942911 ], [ 79.84250055541132, 12.012691793137844 ], [ 79.844557137484244, 12.024590589416793 ], [ 79.844116441325767, 12.031568278592719 ], [ 79.845291631081707, 12.037370778012699 ], [ 79.849845491386006, 12.050885460206073 ], [ 79.868942324920113, 12.044936062066599 ], [ 79.874230678821874, 12.041924638316988 ] ] ], [ [ [ 79.838114524216138, 11.947874789121752 ], [ 79.836500132901946, 11.931730875979818 ], [ 79.820323113000029, 11.878648179000038 ], [ 79.81069372774904, 11.845322702318995 ], [ 79.807978744089709, 11.836671582329318 ], [ 79.806349499324611, 11.836888814964665 ], [ 79.8060236503716, 11.841885165577633 ], [ 79.808195552442555, 11.845757167589687 ], [ 79.806457691359782, 11.84684333076642 ], [ 79.800526646419328, 11.855530939050317 ], [ 79.78130155819116, 11.855748171685663 ], [ 79.780541243967448, 11.84857949471923 ], [ 79.776848289166566, 11.846515784683438 ], [ 79.777717219707952, 11.839347107717005 ], [ 79.772938101730333, 11.837066165045867 ], [ 79.766964204258301, 11.839998805623045 ], [ 79.762510935233692, 11.84792779681319 ], [ 79.762728167869042, 11.851403518978733 ], [ 79.765117726857852, 11.851729367931753 ], [ 79.76674697162295, 11.857268800133088 ], [ 79.770114077470808, 11.859441126486551 ], [ 79.769245146929421, 11.874864643596149 ], [ 79.757623200938383, 11.876276655725901 ], [ 79.759143829385806, 11.867804582947389 ], [ 79.755233641949573, 11.867370117676696 ], [ 79.753821629819839, 11.84933980894294 ], [ 79.750128675018942, 11.847819180495515 ], [ 79.748716662889194, 11.849122576307593 ], [ 79.742308300146476, 11.848253645766208 ], [ 79.744263393864586, 11.854227543238235 ], [ 79.741547985922764, 11.864328860781844 ], [ 79.732532831555886, 11.865415023958578 ], [ 79.732424215238211, 11.862373767063728 ], [ 79.721128118200198, 11.862482383381401 ], [ 79.71928164079975, 11.852924147426156 ], [ 79.713307743327718, 11.860310057027936 ], [ 79.712656045421681, 11.866283954499963 ], [ 79.708094160079412, 11.869325211394814 ], [ 79.708745857985448, 11.881707471609563 ], [ 79.711026800656583, 11.887572752763916 ], [ 79.709832021162171, 11.889093381211341 ], [ 79.696472214088374, 11.888658915940649 ], [ 79.695929132499998, 11.886703822222531 ], [ 79.684958884415011, 11.885834891681144 ], [ 79.684415802826649, 11.880729924750502 ], [ 79.673988636330009, 11.880729924750502 ], [ 79.673662787376998, 11.891265707564806 ], [ 79.682026243837839, 11.891917405470846 ], [ 79.682026243837839, 11.889201997529014 ], [ 79.68713121076847, 11.889093381211341 ], [ 79.686913978133134, 11.894850046048022 ], [ 79.695386050911637, 11.894958662365696 ], [ 79.695711899864648, 11.918745635936133 ], [ 79.718629942893699, 11.91863701961846 ], [ 79.718738559211374, 11.91396651795851 ], [ 79.707007996902675, 11.913314820052472 ], [ 79.706464915314299, 11.905059979909305 ], [ 79.709180323256135, 11.903430735144207 ], [ 79.706247682678949, 11.899303315072626 ], [ 79.705270135819902, 11.893872499188964 ], [ 79.711787114880295, 11.890288160705747 ], [ 79.717000698128601, 11.892894952329904 ], [ 79.718847175529049, 11.890288160705747 ], [ 79.721236734517859, 11.890396777023421 ], [ 79.723734909824344, 11.887898601716936 ], [ 79.725255538271767, 11.888550299622976 ], [ 79.723191828235983, 11.891700172835499 ], [ 79.730360505202412, 11.890722625976439 ], [ 79.730360505202412, 11.903430735144207 ], [ 79.737420565851167, 11.9038652004149 ], [ 79.740461822746028, 11.905603061497672 ], [ 79.717326547081655, 11.929607267703455 ], [ 79.721236734517888, 11.945030784813053 ], [ 79.709397555891499, 11.949592670155329 ], [ 79.708094160079426, 11.946768645895824 ], [ 79.708094160079426, 11.941011981059143 ], [ 79.710809568021261, 11.932757140915978 ], [ 79.707225229538039, 11.934386385681076 ], [ 79.704183972643193, 11.939708585247065 ], [ 79.697884226218136, 11.94155506264751 ], [ 79.691584479793093, 11.951221914920428 ], [ 79.695603283547001, 11.963712791452849 ], [ 79.697884226218136, 11.960780150875671 ], [ 79.704401205278529, 11.966971280983046 ], [ 79.7098320211622, 11.965559268853294 ], [ 79.711461265927298, 11.967731595206757 ], [ 79.714719755457494, 11.967188513618392 ], [ 79.715914534951892, 11.971424550007645 ], [ 79.709506172209174, 11.975769202714574 ], [ 79.712547429104021, 11.986196369211203 ], [ 79.715914534951892, 11.984892973399125 ], [ 79.720476420294162, 11.992821964589272 ], [ 79.733293145779612, 11.993690895130657 ], [ 79.734596541591685, 11.997709698884567 ], [ 79.744589242817625, 12.003031898450555 ], [ 79.74708741812411, 12.00791963274585 ], [ 79.763054016822068, 12.002923282132882 ], [ 79.760773074150933, 11.989672091376747 ], [ 79.756319805126338, 11.989129009788382 ], [ 79.75186653610173, 11.984567124446105 ], [ 79.748282197618508, 11.984675740763779 ], [ 79.743394463323213, 11.978158761703385 ], [ 79.736117170039108, 11.979244924880117 ], [ 79.73188113364985, 11.981308634915909 ], [ 79.730143272567091, 11.985979136575859 ], [ 79.725907236177832, 11.985653287622839 ], [ 79.725146921954106, 11.971315933689974 ], [ 79.745023708088311, 11.964473105676561 ], [ 79.750237291336646, 11.920483497018902 ], [ 79.756428421444014, 11.920917962289595 ], [ 79.757188735667725, 11.928086639256028 ], [ 79.761750621010009, 11.928955569797415 ], [ 79.760338608880261, 11.944053237953993 ], [ 79.771168843743254, 11.943593315733846 ], [ 79.773449786414389, 11.950001678476568 ], [ 79.782899406051953, 11.956735890172308 ], [ 79.787461291394237, 11.960537461290871 ], [ 79.802233110597797, 11.953368784324438 ], [ 79.804948518539618, 11.953694633277456 ], [ 79.805274367492643, 11.958473751255079 ], [ 79.805708832763329, 11.964990730315472 ], [ 79.806903612257742, 11.969661231975421 ], [ 79.810487950740935, 11.976829908941854 ], [ 79.815267068718569, 11.979762549519032 ], [ 79.817222162436678, 11.978567770024625 ], [ 79.822109896731973, 11.965642428221512 ], [ 79.823521908861721, 11.964339032409432 ], [ 79.823739141497072, 11.961949473420622 ], [ 79.82797517788633, 11.958256518619732 ], [ 79.832319830593264, 11.956735890172308 ], [ 79.83753341384157, 11.956735890172308 ], [ 79.838402344382956, 11.958473751255079 ], [ 79.841117752324791, 11.957930669666712 ], [ 79.838114524216138, 11.947874789121752 ] ] ], [ [ [ 79.805873454369802, 11.829032800362958 ], [ 79.795989369461552, 11.785260424340645 ], [ 79.789037925130472, 11.785369040658319 ], [ 79.786105284553301, 11.787758599647129 ], [ 79.781543399211017, 11.781241620586735 ], [ 79.771224849032066, 11.781676085857429 ], [ 79.770790383761366, 11.788410297553169 ], [ 79.768183592137206, 11.790582623906634 ], [ 79.762535543618185, 11.789061995459207 ], [ 79.75808227459359, 11.780698538998369 ], [ 79.757756425640565, 11.776028037338421 ], [ 79.753411772933632, 11.775593572067727 ], [ 79.739291651636123, 11.780698538998369 ], [ 79.735924545788251, 11.778308980009557 ], [ 79.730819578857606, 11.781567469539754 ], [ 79.720935493949341, 11.784825959069952 ], [ 79.716264992289396, 11.788953379141534 ], [ 79.717351155466119, 11.794492811342868 ], [ 79.72549737929161, 11.795687590837273 ], [ 79.727126624056709, 11.804051047298113 ], [ 79.727126624056709, 11.808830165275735 ], [ 79.730602346222256, 11.808830165275735 ], [ 79.733426370481766, 11.80698368787529 ], [ 79.73809687214171, 11.80730953682831 ], [ 79.73842272109475, 11.812631736394296 ], [ 79.733100521528755, 11.834354999928943 ], [ 79.740377814812859, 11.836201477329388 ], [ 79.739224615002556, 11.841342083989268 ], [ 79.756060144241914, 11.837974978141396 ], [ 79.765618380197154, 11.832109696987043 ], [ 79.765726996514829, 11.824832403702937 ], [ 79.768768253409675, 11.822551461031798 ], [ 79.773004289798934, 11.822334228396452 ], [ 79.778760954635615, 11.832218313304717 ], [ 79.784191770519286, 11.832544162257735 ], [ 79.792772459615463, 11.826244415832688 ], [ 79.795270634921948, 11.827221962691748 ], [ 79.797008496004722, 11.826244415832688 ], [ 79.796574030734021, 11.824397938432243 ], [ 79.798094659181459, 11.823854856843877 ], [ 79.801135916076305, 11.82830812586848 ], [ 79.801135916076305, 11.830914917492636 ], [ 79.799289438675856, 11.831892464351697 ], [ 79.794618937015912, 11.830914917492636 ], [ 79.799506671311207, 11.83504233756422 ], [ 79.799615287628882, 11.837866361823723 ], [ 79.801353148711655, 11.837649129188378 ], [ 79.802004846617692, 11.834064790705161 ], [ 79.806892580912987, 11.831892464351697 ], [ 79.805873454369802, 11.829032800362958 ] ] ], [ [ [ 79.699496499683661, 11.873767449074656 ], [ 79.699496499683661, 11.861819654130601 ], [ 79.696672475424151, 11.861385188859908 ], [ 79.696455242788801, 11.873767449074656 ], [ 79.699496499683661, 11.873767449074656 ] ] ], [ [ [ 79.700365430225034, 11.824238408215663 ], [ 79.703841152390581, 11.813594009083687 ], [ 79.692327822717218, 11.812725078542302 ], [ 79.693631218529305, 11.824238408215663 ], [ 79.700365430225034, 11.824238408215663 ] ] ], [ [ [ 79.685810843656839, 11.81337677644834 ], [ 79.690589961634458, 11.809249356376759 ], [ 79.690155496363758, 11.802515144681017 ], [ 79.683855749938715, 11.800560050962899 ], [ 79.680162795137832, 11.796432630891317 ], [ 79.674731979254162, 11.804904703669829 ], [ 79.676252607701585, 11.81337677644834 ], [ 79.685810843656839, 11.81337677644834 ] ] ], [ [ [ 79.670604559182578, 11.822500547132892 ], [ 79.672125187630002, 11.813594009083687 ], [ 79.658439531603179, 11.811204450094875 ], [ 79.649315760918626, 11.812942311177647 ], [ 79.64171261868151, 11.822283314497545 ], [ 79.647795132471202, 11.843572112761498 ], [ 79.663435882216149, 11.837706831607143 ], [ 79.660611857956638, 11.82445564085101 ], [ 79.670604559182578, 11.822500547132892 ] ] ], [ [ [ 79.636281802797853, 11.88701863983079 ], [ 79.64192985131686, 11.885715244018712 ], [ 79.641278153410823, 11.882022289217822 ], [ 79.648229597741903, 11.880067195499704 ], [ 79.648012365106567, 11.871812355356539 ], [ 79.655398274708347, 11.870291726909112 ], [ 79.663218649580813, 11.861385188859908 ], [ 79.6519225525428, 11.851392487633971 ], [ 79.641278153410823, 11.850523557092586 ], [ 79.625202938395191, 11.858343931965058 ], [ 79.626506334207264, 11.870291726909112 ], [ 79.619554889876184, 11.870726192179806 ], [ 79.618468726699447, 11.863774747848719 ], [ 79.599352254788954, 11.861385188859908 ], [ 79.601959046413114, 11.871377890085846 ], [ 79.599569487424304, 11.883760150300594 ], [ 79.604131372766574, 11.883977382935941 ], [ 79.607824327567471, 11.878546567052279 ], [ 79.621509983594294, 11.890928827267027 ], [ 79.629330358466774, 11.888322035642869 ], [ 79.631719917455584, 11.880936126041089 ], [ 79.635847337527167, 11.881153358676436 ], [ 79.636281802797853, 11.88701863983079 ] ] ], [ [ [ 79.6918059552534, 11.968252614105602 ], [ 79.687461302546481, 11.952177399089964 ], [ 79.680509858215387, 11.946963815841649 ], [ 79.676165205508454, 11.946529350570955 ], [ 79.663131247387668, 11.949787840101152 ], [ 79.657048733597975, 11.9560875865262 ], [ 79.657265966233325, 11.958259912879665 ], [ 79.664869108470441, 11.956739284432238 ], [ 79.667041434823915, 11.968035381470255 ], [ 79.681378788756774, 11.965428589846098 ], [ 79.687244069911131, 11.971945568906492 ], [ 79.6918059552534, 11.968252614105602 ] ] ], [ [ [ 79.668562063271338, 11.918723573246609 ], [ 79.661827851575609, 11.918506340611261 ], [ 79.662262316846309, 11.913292757362946 ], [ 79.656831500962639, 11.913075524727599 ], [ 79.655745337785916, 11.908296406749978 ], [ 79.640756285947006, 11.908296406749978 ], [ 79.639670122770269, 11.901344962418891 ], [ 79.628591258367607, 11.901344962418891 ], [ 79.625767234108096, 11.903300056137009 ], [ 79.628374025732256, 11.920461434329379 ], [ 79.61772962660028, 11.925240552307002 ], [ 79.618381324506316, 11.942836395770065 ], [ 79.629025723638293, 11.946094885300262 ], [ 79.627070629920183, 11.96455965930471 ], [ 79.627287862555519, 11.968687079376293 ], [ 79.618381324506316, 11.970207707823718 ], [ 79.624246605660673, 11.976507454248766 ], [ 79.624246605660673, 11.98193827013243 ], [ 79.618598557141667, 11.982372735403123 ], [ 79.616643463423557, 11.989541412369556 ], [ 79.62316044248395, 11.989975877640248 ], [ 79.627070629920183, 12.000403044136878 ], [ 79.619684720318403, 12.000185811501531 ], [ 79.62011918558909, 12.014957630705091 ], [ 79.625767234108096, 12.014957630705091 ], [ 79.628591258367607, 12.019302283412021 ], [ 79.62489830356671, 12.0327707068035 ], [ 79.63749779641681, 12.026688193013801 ], [ 79.642276914394429, 12.028426054096572 ], [ 79.651617917714333, 12.022343540306871 ], [ 79.648142195548786, 12.018433352870634 ], [ 79.641842449123715, 11.998882415689453 ], [ 79.637063331146095, 11.998230717783413 ], [ 79.636846098510745, 11.996058391429948 ], [ 79.639887355405605, 11.991930971358366 ], [ 79.637280563781445, 11.978679780602231 ], [ 79.640104588040941, 11.976507454248766 ], [ 79.640539053311642, 11.970642173094413 ], [ 79.648142195548772, 11.96716645092887 ], [ 79.647273265007385, 11.953480794902042 ], [ 79.641842449123715, 11.953915260172735 ], [ 79.642494147029765, 11.942619163134719 ], [ 79.652052382985005, 11.943488093676105 ], [ 79.652052382985005, 11.947832746383034 ], [ 79.657048733597975, 11.948484444289074 ], [ 79.660741688398858, 11.937405579886404 ], [ 79.670082691718761, 11.936319416709672 ], [ 79.668562063271338, 11.918723573246609 ] ] ] ] } },
{ "type": "Feature", "properties": { "fid": 4, "name": "Karikal", "alt_name": "Karaikal" }, "geometry": { "type": "MultiPolygon", "coordinates": [ [ [ [ 79.854492833568386, 10.983389427773282 ], [ 79.851886041944226, 10.984258358314667 ], [ 79.850148180861453, 10.988603011021597 ], [ 79.851668809308876, 10.99446829217595 ], [ 79.840589944906213, 10.995988920623375 ], [ 79.840155479635513, 11.00250589968377 ], [ 79.83146617422166, 11.003374830225155 ], [ 79.828207684691463, 10.999464642788919 ], [ 79.825166427796617, 10.997292316435455 ], [ 79.822994101443143, 11.000985271236345 ], [ 79.82125624036037, 11.000333573330305 ], [ 79.821039007725034, 10.997509549070802 ], [ 79.814956493935327, 11.003157597589809 ], [ 79.814522028664641, 10.999247410153574 ], [ 79.80648442115681, 10.999030177518227 ], [ 79.804094862168, 10.996423385894069 ], [ 79.805615490615423, 10.994251059540604 ], [ 79.803660396897314, 10.986647917303479 ], [ 79.79931574419038, 10.985344521491399 ], [ 79.799967442096417, 10.982737729867242 ], [ 79.793884928306724, 10.982303264596549 ], [ 79.785412855528207, 10.990992570010407 ], [ 79.788888577693754, 10.991861500551794 ], [ 79.786499018704944, 10.997075083800109 ], [ 79.78432669235147, 10.995554455352684 ], [ 79.773030595313458, 10.997726781706147 ], [ 79.764124057264254, 10.998595712247534 ], [ 79.763255126722868, 11.001636969142384 ], [ 79.761517265640094, 11.001419736507037 ], [ 79.761300033004758, 10.999247410153574 ], [ 79.757389845568511, 11.001636969142384 ], [ 79.756738147662475, 11.003592062860502 ], [ 79.755000286579701, 11.003592062860502 ], [ 79.754131356038314, 11.00185420177773 ], [ 79.747179911707235, 11.002940364954462 ], [ 79.747397144342585, 10.988603011021597 ], [ 79.751741797049505, 10.988168545750904 ], [ 79.752176262320205, 10.983389427773282 ], [ 79.756955380297825, 10.983823893043974 ], [ 79.757172612933175, 10.980782636149124 ], [ 79.750872866508118, 10.979044775066352 ], [ 79.753914123402978, 10.972962261276651 ], [ 79.757607078203861, 10.971658865464573 ], [ 79.760431102463372, 10.968183143299029 ], [ 79.761517265640094, 10.961231698967943 ], [ 79.745442050624462, 10.956018115719628 ], [ 79.745007585353761, 10.964924653768833 ], [ 79.740445700011492, 10.966662514851604 ], [ 79.738707838928718, 10.965359119039526 ], [ 79.733059790409712, 10.969269306475763 ], [ 79.720460297559612, 10.967748678028336 ], [ 79.719808599653575, 10.951456230377353 ], [ 79.732190859868325, 10.951456230377353 ], [ 79.731756394597639, 10.95710427889636 ], [ 79.735666582033872, 10.95710427889636 ], [ 79.736535512575259, 10.949501136659235 ], [ 79.730235766150216, 10.947546042941116 ], [ 79.729366835608829, 10.94428755341092 ], [ 79.722632623913086, 10.944070320775573 ], [ 79.723718787089808, 10.938639504891912 ], [ 79.728063439796742, 10.936032713267753 ], [ 79.724370484995859, 10.933643154278943 ], [ 79.723284321819122, 10.9301674321134 ], [ 79.742835259000302, 10.924953848865082 ], [ 79.743269724271002, 10.919957498252113 ], [ 79.740880165282192, 10.918002404533995 ], [ 79.741749095823565, 10.91713347399261 ], [ 79.744138654812389, 10.918871335075382 ], [ 79.744790352718425, 10.916916241357264 ], [ 79.743052491635652, 10.91648177608657 ], [ 79.743486956906338, 10.91409221709776 ], [ 79.753262425496928, 10.914526682368452 ], [ 79.753914123402978, 10.91648177608657 ], [ 79.758693241380598, 10.91648177608657 ], [ 79.762603428816831, 10.91409221709776 ], [ 79.760865567734058, 10.913006053921027 ], [ 79.757172612933175, 10.907575238037365 ], [ 79.759779404557321, 10.901927189518357 ], [ 79.759289994704062, 10.901105778615955 ], [ 79.757660749938964, 10.901866092839668 ], [ 79.757063360191765, 10.896489585114843 ], [ 79.757769366256639, 10.896706817750189 ], [ 79.757932290733152, 10.898444678832961 ], [ 79.7597787681336, 10.898498986991799 ], [ 79.760213233404286, 10.90056269702759 ], [ 79.761136472104511, 10.899096376739001 ], [ 79.762385559757746, 10.900399772551079 ], [ 79.760539082357312, 10.900779929662937 ], [ 79.761136472104511, 10.901703168363159 ], [ 79.761842478169385, 10.901648860204322 ], [ 79.762331251598908, 10.900834237821773 ], [ 79.763471722934483, 10.900073923598059 ], [ 79.762222635281248, 10.898227446197614 ], [ 79.759507227339412, 10.896815434067863 ], [ 79.758638296798026, 10.897032666703209 ], [ 79.758638296798026, 10.895946503526478 ], [ 79.757497825462451, 10.895403421938111 ], [ 79.757606441780126, 10.894914648508582 ], [ 79.756085813332703, 10.894751724032071 ], [ 79.755868580697353, 10.893448328219993 ], [ 79.756574586762227, 10.893013862949299 ], [ 79.756194429650378, 10.891764775296059 ], [ 79.757443517303614, 10.891601850819548 ], [ 79.758203831527325, 10.892796630313955 ], [ 79.761842478169385, 10.892742322155117 ], [ 79.763688955569833, 10.891819083454894 ], [ 79.764612194270057, 10.892633705837444 ], [ 79.767924991959092, 10.892688013996281 ], [ 79.767762067482579, 10.893611252696504 ], [ 79.765263892176094, 10.894534491396726 ], [ 79.765155275858419, 10.89621804432066 ], [ 79.776831530008295, 10.896652509591354 ], [ 79.776397064737594, 10.905396123164047 ], [ 79.779221088997105, 10.905504739481721 ], [ 79.779221088997105, 10.906210745546597 ], [ 79.777374611596656, 10.907459833199839 ], [ 79.777374611596656, 10.908926153488428 ], [ 79.779981403220816, 10.908763229011919 ], [ 79.781773572462427, 10.906427978181943 ], [ 79.79068011051163, 10.908654612694244 ], [ 79.7956764611246, 10.903006564175238 ], [ 79.794861838742051, 10.902300558110362 ], [ 79.791331808417667, 10.904853041575683 ], [ 79.791060267623479, 10.90262640706338 ], [ 79.791983506323703, 10.899965307280386 ], [ 79.793667059247639, 10.89893345226249 ], [ 79.792526587912064, 10.898390370674123 ], [ 79.791060267623479, 10.896055119844149 ], [ 79.789431022858381, 10.896815434067861 ], [ 79.78785608625212, 10.895783579049965 ], [ 79.782588194844962, 10.895512038255783 ], [ 79.782262345891951, 10.894751724032071 ], [ 79.78182788062125, 10.890461379483977 ], [ 79.783185584592161, 10.889157983671899 ], [ 79.785303602786797, 10.888886442877716 ], [ 79.790299953399767, 10.890841536595834 ], [ 79.790137028923255, 10.894860340349743 ], [ 79.791766273688353, 10.89458879955556 ], [ 79.793341210294614, 10.893231095584644 ], [ 79.793667059247639, 10.891656158978384 ], [ 79.795404920330412, 10.890732920278161 ], [ 79.795567844806911, 10.888343361289349 ], [ 79.799260799607808, 10.887257198112618 ], [ 79.800944352531729, 10.890026914213285 ], [ 79.804148533903088, 10.890895844754672 ], [ 79.806049319462375, 10.88883213471888 ], [ 79.806266552097725, 10.887583047065638 ], [ 79.808493186610022, 10.887365814430291 ], [ 79.809090576357221, 10.88818043681284 ], [ 79.820223748918735, 10.886116726777049 ], [ 79.821146987618945, 10.885356412553337 ], [ 79.828858746173751, 10.883944400423585 ], [ 79.829075978809101, 10.882641004611505 ], [ 79.828478589061902, 10.88177207407012 ], [ 79.823971011878456, 10.880468678258042 ], [ 79.820495289712909, 10.881011759846407 ], [ 79.816259253323651, 10.880360061940369 ], [ 79.811262902710695, 10.880360061940369 ], [ 79.810991361916507, 10.875418019486236 ], [ 79.82250469158987, 10.874114623674158 ], [ 79.823373622131257, 10.869824279126066 ], [ 79.824731326102167, 10.86879242410817 ], [ 79.824839942419842, 10.864990852989607 ], [ 79.819409126536186, 10.864176230607058 ], [ 79.811697367981381, 10.859885886058965 ], [ 79.809416425310246, 10.863578840859855 ], [ 79.809687966104434, 10.865914091689829 ], [ 79.806918250003761, 10.865045161148444 ], [ 79.807189790797949, 10.85966865342362 ], [ 79.807895796862823, 10.855541233352037 ], [ 79.809850890580947, 10.852445668298349 ], [ 79.812892147475793, 10.850490574580231 ], [ 79.815716171735303, 10.849567335880009 ], [ 79.817128183865051, 10.847720858479564 ], [ 79.821255603936635, 10.845439915808427 ], [ 79.823916703719632, 10.846471770826321 ], [ 79.827338117726327, 10.850164725627211 ], [ 79.828641513538415, 10.849513027721173 ], [ 79.830270758303513, 10.837782465412465 ], [ 79.829836293032812, 10.833329196387862 ], [ 79.830976764368387, 10.827844072345364 ], [ 79.851233707614441, 10.827681147868855 ], [ 79.85204832999699, 10.827626839710017 ], [ 79.852555559714858, 10.834754361274829 ], [ 79.848753988596286, 10.831713104379979 ], [ 79.847667825419549, 10.842248887194282 ], [ 79.85309864130322, 10.845072911453787 ], [ 79.85218261540534, 10.878256257209186 ], [ 79.852454156199528, 10.904487097927268 ], [ 79.853866168329276, 10.914697031788553 ], [ 79.854492833568386, 10.983389427773282 ] ] ] ] } },
{ "type": "Feature", "properties": { "fid": 5, "name": "Yanaon", "alt_name": "Yanam" }, "geometry": { "type": "MultiPolygon", "coordinates": [ [ [ [ 82.193043096333525, 16.729021858984471 ], [ 82.189241525214968, 16.729782173208186 ], [ 82.186549452810027, 16.729806993733916 ], [ 82.185874419367096, 16.732714813785361 ], [ 82.186308884637796, 16.736516384903926 ], [ 82.188481210991256, 16.737385315445309 ], [ 82.189350141532643, 16.736842233856944 ], [ 82.191522467886102, 16.737602548080655 ], [ 82.193368945286551, 16.73640776858625 ], [ 82.196518818499072, 16.735104372774174 ], [ 82.201732401747392, 16.734669907503481 ], [ 82.2053167402306, 16.734669907503481 ], [ 82.207054601313374, 16.738362862304371 ], [ 82.208683846078472, 16.740317956022487 ], [ 82.207706299219424, 16.741512735516892 ], [ 82.207163217631049, 16.742924747646644 ], [ 82.210747556114271, 16.746074620859169 ], [ 82.211725102973332, 16.748790028801 ], [ 82.211290637702632, 16.749767575660059 ], [ 82.214440510915153, 16.752917448872584 ], [ 82.21552667409189, 16.752591599919562 ], [ 82.215852523044916, 16.751396820425157 ], [ 82.217590384127675, 16.75117958778981 ], [ 82.219002396257437, 16.74987619197773 ], [ 82.220197175751835, 16.750202040930752 ], [ 82.220197175751835, 16.751939902013522 ], [ 82.221826420516933, 16.753460530460949 ], [ 82.223021200011345, 16.75617593840278 ], [ 82.221717804199258, 16.756393171038127 ], [ 82.220197175751835, 16.755850089449758 ], [ 82.219979943116499, 16.756719019991145 ], [ 82.221066106293222, 16.758239648438572 ], [ 82.221391955246247, 16.75856549739159 ], [ 82.223238432646696, 16.757153485261838 ], [ 82.224541828458769, 16.756501787355798 ], [ 82.225627991635506, 16.757153485261838 ], [ 82.226171073223867, 16.759434427932977 ], [ 82.226279689541542, 16.761172289015747 ], [ 82.22769170167129, 16.761932603239462 ], [ 82.229429562754063, 16.761389521651093 ], [ 82.230841574883812, 16.75986889320367 ], [ 82.231927738060548, 16.75791379948555 ], [ 82.232253587013574, 16.75617593840278 ], [ 82.231927738060548, 16.755089775226047 ], [ 82.229755411707089, 16.755089775226047 ], [ 82.228017550624315, 16.754981158908375 ], [ 82.225845224270842, 16.754546693637682 ], [ 82.223781514235057, 16.75356914677862 ], [ 82.223998746870407, 16.751939902013522 ], [ 82.224976293729455, 16.751070971472139 ], [ 82.225627991635506, 16.750310657248423 ], [ 82.22530214268248, 16.749767575660059 ], [ 82.223455665282032, 16.749007261436347 ], [ 82.221826420516933, 16.747812481941942 ], [ 82.221717804199258, 16.746183237176844 ], [ 82.220740257340211, 16.744879841364764 ], [ 82.218785163622087, 16.742924747646644 ], [ 82.2179162330807, 16.741295502881545 ], [ 82.21769900044535, 16.739123176528082 ], [ 82.2179162330807, 16.737602548080655 ], [ 82.2179162330807, 16.735864686997886 ], [ 82.217373151492339, 16.734126825915112 ], [ 82.216944520105898, 16.733431320841884 ], [ 82.229581455885793, 16.728341203798426 ], [ 82.231373625127418, 16.72796104668657 ], [ 82.232568404621816, 16.727037807986346 ], [ 82.232894253574841, 16.72600595296845 ], [ 82.232894253574841, 16.724431016362189 ], [ 82.238759534729198, 16.721769916579191 ], [ 82.24234387321242, 16.721552683943845 ], [ 82.247883305413751, 16.722150073691047 ], [ 82.254563208950657, 16.720846677878967 ], [ 82.256898459780629, 16.720357904449436 ], [ 82.258799245339901, 16.720086363655259 ], [ 82.261894810393585, 16.720792369720137 ], [ 82.263686979635196, 16.721715608420357 ], [ 82.268194556818642, 16.721335451308502 ], [ 82.270529807648614, 16.721498375785011 ], [ 82.272484901366724, 16.723887934773824 ], [ 82.274059837972999, 16.726277493762634 ], [ 82.276558013279484, 16.727092116145183 ], [ 82.279544962015493, 16.727200732462855 ], [ 82.283237916816375, 16.726603342715652 ], [ 82.285953324758211, 16.725788720333103 ], [ 82.288777349017721, 16.725788720333103 ], [ 82.29073244273583, 16.727037807986346 ], [ 82.291058291688856, 16.727743814051223 ], [ 82.292090146706755, 16.728123971163079 ], [ 82.292959077248142, 16.729861832245845 ], [ 82.293882315948366, 16.731002303581416 ], [ 82.295077095442778, 16.73170830964629 ], [ 82.295294328078114, 16.73301170545837 ], [ 82.296869264684375, 16.734803874699978 ], [ 82.296814956525537, 16.736596043941589 ], [ 82.297846811543437, 16.739420068201092 ], [ 82.298715742084823, 16.739908841630619 ], [ 82.298661433925986, 16.742026859825248 ], [ 82.299856213420398, 16.742841482207798 ], [ 82.300996684755958, 16.742950098525473 ], [ 82.302137156091518, 16.743764720908022 ], [ 82.303006086632905, 16.74604566357916 ], [ 82.303983633491967, 16.746860285961709 ], [ 82.305612878257065, 16.748380914409136 ], [ 82.311043694140722, 16.736052962353224 ], [ 82.310888831031562, 16.732719799104629 ], [ 82.310834522872725, 16.730710397227675 ], [ 82.310671598396212, 16.728700995350717 ], [ 82.311812069731786, 16.728972536144902 ], [ 82.31354993081456, 16.727940681127006 ], [ 82.312463767637823, 16.727126058744457 ], [ 82.304806317241855, 16.716970433042011 ], [ 82.299538425834697, 16.714798106688544 ], [ 82.298235030022624, 16.71213700690555 ], [ 82.295465313921937, 16.709747447916737 ], [ 82.291337893850354, 16.708715592898841 ], [ 82.283408902660227, 16.708498360263501 ], [ 82.271080950604315, 16.70882420921652 ], [ 82.265161361291121, 16.713223170082284 ], [ 82.258861614866063, 16.716155810659462 ], [ 82.25234463580567, 16.717513514630372 ], [ 82.249194762593149, 16.71626442697713 ], [ 82.23860467162001, 16.716807508565498 ], [ 82.233010931259841, 16.720391847048713 ], [ 82.220520054727416, 16.724410650802628 ], [ 82.207105939494767, 16.724899424232156 ], [ 82.196244307727454, 16.727614832173987 ], [ 82.193043096333525, 16.729021858984471 ] ] ] ] } },
{ "type": "Feature", "properties": { "fid": 6, "name": "Chandernagor", "alt_name": "Chandannagar" }, "geometry": { "type": "MultiPolygon", "coordinates": [ [ [ [ 88.383047370117964, 22.869671578084279 ], [ 88.379897496905443, 22.874776545014921 ], [ 88.375878693151535, 22.874993777650268 ], [ 88.375444227880834, 22.876731638733041 ], [ 88.378159635822669, 22.882814152522741 ], [ 88.376530391057571, 22.885420944146897 ], [ 88.376095925786871, 22.887267421547342 ], [ 88.370882342538565, 22.889222515265462 ], [ 88.367189387737668, 22.885855409417584 ], [ 88.364441946467764, 22.881795450262057 ], [ 88.362106695637792, 22.878265419937676 ], [ 88.35873958978992, 22.873214761165872 ], [ 88.355698332895074, 22.869033032935452 ], [ 88.354449245241824, 22.867295171852682 ], [ 88.352222610729527, 22.863113443622257 ], [ 88.350104592534905, 22.856759389038373 ], [ 88.348258115134456, 22.849916561024962 ], [ 88.347769341704932, 22.847961467306842 ], [ 88.352168302570703, 22.846658071494765 ], [ 88.351788145458841, 22.843996971711771 ], [ 88.35260276784139, 22.842476343264345 ], [ 88.354123396288827, 22.84111863929343 ], [ 88.356132798165774, 22.840684174022737 ], [ 88.357436193977847, 22.840141092434372 ], [ 88.359445595854808, 22.839869551640188 ], [ 88.360748991666881, 22.83981524348135 ], [ 88.363138550655705, 22.839489394528332 ], [ 88.365528109644515, 22.838946312939964 ], [ 88.367157354409613, 22.83824030687509 ], [ 88.369329680763073, 22.837805841604396 ], [ 88.371176158163522, 22.837425684492541 ], [ 88.372968327405133, 22.836991219221847 ], [ 88.374380339534881, 22.8367739865865 ], [ 88.374326031376043, 22.839326470051823 ], [ 88.373402792675819, 22.843019424852713 ], [ 88.371284774481197, 22.84627791438291 ], [ 88.369709837874936, 22.849916561024965 ], [ 88.369601221557261, 22.852143195537266 ], [ 88.370796001051673, 22.85757401142093 ], [ 88.371230466322359, 22.859420488821375 ], [ 88.372208013181407, 22.860941117268798 ], [ 88.375900967982304, 22.86414529864016 ], [ 88.377367288270889, 22.865720235246421 ], [ 88.38133178386596, 22.868327026870578 ], [ 88.383047370117964, 22.869671578084279 ] ] ] ] } },
{ "type": "Feature", "properties": { "fid": 7, "name": "Mahé", "alt_name": null }, "geometry": { "type": "MultiPolygon", "coordinates": [ [ [ [ 75.528564985810846, 11.700720759108503 ], [ 75.531932091658717, 11.704196481274046 ], [ 75.534104418012177, 11.706694656580531 ], [ 75.535081964871239, 11.708758366616321 ], [ 75.537580140177724, 11.709518680840034 ], [ 75.539643850213508, 11.708106668710283 ], [ 75.542033409202318, 11.706042958674491 ], [ 75.543445421332081, 11.704956795497759 ], [ 75.544640200826478, 11.704522330227066 ], [ 75.54322818869673, 11.700394910155483 ], [ 75.541924792884643, 11.700177677520136 ], [ 75.542359258155344, 11.697353653260633 ], [ 75.539969699166534, 11.697027804307613 ], [ 75.536276744365637, 11.692574535283011 ], [ 75.533561336423816, 11.695507175860188 ], [ 75.533995801694502, 11.696919187989939 ], [ 75.53301825483544, 11.698765665390384 ], [ 75.531714859023367, 11.700394910155483 ], [ 75.530085614258269, 11.700720759108503 ], [ 75.528564985810846, 11.700720759108503 ] ] ], [ [ [ 75.532583789564754, 11.710496227699092 ], [ 75.531714859023367, 11.708975599251668 ], [ 75.530954544799656, 11.708215285027956 ], [ 75.529759765305243, 11.709084215569341 ], [ 75.529976997940594, 11.710604844016766 ], [ 75.530737312164305, 11.711908239828846 ], [ 75.531171777435006, 11.713537484593944 ], [ 75.531497626388017, 11.715275345676716 ], [ 75.529651148987568, 11.716470125171121 ], [ 75.528456369493171, 11.718425218889239 ], [ 75.527044357363408, 11.723204336866862 ], [ 75.526609892092708, 11.725919744808694 ], [ 75.527913287904795, 11.729612699609582 ], [ 75.531823475341028, 11.731785025963047 ], [ 75.53301825483544, 11.734717666540226 ], [ 75.536276744365637, 11.734500433904879 ], [ 75.53758014017771, 11.734609050222552 ], [ 75.538774919672122, 11.73558659708161 ], [ 75.539861082848844, 11.744275902495469 ], [ 75.539752466531169, 11.746882694119625 ], [ 75.538666303354432, 11.749706718379128 ], [ 75.536928442271673, 11.750032567332148 ], [ 75.535950895412611, 11.75177042841492 ], [ 75.533452720106126, 11.75242212632096 ], [ 75.532475173247065, 11.753725522133038 ], [ 75.532475173247065, 11.756549546392543 ], [ 75.53258378956474, 11.757635709569275 ], [ 75.530954544799641, 11.758070174839968 ], [ 75.53258378956474, 11.759264954334373 ], [ 75.534104418012163, 11.75980803592274 ], [ 75.534973348553549, 11.760459733828778 ], [ 75.536059511730286, 11.760351117511105 ], [ 75.535950895412611, 11.76219759491155 ], [ 75.538340454401421, 11.762740676499917 ], [ 75.538557687036771, 11.761002815417145 ], [ 75.541707560249293, 11.760894199099472 ], [ 75.543445421332066, 11.759916652240413 ], [ 75.544857433461814, 11.756875395345562 ], [ 75.543988502920428, 11.755246150580463 ], [ 75.543662653967402, 11.752856591591653 ], [ 75.543445421332066, 11.747968857296357 ], [ 75.542685107108341, 11.747534392025665 ], [ 75.541490327613943, 11.738084772388094 ], [ 75.541598943931618, 11.736021062352302 ], [ 75.542793723426016, 11.735043515493244 ], [ 75.543445421332066, 11.732762572822105 ], [ 75.548984853533398, 11.731350560692354 ], [ 75.553438122558006, 11.728526536432849 ], [ 75.553655355193342, 11.726462826397057 ], [ 75.554307053099393, 11.723638802137554 ], [ 75.553763971511017, 11.720380312607357 ], [ 75.553329506240331, 11.719402765748297 ], [ 75.551048563569196, 11.719185533112952 ], [ 75.550071016710135, 11.717230439394834 ], [ 75.548007306674336, 11.715927043582754 ], [ 75.537905989130735, 11.715818427265081 ], [ 75.537254291224684, 11.711582390875826 ], [ 75.532583789564754, 11.710496227699092 ] ] ] ] } }
]
}
