{
"type": "FeatureCollection",
"name": "india-protectorates",
"crs": { "type": "name", "properties": { "name": "urn:ogc:def:crs:OGC:1.3:CRS84" } },
"features": [
{ "type": "Feature", "properties": { "fid": 1 }, "geometry": { "type": "Polygon", "coordinates": [ [ [ 88.774191765661513, 27.434626078732403 ], [ 89.009857127583956, 27.500866697565108 ], [ 89.227217854269469, 27.814121862494247 ], [ 89.384910930492296, 27.918540250803957 ], [ 89.463757468603717, 28.016565676564095 ], [ 89.487198331285484, 28.05918542689459 ], [ 89.617188569793498, 28.161472827687778 ], [ 89.755702758367619, 28.182782702853025 ], [ 89.796191521181584, 28.25310529089834 ], [ 89.917657809623492, 28.178520727819976 ], [ 89.99437336021839, 28.178520727819976 ], [ 90.254353837234419, 28.155079865138202 ], [ 90.382213088225896, 28.061316414411113 ], [ 90.559085052097444, 28.042137526762392 ], [ 90.793493678915169, 28.044268514278915 ], [ 90.774314791266448, 27.931326175903106 ], [ 90.942662805071905, 27.907885313221332 ], [ 91.093962918745163, 27.941981113485728 ], [ 91.315585620463736, 28.05918542689459 ], [ 91.454099809037842, 28.012303701531046 ], [ 91.498850546884853, 27.971814938717074 ], [ 91.559775147015472, 27.905687732344919 ], [ 91.528540637752684, 27.783119128388812 ], [ 91.521118561264103, 27.527057489532616 ], [ 91.454319872866847, 27.018645250064516 ], [ 92.131699235025735, 27.045502459235998 ], [ 91.409990617949006, 27.011459599939926 ], [ 90.749559147605211, 26.997842456221498 ], [ 90.436524364999485, 26.997504824065011 ], [ 89.916927917095464, 27.00562351856351 ], [ 89.462739066213658, 27.025076743658357 ], [ 89.033799039083164, 27.072736746672859 ], [ 88.91124474561731, 27.13401389340579 ], [ 88.761456164714588, 27.222525327575578 ], [ 88.761456164714588, 27.222525327575578 ], [ 88.774191765661513, 27.434626078732403 ] ] ] } },
{ "type": "Feature", "properties": { "fid": 4 }, "geometry": { "type": "Polygon", "coordinates": [ [ [ 88.00519184897928, 27.965536361153696 ], [ 88.151073320509468, 27.993193488284707 ], [ 88.266146646401808, 27.999586450834279 ], [ 88.396136884909808, 28.040075213648251 ], [ 88.496293298186472, 28.086956939011795 ], [ 88.641200449310162, 28.138100639408389 ], [ 88.835120313313908, 28.016634350966477 ], [ 88.858561175995675, 27.922870900239388 ], [ 88.862823151028735, 27.803535599314003 ], [ 88.845775250896537, 27.684200298388621 ], [ 88.803155500566035, 27.63518758550855 ], [ 88.76266673775207, 27.569126972496285 ], [ 88.786107600433837, 27.53076919719884 ], [ 88.774191765661513, 27.434626078732403 ], [ 88.761456164714588, 27.222525327575578 ], [ 88.652519014967154, 27.270185330590078 ], [ 88.509539005923656, 27.324653905463794 ], [ 88.346133281302514, 27.317845333604581 ], [ 88.23038755969587, 27.372313908478294 ], [ 88.114641838089227, 27.433591055211224 ], [ 87.94442754160886, 27.392739624055938 ], [ 88.050023186601351, 27.666660777006527 ], [ 88.00519184897928, 27.965536361153696 ] ] ] } }
]
}
