{
"type": "FeatureCollection",
"name": "karafuto-1935-lines",
"crs": { "type": "name", "properties": { "name": "urn:ogc:def:crs:OGC:1.3:CRS84" } },
"features": [
{ "type": "Feature", "properties": { "fid": 1 }, "geometry": { "type": "MultiLineString", "coordinates": [ [ [ 141.848355810590277, 46.554430010234235 ], [ 141.844857005674555, 46.555172989685467 ], [ 141.841772847952512, 46.55595378910877 ], [ 141.83685381158574, 46.560248185936921 ], [ 141.835487412594944, 46.560911865446727 ], [ 141.833769653863698, 46.562239224466339 ], [ 141.833379254152049, 46.562980983918472 ], [ 141.833262134238538, 46.565245302246041 ], [ 141.831114935824473, 46.569032179449046 ], [ 141.830529336257001, 46.569539699074191 ], [ 141.829592376949023, 46.570242418555161 ], [ 141.828147898015942, 46.570515698353319 ], [ 141.824517180697597, 46.569930098785846 ], [ 141.822448062225845, 46.570242418555161 ], [ 141.820457023696434, 46.571296497776622 ], [ 141.819988544042445, 46.572662896767397 ], [ 141.819598144330797, 46.575044335008457 ], [ 141.820730303494571, 46.576176494172245 ], [ 141.820886463379253, 46.576879213653214 ], [ 141.82022278386944, 46.577542893163027 ], [ 141.818231745340029, 46.578518892442155 ], [ 141.815928387041282, 46.580314731115749 ], [ 141.811321670443817, 46.593822561138843 ], [ 141.812024389924773, 46.599288157101938 ], [ 141.816240706810618, 46.602020955083489 ], [ 141.817489985887875, 46.603231194189604 ], [ 141.821628222831379, 46.604285273411058 ], [ 141.826313019371185, 46.60487087297853 ], [ 141.830685496141655, 46.607408471104257 ], [ 141.831856695276599, 46.608852950037367 ], [ 141.836897121553733, 46.612711349687544 ], [ 141.839551839592957, 46.61583454738075 ], [ 141.844236636132763, 46.62153438317084 ], [ 141.847750233537596, 46.62340830178676 ], [ 141.851966550423441, 46.62824925821122 ], [ 141.851732310596446, 46.635276453020921 ], [ 141.851029591115491, 46.641366688522666 ], [ 141.852702743629692, 46.648841851751492 ], [ 141.854810902072586, 46.650793850309746 ], [ 141.857816979852316, 46.652296889199597 ], [ 141.85826593952072, 46.653058168637315 ], [ 141.858246419535135, 46.653624248219209 ], [ 141.857856019823487, 46.654307447714594 ], [ 141.855279381726604, 46.655751926647703 ], [ 141.854713302144688, 46.656454646128672 ], [ 141.854771862101444, 46.657098805652893 ], [ 141.855396501640087, 46.658328564744593 ], [ 141.856665300702957, 46.660905202841484 ], [ 141.858129299621652, 46.663091441226726 ], [ 141.85877345914588, 46.666234158905517 ], [ 141.858578259290056, 46.668439917276338 ], [ 141.858187859578408, 46.669806316267113 ], [ 141.858187859578408, 46.671289835171393 ], [ 141.857563220039793, 46.673554153498962 ], [ 141.856626260731815, 46.676482151336337 ], [ 141.856548180789503, 46.677360550687553 ], [ 141.85686050055881, 46.678492709851341 ], [ 141.857816979852345, 46.680269028539342 ], [ 141.858363539448646, 46.681752547443615 ], [ 141.859007698972874, 46.6845634253675 ], [ 141.860276498035745, 46.687315743334629 ], [ 141.861701456983269, 46.691688220105114 ], [ 141.86297025604614, 46.69526037746671 ], [ 141.863965775310845, 46.696548696515151 ], [ 141.865546894143023, 46.698051735405002 ], [ 141.86683521319145, 46.700140373862332 ], [ 141.869314251360436, 46.703595411310445 ], [ 141.873276808433701, 46.707909328124174 ], [ 141.877590725247416, 46.710212686422913 ], [ 141.880343043214566, 46.711071565788544 ], [ 141.88295872128262, 46.712106125024413 ], [ 141.883915200576155, 46.713316364130527 ], [ 141.883915200576155, 46.714272843424069 ], [ 141.883251521066342, 46.715522122501355 ], [ 141.881943682032329, 46.716478601794897 ], [ 141.879952643502918, 46.717805960814502 ], [ 141.879230404036349, 46.719465159589021 ], [ 141.879367043935446, 46.72065587870955 ], [ 141.881865602089988, 46.724676995739543 ], [ 141.882216961830466, 46.726472834413137 ], [ 141.883778560677086, 46.729010432538864 ], [ 141.885652479292986, 46.732133630232063 ], [ 141.887858237663835, 46.737657786151921 ], [ 141.889048956784364, 46.739512184782257 ], [ 141.88957210764795, 46.741523505796692 ], [ 141.890430987013559, 46.74249950507582 ], [ 141.893358984850948, 46.747223341586782 ], [ 141.896557593738436, 46.748556571852077 ], [ 141.900773910624252, 46.748576091837663 ], [ 141.90231598948526, 46.749161691405135 ], [ 141.902979668995073, 46.750079130727514 ], [ 141.903077268922999, 46.751289369833628 ], [ 141.900793430609838, 46.753631768103531 ], [ 141.899934551244201, 46.756130326258088 ], [ 141.898236312498511, 46.759116884052212 ], [ 141.89768975290221, 46.761361682394202 ], [ 141.897748312858965, 46.762357201658908 ], [ 141.898939031979495, 46.765870799063762 ], [ 141.9018084698601, 46.772449034205067 ], [ 141.905985746774746, 46.779202949216611 ], [ 141.906707986241287, 46.781311107659512 ], [ 141.909362704280511, 46.786620543737953 ], [ 141.909967823833568, 46.787342783204508 ], [ 141.913539981195186, 46.789607101532077 ], [ 141.917092618571189, 46.790017021229311 ], [ 141.918868937259219, 46.790602620796783 ], [ 141.919766856595999, 46.791461500162413 ], [ 141.919864456523925, 46.792378939484792 ], [ 141.918790857316878, 46.794545657884449 ], [ 141.918829897288049, 46.795990136817558 ], [ 141.918849417273634, 46.797981175346969 ], [ 141.91916173704297, 46.800538293458288 ], [ 141.920079176365334, 46.808014447936394 ], [ 141.921074695630068, 46.811059565687259 ], [ 141.923124294116207, 46.814026603495797 ], [ 141.924607813020515, 46.81722788113133 ], [ 141.928863169877474, 46.822947236907005 ], [ 141.932689087051642, 46.827592993475641 ], [ 141.934875325436877, 46.829486432077147 ], [ 141.937803323274238, 46.833448989150391 ], [ 141.93846700278408, 46.835479067650972 ], [ 141.940145721544155, 46.840847063686162 ], [ 141.941473080563782, 46.843208981941643 ], [ 141.943737398891329, 46.84607841982227 ], [ 141.948207475589726, 46.85160257574212 ], [ 141.95285323215839, 46.857927051070867 ], [ 141.956698669318143, 46.861108808720815 ], [ 141.958006508352156, 46.861616328345953 ], [ 141.961168746016511, 46.862123847971098 ], [ 141.962476585050553, 46.862826567452068 ], [ 141.962886504747786, 46.8635683269042 ], [ 141.962964584690127, 46.864349126327504 ], [ 141.962203305252388, 46.866515844727161 ], [ 141.961773865569597, 46.868663043141247 ], [ 141.96189098548308, 46.872528000286579 ], [ 141.962808424805473, 46.875729277922112 ], [ 141.966595302008443, 46.883263992356959 ], [ 141.970050339456549, 46.888456308521903 ], [ 141.974286176327979, 46.895678703187428 ], [ 141.975106015722446, 46.896674222452141 ], [ 141.977897373660767, 46.898196781327577 ], [ 141.982191770488896, 46.898333421226639 ], [ 141.986993686942185, 46.897259822019599 ], [ 141.988282005990641, 46.897435501889845 ], [ 141.989297045240932, 46.898411501168972 ], [ 141.989375125183273, 46.899563180318339 ], [ 141.989765524894921, 46.903545257377168 ], [ 141.992205523092707, 46.90744925449367 ], [ 141.99456744134821, 46.912426850817212 ], [ 141.99597288031012, 46.915062048870837 ], [ 141.995562960612887, 46.91777532686681 ], [ 141.997790297717813, 46.922700996978698 ], [ 141.998649177083422, 46.927073473749182 ], [ 142.001342935093817, 46.931992510115975 ], [ 142.00253780983607, 46.938213514271098 ], [ 142.002908689562133, 46.940653512468913 ], [ 142.003845648870055, 46.941688071704789 ], [ 142.006656526793961, 46.942644550998331 ], [ 142.00784724591449, 46.94371815020537 ], [ 142.008081485741485, 46.944694149484491 ], [ 142.008120525712656, 46.948773826471239 ], [ 142.008745165251298, 46.95220934393376 ], [ 142.008647565323372, 46.953829502737094 ], [ 142.008667085308957, 46.957089340329375 ], [ 142.007769165972149, 46.960934777489129 ], [ 142.007632526073081, 46.964936374533544 ], [ 142.008179085669383, 46.967005493005288 ], [ 142.009350284804356, 46.96977733095801 ], [ 142.011731723045415, 46.971983089328837 ], [ 142.015596680190754, 46.973564208161015 ], [ 142.017646278676921, 46.975906606430911 ], [ 142.018876037768592, 46.980669482913036 ], [ 142.01957460162788, 46.981963673207176 ], [ 142.02008212125304, 46.983837591823097 ], [ 142.020788996355691, 46.987052518198517 ], [ 142.02317043459675, 46.993103713729099 ], [ 142.025688512736906, 46.999623388913662 ], [ 142.027425791453766, 47.0025904267222 ], [ 142.027491252030586, 47.004360187915069 ], [ 142.027933311078897, 47.006143064098211 ], [ 142.029280190084108, 47.009129621892335 ], [ 142.030451389219053, 47.011413460205489 ], [ 142.032618107618703, 47.012330899527868 ], [ 142.034023546580642, 47.013306898806995 ], [ 142.034577006797036, 47.014315380562152 ], [ 142.034381806941212, 47.015467059711519 ], [ 142.033711226811334, 47.01623489664437 ], [ 142.030021949536234, 47.022286092174944 ], [ 142.029963389579507, 47.026151049320283 ], [ 142.031154108700065, 47.029937926523282 ], [ 142.033242747157374, 47.035032642760314 ], [ 142.034775218525482, 47.036000559545421 ], [ 142.038054576103349, 47.036527599156145 ], [ 142.038972015425742, 47.037210798651536 ], [ 142.039499055036458, 47.038479597714399 ], [ 142.039518575022043, 47.039397037036778 ], [ 142.039613163077291, 47.040394081300356 ], [ 142.040357934402067, 47.041622315393184 ], [ 142.042544172787331, 47.044316073403571 ], [ 142.043712360049625, 47.044766558070847 ], [ 142.045882090321925, 47.044960232927792 ], [ 142.048341608505325, 47.04642423184648 ], [ 142.049864167380747, 47.048571430260566 ], [ 142.050305120805064, 47.050741770532554 ], [ 142.05095728657335, 47.056164704652154 ], [ 142.051601446097578, 47.057296863815942 ], [ 142.051875488395126, 47.058566539753166 ], [ 142.053339487313821, 47.060167178570929 ], [ 142.053823712581334, 47.060694866306164 ], [ 142.053983646838049, 47.061455497619377 ], [ 142.053456607227332, 47.063192776336223 ], [ 142.052203553777986, 47.065887182471108 ], [ 142.052226848135632, 47.066960133553643 ], [ 142.052597727861695, 47.069185411910048 ], [ 142.054705886304617, 47.071059330525969 ], [ 142.056169885223312, 47.073030849069802 ], [ 142.058863643233707, 47.077676605638437 ], [ 142.059097883060701, 47.078828284787804 ], [ 142.058434203550888, 47.082127162351249 ], [ 142.058668443377883, 47.084899000303963 ], [ 142.057946203911314, 47.088802997420466 ], [ 142.05736060434387, 47.098387310341472 ], [ 142.057786269654542, 47.100749876721466 ], [ 142.058648923392326, 47.102954986967781 ], [ 142.059445468429061, 47.103716914530011 ], [ 142.061807386684563, 47.104829553708214 ], [ 142.062552920508807, 47.105726824920495 ], [ 142.062822425934854, 47.106274032641316 ], [ 142.062817431563445, 47.107558882317328 ], [ 142.05914767427393, 47.112399838741787 ], [ 142.058742748948106, 47.113847787047334 ], [ 142.058757274562282, 47.114898396896351 ], [ 142.059928473697227, 47.118060634560713 ], [ 142.059694233870232, 47.118880473955187 ], [ 142.057234715686832, 47.121379032109743 ], [ 142.05671793169364, 47.122038022248013 ], [ 142.056171372097339, 47.125473539710534 ], [ 142.056483691866646, 47.129611776654023 ], [ 142.056620331765714, 47.130841535745724 ], [ 142.058210714965981, 47.135199181902166 ], [ 142.058806570150949, 47.136170491809743 ], [ 142.059733273841402, 47.136877900662256 ], [ 142.060709273120551, 47.138634699364687 ], [ 142.060572633221454, 47.139903498427543 ], [ 142.059079849949114, 47.14436888575441 ], [ 142.058815834519038, 47.145486214304142 ], [ 142.057752490929488, 47.153094319309787 ], [ 142.058377130468131, 47.155358637637342 ], [ 142.060396953351216, 47.158779324485835 ], [ 142.060592153207011, 47.160692283072905 ], [ 142.059811353783715, 47.16350316099679 ], [ 142.059069594331589, 47.168344117421249 ], [ 142.056531996205877, 47.171662514970272 ], [ 142.055390572674014, 47.172809504748109 ], [ 142.053204334288779, 47.173883103955148 ], [ 142.051740335370084, 47.175190942989175 ], [ 142.049934241078972, 47.178806829693485 ], [ 142.049700001251978, 47.182476586982993 ], [ 142.053447838483834, 47.188566822484738 ], [ 142.054160813582314, 47.190436051729108 ], [ 142.054121773611143, 47.191841490691047 ], [ 142.053750893885081, 47.194281488888862 ], [ 142.05095953594676, 47.198029326120704 ], [ 142.050374660753675, 47.199925471595265 ], [ 142.048774021935941, 47.202931549374966 ], [ 142.047017223233524, 47.207186906231946 ], [ 142.044791944877119, 47.212066902627576 ], [ 142.043737141281241, 47.214289474110927 ], [ 142.042761866376537, 47.215463380118933 ], [ 142.036421531059489, 47.229143230014976 ], [ 142.032713648798136, 47.23723243404028 ], [ 142.029200051393303, 47.24465002856163 ], [ 142.025881653844294, 47.252418982823464 ], [ 142.022953656006905, 47.258314018469385 ], [ 142.018263560096045, 47.268847833814036 ], [ 142.017912200355568, 47.269765273136407 ], [ 142.017527100014973, 47.271431448780817 ], [ 142.020039878784075, 47.279739985769069 ], [ 142.020142778083056, 47.280801041860428 ], [ 142.019010618919253, 47.283611919784306 ], [ 142.01553076211448, 47.292935496022842 ], [ 142.015433162186582, 47.293813895374065 ], [ 142.015750323827319, 47.294546466708027 ], [ 142.018595399850938, 47.297112772937503 ], [ 142.020976876216963, 47.312368747294464 ], [ 142.021985357972113, 47.320081200348035 ], [ 142.021874757428833, 47.324147952969284 ], [ 142.021673038202806, 47.324805036859011 ], [ 142.018745040365417, 47.339484066017057 ], [ 142.017651921172785, 47.341787424315783 ], [ 142.009414487256976, 47.356232213646834 ], [ 142.001801692879781, 47.369232524044783 ], [ 142.000871252941977, 47.370839758482632 ], [ 141.99954389392235, 47.371952397660834 ], [ 141.997103895724536, 47.375563594993594 ], [ 141.996498776171478, 47.37708615386903 ], [ 141.995444696950045, 47.378764872629127 ], [ 141.99184665273259, 47.383734500833604 ], [ 141.988606335125894, 47.388497377315737 ], [ 141.985522177403851, 47.392342814475491 ], [ 141.985405057490368, 47.393650653509518 ], [ 141.987610815861188, 47.396559131361315 ], [ 141.987630335846774, 47.398842969674469 ], [ 141.987298496091853, 47.399740889011262 ], [ 141.986529744159554, 47.401545953928043 ], [ 141.984714385500382, 47.403088032789057 ], [ 141.983992146033813, 47.405762270813867 ], [ 141.982859986870039, 47.407109149819057 ], [ 141.982463906537618, 47.408435250714518 ], [ 141.982450067172806, 47.409373468146626 ], [ 141.981337427994617, 47.412125786113762 ], [ 141.978643669984251, 47.417181462379638 ], [ 141.977330150329408, 47.419620202453302 ], [ 141.976496471570158, 47.422295698602248 ], [ 141.975110552593804, 47.423544977679533 ], [ 141.974720152882156, 47.424579536915402 ], [ 141.97487631276681, 47.426277775661084 ], [ 141.972768154323887, 47.430864972272971 ], [ 141.973021914136467, 47.431782411595343 ], [ 141.976379351656647, 47.433578250268937 ], [ 141.976633111469226, 47.434944649259712 ], [ 141.976067031887311, 47.436564808063061 ], [ 141.976039124407919, 47.438954328798168 ], [ 141.975785364595367, 47.444810324472911 ], [ 141.975394964883719, 47.446371923319511 ], [ 141.970244395563014, 47.451691538765353 ], [ 141.970202648718782, 47.452227918994261 ], [ 141.969769968413402, 47.45672979191918 ], [ 141.967835850466997, 47.460822698271073 ], [ 141.967055051043673, 47.466444454118836 ], [ 141.966802930604842, 47.470549941711582 ], [ 141.965514611556415, 47.474883378510896 ], [ 141.965805771966416, 47.478585885151148 ], [ 141.965434892240324, 47.480791643521968 ], [ 141.963640692940487, 47.485619370581276 ], [ 141.963150901427326, 47.487296297467623 ], [ 141.962799541686849, 47.489072616155624 ], [ 141.962625653690225, 47.492919845189128 ], [ 141.963523573027004, 47.495418403343685 ], [ 141.963172213286526, 47.501157279104945 ], [ 141.963913972738652, 47.506193435385228 ], [ 141.964968051960113, 47.507950234087652 ], [ 141.965475571585245, 47.509667992818912 ], [ 141.963718772882856, 47.515914388205324 ], [ 141.962695651138603, 47.517332980282482 ], [ 141.960985974901291, 47.519545105523676 ], [ 141.957667577352254, 47.525283981284929 ], [ 141.957862777208078, 47.526884620102692 ], [ 141.96090789495895, 47.530554377392207 ], [ 141.961298294670627, 47.532545415921618 ], [ 141.962664693661395, 47.535083014047345 ], [ 141.963445493084691, 47.539416450846659 ], [ 141.965319411700619, 47.54144652934724 ], [ 141.965592691498756, 47.543554687790149 ], [ 141.967193330316547, 47.54632652574287 ], [ 141.965905011268092, 47.548825083897427 ], [ 141.966881010547212, 47.55202636153296 ], [ 141.966959090489553, 47.553314680581416 ], [ 141.966412530893223, 47.555461878995487 ], [ 141.963913972738681, 47.558116597034712 ], [ 141.964499572306153, 47.559990515650632 ], [ 141.96442149236384, 47.560771315073936 ], [ 141.963367413142379, 47.563426033113153 ], [ 141.963289333200038, 47.56526091175791 ], [ 141.962040054122753, 47.569047788960908 ], [ 141.960868854987808, 47.574630504837508 ], [ 141.960985974901291, 47.577480422732556 ], [ 141.962391413863259, 47.578768741781012 ], [ 141.967179376576922, 47.57944465940669 ], [ 141.970888173837608, 47.579620339276929 ], [ 141.972781612439093, 47.580693938483968 ], [ 141.97749988270408, 47.582633698926344 ], [ 141.978358762069746, 47.583726818118961 ], [ 141.978163562213922, 47.585093217109737 ], [ 141.976719083280813, 47.586303456215852 ], [ 141.971721966971671, 47.588802014370415 ], [ 141.967661809970537, 47.590949212784494 ], [ 141.96731045023003, 47.592120411919446 ], [ 141.968208369566838, 47.598015447565359 ], [ 141.968872049076623, 47.600006486094777 ], [ 141.96973092844226, 47.602622164162824 ], [ 141.967857009826332, 47.60730696070263 ], [ 141.964616692219636, 47.611406157674956 ], [ 141.964889972017772, 47.615114954935628 ], [ 141.9643043724503, 47.616325194041742 ], [ 141.963016053401873, 47.618394312513487 ], [ 141.963094133344185, 47.619370311792615 ], [ 141.96383589279634, 47.620814790725724 ], [ 141.966998130460695, 47.622103109774166 ], [ 141.967505650085855, 47.623079109053293 ], [ 141.970238448067391, 47.626046146861832 ], [ 141.974298605068583, 47.627412545852614 ], [ 141.976445803482648, 47.628974144699207 ], [ 141.979178601464184, 47.630184383805322 ], [ 141.980271720656816, 47.631355582940273 ], [ 141.98234083912854, 47.63643077919172 ], [ 141.984956517196593, 47.641232695645016 ], [ 141.98573731661989, 47.644863412963367 ], [ 141.986361956158532, 47.645839412242495 ], [ 141.998815706960187, 47.651500208061421 ], [ 141.999986906095131, 47.652241967513561 ], [ 142.002719704076696, 47.654701485696954 ], [ 142.003032023846004, 47.656458284399378 ], [ 142.000494425720291, 47.663368359295589 ], [ 142.000611545633774, 47.66426627863239 ], [ 142.003149143759487, 47.666647716873456 ], [ 142.004984022404244, 47.670473634047625 ], [ 142.005452502058233, 47.672581792490533 ], [ 142.004944982433074, 47.675431710385581 ], [ 142.004437462807942, 47.67999938701189 ], [ 142.005452502058233, 47.684684183551688 ], [ 142.005023062375415, 47.685464982974992 ], [ 142.00428130292326, 47.687885461187221 ], [ 142.005491542029375, 47.689564179947318 ], [ 142.005920981712194, 47.69085249899576 ], [ 142.005101142317756, 47.695342095679742 ], [ 142.007443540587673, 47.699753612421389 ], [ 142.007990100183974, 47.702837770143425 ], [ 142.008770899607271, 47.705570568124976 ], [ 142.009590739001737, 47.706897927144581 ], [ 142.014509775368538, 47.710645764376423 ], [ 142.020248651129776, 47.715525760772053 ], [ 142.02095137061076, 47.718297598724767 ], [ 142.025492493194292, 47.723476628336918 ], [ 142.035018246158558, 47.729254544069335 ], [ 142.036892164774457, 47.735657099340401 ], [ 142.044075519468834, 47.746588291266605 ], [ 142.045324798546119, 47.748618369767179 ], [ 142.044700159007476, 47.751429247691064 ], [ 142.047823356700661, 47.761267320424643 ], [ 142.052039673586478, 47.76439051811785 ], [ 142.059379188165508, 47.764858997771825 ], [ 142.065937903321242, 47.764546678002503 ], [ 142.070778859745701, 47.764078198348528 ] ] ] } },
{ "type": "Feature", "properties": { "fid": 2 }, "geometry": { "type": "MultiLineString", "coordinates": [ [ [ 142.03430936949465, 47.015512275928053 ], [ 142.034953529018878, 47.014829076432662 ], [ 142.03600760824034, 47.014302036821938 ], [ 142.037003127505045, 47.014087316980529 ], [ 142.041043764520623, 47.01424347686519 ], [ 142.042530180922739, 47.014271079344795 ], [ 142.044482179481008, 47.015208038652759 ], [ 142.046333680613486, 47.016254035380186 ], [ 142.047173039993538, 47.016390675279268 ], [ 142.047953839416834, 47.01633211532252 ], [ 142.051584556735179, 47.015531795913638 ], [ 142.054632571983888, 47.015754598249067 ], [ 142.058536569100397, 47.015208038652759 ], [ 142.061442149454308, 47.015746515755048 ], [ 142.065251444140785, 47.016847717441685 ], [ 142.068945639536821, 47.017465036986167 ], [ 142.070429158441101, 47.017347917072669 ], [ 142.071912677345381, 47.016996557332185 ], [ 142.074918755125083, 47.015044558773937 ], [ 142.075953314360959, 47.012311760792386 ], [ 142.076519393942846, 47.011394321470007 ], [ 142.077253299650522, 47.010691030114423 ], [ 142.079595736046059, 47.009070680685824 ], [ 142.081477470280817, 47.006455765117636 ], [ 142.086310572960798, 47.00506927426666 ], [ 142.087840985580698, 47.004250006746808 ], [ 142.089297168880563, 47.002765725342677 ], [ 142.089890584066893, 47.001185369010351 ], [ 142.090409808058752, 46.999623007663899 ], [ 142.091178903115349, 46.99823785118739 ], [ 142.092088488693236, 46.997729759687637 ], [ 142.097085605002349, 46.993981922455795 ], [ 142.100568016180546, 46.992147615685653 ], [ 142.1034881602734, 46.991795684070553 ], [ 142.104550093239368, 46.991210656377703 ], [ 142.106142878312625, 46.989609445685311 ], [ 142.109422235890491, 46.986954727646093 ], [ 142.110835528596937, 46.98629162001091 ], [ 142.112389273699023, 46.986017768338129 ], [ 142.115102589820623, 46.986974057006421 ], [ 142.116593924343789, 46.987072419434213 ], [ 142.119533626547877, 46.986739817179433 ], [ 142.120743865653992, 46.986212777568703 ], [ 142.121641784990771, 46.984865898563513 ], [ 142.121270905264709, 46.983558059529486 ], [ 142.119182266807371, 46.982601580235944 ], [ 142.116527548768147, 46.983323819702498 ], [ 142.115473469546714, 46.984319338967204 ], [ 142.115512509517856, 46.985197738318419 ], [ 142.115941949200675, 46.985998057727301 ], [ 142.11892850699482, 46.98863325578094 ], [ 142.124042743217416, 46.989394535218658 ], [ 142.128363198463802, 46.989087114508202 ], [ 142.129703539036342, 46.988067176199046 ], [ 142.130002877252736, 46.987291275834615 ], [ 142.129866237353639, 46.983894798343258 ], [ 142.131135036416538, 46.980674000722139 ], [ 142.131865529939148, 46.977450134041227 ], [ 142.132255929650796, 46.973741336780556 ], [ 142.135487993201423, 46.971558167455129 ], [ 142.138599924965121, 46.970169179418953 ], [ 142.142261428198537, 46.969391449055472 ], [ 142.145783279659497, 46.969603099837059 ], [ 142.14727815980541, 46.970383060510962 ], [ 142.149679118032054, 46.97249121895387 ], [ 142.155984073375208, 46.973838097959067 ], [ 142.16119590952573, 46.973018258564601 ], [ 142.166934785286998, 46.972022739299895 ], [ 142.169218623600131, 46.971964179343146 ], [ 142.172361341278929, 46.970558740381207 ], [ 142.175308859101875, 46.969270421332759 ], [ 142.176401882982333, 46.969079129286158 ], [ 142.178549081396426, 46.969215769185233 ], [ 142.180969559608656, 46.969137689242906 ], [ 142.184463732340078, 46.968880021621104 ], [ 142.188426289413314, 46.966810903149359 ], [ 142.192896366111682, 46.964370904951551 ], [ 142.197346922824494, 46.962243226523057 ], [ 142.201289959912174, 46.958690589147039 ], [ 142.209288502754475, 46.957497163153491 ], [ 142.212763060188166, 46.953554126065825 ], [ 142.229979687471939, 46.950899408026608 ], [ 142.23388368458842, 46.951680207449904 ], [ 142.234508324127063, 46.95331988623883 ], [ 142.233087921113935, 46.954849059796523 ], [ 142.230877606808718, 46.955662284508733 ], [ 142.227012649663379, 46.956833483643685 ], [ 142.225924086405143, 46.958167457345539 ], [ 142.225177771018622, 46.959644361567562 ], [ 142.226270890211254, 46.962142919722126 ], [ 142.229506289696417, 46.966707203225994 ], [ 142.231497328225856, 46.969518081149879 ], [ 142.233722606582234, 46.97400767783386 ], [ 142.237177644030311, 46.977091835555889 ], [ 142.239041516716611, 46.978975761976486 ], [ 142.241208235116261, 46.981044880448231 ], [ 142.24286743389078, 46.981786639900371 ], [ 142.246976676792741, 46.982752631374815 ], [ 142.25152483343345, 46.986383348693167 ], [ 142.253486306047677, 46.988423434998417 ], [ 142.258971421996364, 46.996777988827731 ], [ 142.259596061535007, 46.998573827501325 ], [ 142.259127581881017, 47.003258624041123 ], [ 142.259654621491734, 47.005366782484032 ], [ 142.26123574032394, 47.00735782101345 ], [ 142.260825820626707, 47.01030533883641 ], [ 142.261301563087528, 47.01158193445638 ], [ 142.264092921025821, 47.013748652856037 ], [ 142.265303160131936, 47.01486129203424 ], [ 142.268165335205737, 47.015829494756268 ], [ 142.269629334124431, 47.015673334871607 ], [ 142.270827316051822, 47.015154091817976 ], [ 142.273403954148705, 47.013690092899282 ], [ 142.277678830991277, 47.013124013317395 ], [ 142.284577544645941, 47.014181523786313 ], [ 142.289878821980352, 47.01560305148638 ], [ 142.292541698763586, 47.015704082661742 ], [ 142.294400195828644, 47.014873015462733 ], [ 142.296742594098532, 47.012725817048661 ], [ 142.298557952757704, 47.012081657524433 ], [ 142.301173630825787, 47.012179257452345 ], [ 142.30419513015633, 47.013654484175582 ], [ 142.30975832604733, 47.016523922056216 ], [ 142.315852659983847, 47.018874612507155 ], [ 142.317999858397911, 47.0193821321323 ], [ 142.323188076128105, 47.02011559940339 ], [ 142.329258791644264, 47.020935438797849 ], [ 142.333674406820649, 47.021587890503127 ], [ 142.336129826569305, 47.021735758206731 ], [ 142.339311584219274, 47.021150158639259 ], [ 142.34547989966336, 47.020837838869937 ], [ 142.350125656231995, 47.020447439158289 ], [ 142.355884051978848, 47.018593040527954 ], [ 142.357387090868713, 47.018241680787462 ], [ 142.363379726442531, 47.017773201133487 ], [ 142.36915764217494, 47.018573520542368 ], [ 142.372066120026744, 47.020252239302465 ], [ 142.378839555023859, 47.024585676101779 ], [ 142.382919232010607, 47.025307915568334 ], [ 142.387037948968526, 47.026771914487021 ], [ 142.394728823288034, 47.031222471199833 ], [ 142.398014547735698, 47.03365705565168 ], [ 142.398734518767156, 47.03488100068482 ], [ 142.401272116892869, 47.037418598810547 ], [ 142.404863794240043, 47.042532835033164 ], [ 142.406815792798312, 47.043879714038354 ], [ 142.409080111125888, 47.044328673706751 ], [ 142.414643307016888, 47.043957793980681 ], [ 142.417024745257947, 47.04368451418253 ], [ 142.420265062864644, 47.043391714398794 ], [ 142.423837220226233, 47.044992353216557 ], [ 142.427175137760855, 47.049091550188884 ], [ 142.426843298005963, 47.051746268228101 ], [ 142.427741217342742, 47.054498586195237 ], [ 142.427624097429259, 47.056294424868831 ], [ 142.428540717064379, 47.057302773186848 ], [ 142.436271451042302, 47.059886102215998 ], [ 142.441385687264926, 47.062150420543567 ], [ 142.444177045203219, 47.06498081845303 ], [ 142.444020885318565, 47.067908816290405 ], [ 142.445562964179572, 47.069802254891911 ], [ 142.447612562665739, 47.070446414416139 ], [ 142.452082639364136, 47.070134094646818 ], [ 142.457021195716521, 47.07071969421429 ], [ 142.460866632876275, 47.070895374084536 ], [ 142.464204550410898, 47.07034881448822 ], [ 142.467737667801288, 47.070114574661218 ], [ 142.470880385480086, 47.068884815569518 ], [ 142.47570182191896, 47.069665614992822 ], [ 142.479430139165203, 47.069099535410928 ], [ 142.482358137002592, 47.069607055036073 ], [ 142.486984373585642, 47.069372815209086 ], [ 142.488570925225929, 47.06990673637754 ], [ 142.493465008799035, 47.072125133176222 ], [ 142.499658277036787, 47.072171054705109 ], [ 142.503693481244255, 47.072125133176229 ], [ 142.506797158951855, 47.07105153396919 ], [ 142.516030112132398, 47.066913297025707 ], [ 142.519250909753509, 47.065956817732165 ], [ 142.523681946480735, 47.064082899116237 ], [ 142.525965784793868, 47.064141459072985 ], [ 142.531470592290106, 47.063028152708092 ], [ 142.538380667186289, 47.063379512448577 ], [ 142.541894264591178, 47.060607674495863 ], [ 142.545056502255534, 47.060529594553529 ], [ 142.54700832925181, 47.062013780644499 ], [ 142.547418248949043, 47.063712019390174 ], [ 142.545993290001519, 47.064922258496289 ], [ 142.54212833285618, 47.065859217804253 ], [ 142.541093773620304, 47.067225616795028 ], [ 142.541523213303122, 47.068631055756967 ], [ 142.543846091587426, 47.069782734906333 ], [ 142.548901767853295, 47.068611535771382 ], [ 142.551985925575366, 47.067791696376922 ], [ 142.554894403427141, 47.06867009572813 ], [ 142.556573122187245, 47.070661134257548 ], [ 142.558017601120355, 47.071032013983618 ], [ 142.564966715987708, 47.070934414055699 ], [ 142.568441273421399, 47.072144653161821 ], [ 142.570881271619214, 47.073628172066094 ], [ 142.572755190235142, 47.074838411172209 ], [ 142.576015027827452, 47.075092170984774 ], [ 142.578903985693643, 47.076146250206236 ], [ 142.582071732415983, 47.076448371545908 ], [ 142.584994221195387, 47.075990090321568 ], [ 142.587414699407617, 47.074584651359629 ], [ 142.591162536639473, 47.074701771273126 ], [ 142.595378853525261, 47.075736330509002 ], [ 142.597369892054672, 47.078605768389629 ], [ 142.600239329935306, 47.079816007495737 ], [ 142.603303967671764, 47.080343047106467 ], [ 142.606231965509124, 47.081553286212582 ], [ 142.608828123591621, 47.082646405405207 ], [ 142.610858202092203, 47.082509765506131 ], [ 142.612068441198318, 47.081826566010747 ], [ 142.612868760607199, 47.08047968700555 ], [ 142.61511355894919, 47.078605768389629 ], [ 142.615445398704082, 47.077356489312351 ], [ 142.613103000434194, 47.074389451503805 ], [ 142.610350682467043, 47.072827852657205 ], [ 142.609296603245582, 47.070504974372888 ], [ 142.610018842712151, 47.068748175670464 ], [ 142.612595480809034, 47.067616016506676 ], [ 142.615523478646395, 47.068045456189495 ], [ 142.621028114580668, 47.070387854459398 ], [ 142.624893071726007, 47.072730252729301 ], [ 142.626884110255418, 47.072710732743715 ], [ 142.628699468914562, 47.071949453305997 ], [ 142.62942170838113, 47.070583054315215 ], [ 142.63315002562743, 47.068494415857884 ], [ 142.635648583781972, 47.068396815929972 ], [ 142.637951942080718, 47.068552975814633 ], [ 142.639950624666653, 47.067910512851981 ], [ 142.644042177582435, 47.065703057919592 ], [ 142.652396731411756, 47.062521300269644 ], [ 142.657550007605522, 47.060862101495132 ], [ 142.662273844116498, 47.058324503369398 ], [ 142.669671918652256, 47.05535746556086 ], [ 142.670882157758371, 47.053952026598914 ], [ 142.670647917931376, 47.05166818828576 ], [ 142.671061974187836, 47.044173142884439 ], [ 142.669617495254698, 47.040854745335416 ], [ 142.667392216898293, 47.030001633351546 ], [ 142.670515414591506, 47.01227748644262 ], [ 142.672935892803736, 47.001463414429914 ], [ 142.674419411708016, 46.997481337371084 ], [ 142.680278, 46.993333 ], [ 142.685378777987978, 46.989029946113362 ], [ 142.691469013489723, 46.984501309458217 ], [ 142.699589327492049, 46.978879553610454 ], [ 142.705211083339805, 46.974507076839977 ], [ 142.711457478726231, 46.971383879146778 ], [ 142.71676691480468, 46.969353800646196 ], [ 142.722232510767753, 46.966542922722311 ], [ 142.724731068922324, 46.96451284422173 ], [ 142.726729618071403, 46.952710344189008 ], [ 142.728635066038834, 46.942181980715347 ], [ 142.729572025346812, 46.935467105674967 ], [ 142.730352824770108, 46.930313829481186 ], [ 142.733611, 46.922222 ], [ 142.735662260848528, 46.916727919515758 ], [ 142.736392620934311, 46.915888407635748 ], [ 142.737368620213431, 46.908978332739544 ], [ 142.73881309914654, 46.902810017295472 ], [ 142.740971696926977, 46.896427134509956 ], [ 142.744251054504844, 46.888775300161612 ], [ 142.744876875917811, 46.887832240858081 ], [ 142.7441155964801, 46.883049844390371 ], [ 142.745579595398794, 46.875671289840184 ], [ 142.746667, 46.869722 ], [ 142.748195273466848, 46.862592899499901 ], [ 142.74724929760356, 46.859778495015817 ], [ 142.734756506830735, 46.852595140321455 ], [ 142.724215714616179, 46.844865226030784 ], [ 142.723512995135223, 46.842444747818554 ], [ 142.724918434097162, 46.837447631509434 ], [ 142.733897627465126, 46.820582363966146 ], [ 142.733585307695819, 46.81909884506188 ], [ 142.730149790233298, 46.814726368291396 ], [ 142.732726428330182, 46.79505022282423 ], [ 142.735771546081025, 46.782713591936087 ], [ 142.735303066427065, 46.777169916030651 ], [ 142.734600346946081, 46.775139837530077 ], [ 142.734834586773047, 46.768034562778041 ], [ 142.73764998250553, 46.763350242800733 ], [ 142.737571902563189, 46.761749603982963 ], [ 142.737024389842446, 46.760697964759764 ], [ 142.735151424350988, 46.756049768192874 ], [ 142.734213511918568, 46.75304613041142 ], [ 142.734525831687876, 46.748673653640935 ], [ 142.734369671803222, 46.744925816409093 ], [ 142.73709966760012, 46.739191191581817 ], [ 142.736868229957764, 46.737586301830071 ], [ 142.734994311341865, 46.734775423906193 ], [ 142.734369671803222, 46.732901505290272 ], [ 142.734370624927692, 46.731064186647259 ], [ 142.735306631111172, 46.72915366805843 ], [ 142.737103422909229, 46.726808829790279 ], [ 142.738040382217179, 46.725130111030182 ], [ 142.738056, 46.723611 ], [ 142.737610942534388, 46.721694593567662 ], [ 142.736556863312927, 46.719976834836402 ], [ 142.734369671803222, 46.71744167670893 ], [ 142.73327655261059, 46.715567758093009 ], [ 142.733589825504396, 46.713535239594172 ], [ 142.734057352033886, 46.711819920861167 ], [ 142.733941185244873, 46.709631242477677 ], [ 142.734213511918568, 46.707447444090683 ], [ 142.734994311341865, 46.704324246397483 ], [ 142.735374074186524, 46.70116688872946 ], [ 142.736709267888472, 46.699721780733981 ], [ 142.738106872168061, 46.698941610373055 ], [ 142.739522947996988, 46.697921691126417 ], [ 142.740833, 46.696389 ], [ 142.741287162007239, 46.69550210885064 ], [ 142.741443321891893, 46.693979549975211 ], [ 142.740311162728119, 46.687206114978075 ], [ 142.740760122396523, 46.685234596434242 ], [ 142.742790200897105, 46.683009318077836 ], [ 142.745444918936329, 46.681935718870804 ], [ 142.747006517782921, 46.68099875956284 ], [ 142.747553077379223, 46.680296040081871 ], [ 142.747728757249462, 46.679495720672989 ], [ 142.747826357177388, 46.678285481566867 ], [ 142.747650677307149, 46.676626282792355 ], [ 142.749114676225844, 46.674264364536874 ], [ 142.750816975280316, 46.672239947594939 ], [ 142.752012498147252, 46.671280761428399 ], [ 142.752265114210758, 46.669686336981052 ], [ 142.751066674784028, 46.668076529107211 ], [ 142.750090675504936, 46.666495410275026 ], [ 142.74909515624023, 46.66444581178888 ], [ 142.748772180540556, 46.662282048074864 ], [ 142.748958516341105, 46.660697974557024 ], [ 142.749572499949437, 46.659197890352829 ], [ 142.754042576647805, 46.651058056364924 ], [ 142.756864110501965, 46.648732223394951 ], [ 142.758679469161137, 46.647619584216748 ], [ 142.760748587632889, 46.646760704851118 ], [ 142.761595667319199, 46.646301394253207 ], [ 142.762883986367626, 46.644388435666123 ], [ 142.763130025873949, 46.642661507878785 ], [ 142.762856746075812, 46.641802628513155 ], [ 142.760144478391055, 46.638159730266658 ], [ 142.760260587993315, 46.637410631757092 ], [ 142.760611947733821, 46.636297992578889 ], [ 142.764399835248014, 46.630078456235495 ], [ 142.770080761052014, 46.626625401285928 ], [ 142.770783480532998, 46.62467340272768 ], [ 142.771173880244646, 46.621862524803802 ], [ 142.770119801023185, 46.620691325668851 ], [ 142.768167802464944, 46.619559166505063 ], [ 142.767621242868643, 46.619481086562736 ], [ 142.765843303869929, 46.619627924891439 ] ] ] } },
{ "type": "Feature", "properties": { "fid": 3 }, "geometry": { "type": "MultiLineString", "coordinates": [ [ [ 142.724731068922324, 46.96451284422173 ], [ 142.725774473151574, 46.969790255323822 ], [ 142.726242952805563, 46.974006572209639 ], [ 142.726111, 46.978056 ], [ 142.724369034189635, 46.9858747234438 ], [ 142.724993673728278, 46.99992911306321 ], [ 142.724722, 47.012778 ], [ 142.724681353958943, 47.019449098645715 ], [ 142.725462153382267, 47.027569412648042 ], [ 142.730303109806727, 47.040999162728802 ], [ 142.727336071998167, 47.051618034885685 ], [ 142.7262, 47.0533 ], [ 142.724525194074289, 47.059269869234029 ], [ 142.727960711536809, 47.064266985543149 ], [ 142.742639740694841, 47.079258334470516 ], [ 142.747324537234647, 47.084880090318279 ], [ 142.748729976196614, 47.10330695670816 ], [ 142.750916214581849, 47.125169340560568 ], [ 142.751389, 47.128611 ], [ 142.753570932621074, 47.151872680837435 ], [ 142.751228534351185, 47.170299547227316 ], [ 142.750556, 47.175 ], [ 142.743420540118166, 47.222300788819119 ], [ 142.744825979080105, 47.234949739476583 ], [ 142.745278, 47.239444 ], [ 142.756069490775616, 47.268055635024503 ], [ 142.757318769852901, 47.272115792025666 ], [ 142.759036528584176, 47.285077062452451 ], [ 142.761378926854064, 47.288668739799633 ], [ 142.762240856217431, 47.291085558014558 ], [ 142.761460056794135, 47.2948333952464 ], [ 142.764661334429661, 47.303422188902701 ], [ 142.769111891142472, 47.308575465096482 ], [ 142.77488980687491, 47.31411914100191 ], [ 142.784571719723829, 47.316227299444833 ], [ 142.787382597647706, 47.318413537830075 ], [ 142.790349635456238, 47.322942174485213 ], [ 142.790424, 47.32712 ], [ 142.791060284931376, 47.332071427742335 ], [ 142.793871162855254, 47.336287744628152 ], [ 142.794027322739908, 47.341284860937279 ], [ 142.7955889215865, 47.343939578976496 ], [ 142.793871162855254, 47.348780535400955 ], [ 142.795276601817193, 47.350966773786197 ], [ 142.797150520433121, 47.353933811594736 ], [ 142.794808122163204, 47.356120049979978 ], [ 142.782315331390407, 47.361585645943087 ], [ 142.741389, 47.390278 ], [ 142.72047601706501, 47.404685774109254 ], [ 142.703611, 47.421389 ], [ 142.676853729284488, 47.500856473077405 ], [ 142.674496271650952, 47.5066885643947 ], [ 142.676147750119242, 47.509805681154631 ], [ 142.676214030382198, 47.511217201049838 ], [ 142.657006364569014, 47.532689185190591 ], [ 142.64513821333486, 47.546587414925341 ], [ 142.632255022850416, 47.559939085063775 ], [ 142.622026550405195, 47.575789313356779 ], [ 142.613359676806567, 47.58765746459094 ], [ 142.605942082285196, 47.598120176863162 ], [ 142.592043852550461, 47.62068528019654 ], [ 142.578848342296681, 47.642859983818276 ], [ 142.576415664093474, 47.64529586451912 ], [ 142.57333150637146, 47.64615474388475 ], [ 142.567670710552534, 47.647130743163878 ], [ 142.566460471446419, 47.649707381260768 ], [ 142.569505589197291, 47.656188016474154 ], [ 142.564079033205331, 47.671413605228523 ], [ 142.557598397991967, 47.687302873492669 ], [ 142.554240960471759, 47.694095828475383 ], [ 142.550454083268761, 47.696828626456934 ], [ 142.549556163931982, 47.697999825591893 ], [ 142.548853444450998, 47.700966863400424 ], [ 142.547721285287253, 47.705456460084406 ], [ 142.542450889179975, 47.720174529213615 ], [ 142.53690721327456, 47.738523315661169 ], [ 142.529099219041569, 47.752148265597761 ], [ 142.528615720201827, 47.753810920057667 ], [ 142.520354265500572, 47.788025999098394 ], [ 142.520315225529401, 47.801533829121496 ], [ 142.520471385414083, 47.809537023210318 ], [ 142.518246107057678, 47.829642608360302 ], [ 142.518558426826957, 47.8439312378067 ], [ 142.517348187720842, 47.845570916595634 ], [ 142.511667, 47.848611 ], [ 142.506338915852325, 47.851465952241554 ], [ 142.502747238505151, 47.855174749502233 ], [ 142.500412274604543, 47.856142475662566 ], [ 142.490215407761156, 47.856580188464164 ], [ 142.485264765792522, 47.859577993125086 ], [ 142.482141568099337, 47.866917507704109 ], [ 142.473552774443021, 47.868322946666048 ], [ 142.470305022466988, 47.868057939986663 ], [ 142.467767424341247, 47.868955859323457 ], [ 142.465810965161154, 47.871710579163924 ], [ 142.46163814886836, 47.873718735805589 ], [ 142.460740229531552, 47.87473377505588 ], [ 142.460657688967387, 47.875926896049741 ], [ 142.463156247121958, 47.883734890282746 ], [ 142.465498645391847, 47.887482727514588 ], [ 142.470109822611136, 47.890935363089362 ], [ 142.471432721008938, 47.892792163593029 ], [ 142.474989819006765, 47.897376958331591 ], [ 142.481583113511846, 47.903411035749912 ], [ 142.490644847443917, 47.908737589940614 ], [ 142.49470500444508, 47.911548467864499 ], [ 142.495481343246581, 47.913405268368152 ], [ 142.494392684675773, 47.919239342184007 ], [ 142.492358145553396, 47.922150221909114 ], [ 142.490371567645781, 47.926149417080204 ], [ 142.487990129404693, 47.929702054456222 ], [ 142.484320372115207, 47.930404773937191 ], [ 142.482207753050488, 47.930426695796093 ], [ 142.478928395472622, 47.930114376026772 ], [ 142.476473337911045, 47.931185573360487 ], [ 142.472213520432263, 47.937922370259777 ], [ 142.471476221601932, 47.941882525459704 ], [ 142.471671421457756, 47.945630362691546 ], [ 142.471120401239631, 47.946667323800739 ], [ 142.470383102409301, 47.953984916520859 ], [ 142.471398141659591, 47.958630673089495 ], [ 142.473233020304349, 47.970069384640837 ], [ 142.474755579179799, 47.977526019133357 ], [ 142.479986935315907, 47.982093695759659 ], [ 142.481353334306704, 47.987481211780434 ], [ 142.486857970240948, 47.99728024454285 ], [ 142.497042942093174, 48.005851920086897 ], [ 142.50266915856281, 48.006571757680113 ], [ 142.504850936326193, 48.008194318356793 ], [ 142.508251874439367, 48.015277671249912 ], [ 142.497778, 48.025278 ], [ 142.49333860545434, 48.030386140090769 ], [ 142.489078787975529, 48.036303097595606 ], [ 142.485799430397662, 48.046141170329193 ], [ 142.486701810356294, 48.04955476593279 ], [ 142.486892549590266, 48.058633961101989 ], [ 142.484862471089684, 48.062694118103153 ], [ 142.485955590282316, 48.066598115219655 ], [ 142.485330950743673, 48.070970591990132 ], [ 142.488497649029881, 48.07770258514276 ], [ 142.486779890298607, 48.08285586133654 ], [ 142.486736389705641, 48.085493461263518 ], [ 142.490484226937468, 48.088928978726038 ], [ 142.489981167934133, 48.092108334502647 ], [ 142.491132046458972, 48.094791684395823 ], [ 142.493260525512, 48.095660971878665 ], [ 142.49542644328713, 48.095260164049805 ], [ 142.499955079942254, 48.095104004165144 ], [ 142.501828998558182, 48.095416323934465 ], [ 142.506748034924982, 48.095104004165144 ], [ 142.509246593079524, 48.096353283242422 ], [ 142.511354751522447, 48.099164161166307 ], [ 142.511375072132552, 48.10015056856264 ], [ 142.510027392502849, 48.102053119032512 ], [ 142.505732995674691, 48.104083197533093 ], [ 142.50315635757778, 48.104629757129402 ], [ 142.499174280518957, 48.104317437360088 ], [ 142.495660683114124, 48.105800956264353 ], [ 142.495192203460135, 48.108065274591929 ], [ 142.498023401994118, 48.110027681267383 ], [ 142.501438598846534, 48.113608950497358 ], [ 142.503546757289428, 48.116810228132891 ], [ 142.504639876482059, 48.120011505768417 ], [ 142.508387713713887, 48.122666223807641 ], [ 142.508795955912404, 48.126076731288627 ], [ 142.512387633259578, 48.129902648462796 ], [ 142.514183471933165, 48.142434479206763 ], [ 142.515588910895104, 48.145050157274817 ], [ 142.518907308444142, 48.146455596236763 ], [ 142.522459945820145, 48.146806955977247 ], [ 142.525546581665452, 48.147896453297442 ], [ 142.528159781610242, 48.1497739937858 ], [ 142.528901541062368, 48.151804072286374 ], [ 142.528611, 48.153056 ], [ 142.527459540252579, 48.158437245511998 ], [ 142.527777311892777, 48.160229081063655 ], [ 142.528401951431391, 48.169910993912573 ], [ 142.532462108432554, 48.172721871836458 ], [ 142.551859522230728, 48.180104429508589 ], [ 142.55369985274632, 48.181622985262081 ], [ 142.556042251016237, 48.19302265684226 ], [ 142.554480652169616, 48.19536505511217 ], [ 142.546979525835098, 48.200600414370214 ], [ 142.544798739320697, 48.201455290613907 ], [ 142.537459224741667, 48.203016889460507 ], [ 142.533627855696693, 48.204114011775061 ], [ 142.531675857138424, 48.205909850448649 ], [ 142.5314806572826, 48.207354329381751 ], [ 142.53371138750984, 48.216915119195249 ], [ 142.539679051227267, 48.223555917415226 ], [ 142.545735698628647, 48.229251750083392 ], [ 142.551045134707095, 48.230188709391356 ], [ 142.557598397991995, 48.238859586111921 ], [ 142.559550396550264, 48.239835585391042 ], [ 142.564318724903188, 48.240651421663578 ], [ 142.565991991792487, 48.241319104295314 ], [ 142.56681728305773, 48.24268150016416 ], [ 142.564474884787842, 48.246273177511341 ], [ 142.564937912571025, 48.249049018585993 ], [ 142.564474884787842, 48.251426453705122 ], [ 142.562009914733665, 48.253577655241131 ], [ 142.560570887671332, 48.256423570014242 ], [ 142.561033915454516, 48.257989171982778 ], [ 142.56271263421462, 48.259824050627536 ], [ 142.563805753407252, 48.261697969243457 ], [ 142.568847361558312, 48.267198602055785 ], [ 142.571502079597536, 48.267042442171125 ], [ 142.573839025996648, 48.26661700561025 ], [ 142.575249916829392, 48.264231564247247 ], [ 142.576493744035872, 48.262869168378408 ], [ 142.579153913945873, 48.262045325862005 ], [ 142.580944300748683, 48.261815089156954 ], [ 142.582589431408394, 48.262201485746665 ], [ 142.585244149447618, 48.2643877241319 ], [ 142.585556469216954, 48.266730122401803 ], [ 142.584463350024322, 48.269853320095002 ], [ 142.584301738268863, 48.272629161169654 ], [ 142.585712629101607, 48.275162756173451 ], [ 142.587659175789071, 48.276416038372666 ], [ 142.591250853136245, 48.277704357421108 ], [ 142.601167005812158, 48.281959714278088 ], [ 142.606320282005953, 48.284106912692167 ], [ 142.608355812377312, 48.284220029483734 ], [ 142.61460220776371, 48.283595389945091 ], [ 142.617017234105134, 48.283091873441869 ], [ 142.619130844418862, 48.281409151559856 ], [ 142.6225, 48.279167 ], [ 142.625879307559615, 48.278641316729058 ], [ 142.6301471312822, 48.279106098260883 ], [ 142.633726341763747, 48.280593315287312 ], [ 142.636471606610911, 48.283478575031367 ], [ 142.638528258217036, 48.290431388020899 ], [ 142.639048244707823, 48.296439845458146 ], [ 142.642718001997338, 48.299172643439697 ], [ 142.646153519459858, 48.309557275769599 ], [ 142.648639610748802, 48.31147393247884 ], [ 142.652465527922971, 48.312410891786804 ], [ 142.654690806279376, 48.313308811123605 ], [ 142.657579764145595, 48.315651209393501 ], [ 142.659219442934528, 48.317837447778743 ], [ 142.65988312244437, 48.322209924549213 ], [ 142.660507761982984, 48.326816641146685 ], [ 142.660364068963901, 48.327827982274826 ], [ 142.659739429425258, 48.333215498295601 ], [ 142.660742001810007, 48.337279353418907 ], [ 142.662159907637488, 48.34047693293229 ], [ 142.663240559964578, 48.342940149237833 ], [ 142.665595425100037, 48.346879488203349 ], [ 142.668640542850909, 48.353594363243737 ], [ 142.668611, 48.358333 ], [ 142.67020214169753, 48.363744755746637 ], [ 142.672063593447859, 48.366325091965685 ], [ 142.673273832553974, 48.367574371042963 ], [ 142.676292377199275, 48.373973228191865 ], [ 142.678270948863116, 48.376983004093738 ], [ 142.679598307882742, 48.378115163257519 ], [ 142.680742933912086, 48.380844263116906 ], [ 142.684244064451377, 48.387992275962269 ], [ 142.688056, 48.393889 ], [ 142.69021718003961, 48.396151629935751 ], [ 142.692989017992346, 48.400719306562053 ], [ 142.697295881686074, 48.409031122298046 ], [ 142.700184839552293, 48.415043277857457 ], [ 142.702292997995187, 48.421914312782498 ], [ 142.709554432631876, 48.435265982920932 ], [ 142.712443390498095, 48.443464376865577 ], [ 142.711584511132486, 48.448773812944019 ], [ 142.71462962888333, 48.458377645850611 ], [ 142.716035067845269, 48.466654119737591 ], [ 142.718143226288191, 48.472275875585353 ], [ 142.719860985019437, 48.476179872701856 ], [ 142.720719864385075, 48.478522270971752 ], [ 142.720407544615739, 48.481489308780297 ], [ 142.7225, 48.4875 ], [ 142.73749363199596, 48.526202580754983 ], [ 142.743505787555392, 48.541974729105647 ], [ 142.754515059423937, 48.563759033015728 ], [ 142.754436979481596, 48.566335671112618 ], [ 142.758333, 48.5725 ], [ 142.784269007447648, 48.614629335442842 ], [ 142.786111, 48.619722 ], [ 142.790714262687118, 48.63465257065365 ], [ 142.800630415363031, 48.65479719577479 ], [ 142.815465604405745, 48.682515575301949 ], [ 142.823195518696394, 48.694930286132426 ], [ 142.831471992583374, 48.709921635059786 ], [ 142.834907510045895, 48.715387231022888 ], [ 142.835236642927981, 48.725474526697305 ], [ 142.835314722870294, 48.732033241853024 ], [ 142.836173602235931, 48.733594840699624 ], [ 142.842029597910681, 48.735937238969527 ], [ 142.843161757074483, 48.736561878508162 ], [ 142.851538537762195, 48.7401385727415 ], [ 142.864187488419674, 48.758253119362074 ], [ 142.878632277750739, 48.775118386905355 ], [ 142.883629394059852, 48.785737259062238 ], [ 142.888889, 48.797778 ], [ 142.897441003858603, 48.81716901084669 ], [ 142.912222, 48.840556 ], [ 142.926330582520734, 48.863626576533058 ], [ 142.941111, 48.883611 ] ] ] } },
{ "type": "Feature", "properties": { "fid": 4 }, "geometry": { "type": "MultiLineString", "coordinates": [ [ [ 142.724453481002627, 47.059317906698489 ], [ 142.722735722271352, 47.060411025891106 ], [ 142.716411246942641, 47.059630226467803 ], [ 142.70704165386303, 47.062987663987997 ], [ 142.691816065108668, 47.06962445908605 ], [ 142.677371275777631, 47.075948934414789 ], [ 142.664947357766664, 47.083679325267191 ], [ 142.653645286114369, 47.090628440134559 ], [ 142.64277265414492, 47.09742139511728 ], [ 142.639434736610326, 47.100232273041151 ], [ 142.637873137763734, 47.10093499252212 ], [ 142.630689783069386, 47.10302363097945 ], [ 142.626161146414233, 47.103960590287414 ], [ 142.615464194314995, 47.103472590647854 ], [ 142.610456765200837, 47.103667313941934 ], [ 142.60374189016045, 47.106790511635133 ], [ 142.600306372697929, 47.108898670078048 ], [ 142.595543496215811, 47.108664430251054 ], [ 142.591795658983955, 47.109601389559018 ], [ 142.588906701117764, 47.111397228232605 ], [ 142.586408142963194, 47.115145065464446 ], [ 142.581567186538706, 47.121079141081538 ], [ 142.574852311498347, 47.128106335891239 ], [ 142.570479834727848, 47.132010333007734 ], [ 142.565092318707059, 47.13419657139297 ], [ 142.560869139326371, 47.135254615611494 ], [ 142.558097301373664, 47.1359182951213 ], [ 142.554388504112978, 47.140954451401591 ], [ 142.55204610584309, 47.144624208691098 ], [ 142.546580509879988, 47.150245964538861 ], [ 142.540568354320584, 47.152315083010613 ], [ 142.537640356483195, 47.156453319954103 ], [ 142.533580199482032, 47.15739027926206 ], [ 142.528309803374754, 47.16156755617672 ], [ 142.525030445796887, 47.166564672485841 ], [ 142.525459885479705, 47.169531710294379 ], [ 142.520540849112933, 47.170976189227488 ] ] ] } },
{ "type": "Feature", "properties": { "fid": 5 }, "geometry": { "type": "MultiLineString", "coordinates": [ [ [ 142.735902791295928, 46.757730812576249 ], [ 142.735629511497763, 46.759799931047993 ], [ 142.734185032564653, 46.761205370009932 ], [ 142.729851595765325, 46.76218136928906 ], [ 142.719623123320105, 46.76389912802032 ], [ 142.712166488827592, 46.765031287184101 ], [ 142.70576393355654, 46.766202486319052 ], [ 142.701625696613064, 46.765929206520902 ], [ 142.688078826618806, 46.764523767558963 ], [ 142.680036592558793, 46.76378200810683 ], [ 142.678592113625683, 46.7629231287412 ], [ 142.676718195009755, 46.761205370009939 ], [ 142.66816844132461, 46.75320217592111 ], [ 142.66036044709162, 46.74558938154393 ], [ 142.648960775511398, 46.735255684176416 ], [ 142.6451738983084, 46.732015366569719 ], [ 142.642480140298005, 46.731156487204089 ], [ 142.622921114744315, 46.729790088213313 ], [ 142.607851685874607, 46.72705729023177 ], [ 142.594734255563168, 46.724480652134886 ], [ 142.590938228366952, 46.724315494756866 ], [ 142.587697910760255, 46.724393574699192 ], [ 142.58402815347074, 46.725603813805307 ], [ 142.581295355489203, 46.725408613949483 ], [ 142.575127040045118, 46.723964135016374 ], [ 142.566811526186967, 46.721973096486948 ], [ 142.563415048695617, 46.721231337034816 ], [ 142.554787215068131, 46.720489577582676 ], [ 142.545768981729026, 46.719591658245889 ], [ 142.539366426457946, 46.719084138620744 ], [ 142.537258268015051, 46.717561579745308 ], [ 142.534095344101161, 46.715139424034291 ], [ 142.532179621454333, 46.713681849173071 ] ] ] } },
{ "type": "Feature", "properties": { "fid": 6 }, "geometry": { "type": "MultiLineString", "coordinates": [ [ [ 142.797086966105269, 47.353882381007615 ], [ 142.796140761492182, 47.359140824935949 ], [ 142.795359962068886, 47.364098901273906 ], [ 142.796882520944337, 47.366363219601475 ], [ 142.802035797138103, 47.368041938361571 ], [ 142.805041874917833, 47.369174097525352 ], [ 142.805978834225783, 47.369603537208164 ], [ 142.805978834225783, 47.370345296660304 ], [ 142.805988079530891, 47.372114047541672 ], [ 142.80395800103031, 47.374651645667399 ], [ 142.801030003192921, 47.377423483620113 ], [ 142.799780724115664, 47.380078201659337 ], [ 142.800132083856141, 47.382342519986906 ], [ 142.800444403625477, 47.384606838314475 ], [ 142.799858804058005, 47.386988276555542 ], [ 142.801342322962256, 47.389486834710105 ], [ 142.8025135220972, 47.393195631970777 ], [ 142.803606641289832, 47.394718190846213 ], [ 142.805402479963419, 47.395928429952328 ], [ 142.806339439271369, 47.398544108020388 ], [ 142.806651759040705, 47.400339946693975 ], [ 142.807549678377484, 47.40155018580009 ], [ 142.807822958175649, 47.403346024473684 ], [ 142.808564717627775, 47.405454182916593 ], [ 142.808744591244903, 47.406012713754066 ], [ 142.808627471331391, 47.408784551706788 ], [ 142.808334671547669, 47.410912230135274 ] ] ] } }
]
}
