{
"type": "FeatureCollection",
"name": "kwantung-leased-territory-1935",
"crs": { "type": "name", "properties": { "name": "urn:ogc:def:crs:OGC:1.3:CRS84" } },
"features": [
{ "type": "Feature", "properties": { "fid": 1 }, "geometry": { "type": "MultiPolygon", "coordinates": [ [ [ [ 121.923469543457259, 39.402919769287237 ], [ 121.915478002442953, 39.408130018195379 ], [ 121.922373894000103, 39.41522858300003 ], [ 121.931244337000081, 39.417181708000044 ], [ 121.942963087000066, 39.399359442000048 ], [ 121.915049675000105, 39.395412502000049 ], [ 121.865489129000011, 39.370550848000043 ], [ 121.837494337000066, 39.364650783000052 ], [ 121.791270379000025, 39.371323960000041 ], [ 121.779795769000089, 39.371486721000053 ], [ 121.765147332000097, 39.36538320500005 ], [ 121.753509962000081, 39.355210679000038 ], [ 121.731293165000011, 39.330471096000061 ], [ 121.7382918630001, 39.319647528000075 ], [ 121.736094597000047, 39.311753648000035 ], [ 121.717784050000105, 39.296942450000074 ], [ 121.680186394000103, 39.275213934000078 ], [ 121.658457879000011, 39.266791083000037 ], [ 121.646983269000089, 39.264878648000035 ], [ 121.641937696, 39.272162177000034 ], [ 121.636973504000039, 39.272650458000044 ], [ 121.611984147000044, 39.274980894000052 ], [ 121.589938564000022, 39.264053964000077 ], [ 121.604085770000083, 39.252949595000082 ], [ 121.633067254000011, 39.236151434000078 ], [ 121.626312696, 39.224514065000044 ], [ 121.601654493000069, 39.221258856000084 ], [ 121.603363477, 39.216498114000053 ], [ 121.605967644000089, 39.20538971600007 ], [ 121.607920769000089, 39.200751044000079 ], [ 121.592621290000025, 39.192206122000066 ], [ 121.606700066000045, 39.180812893000052 ], [ 121.629893425000091, 39.173244533000059 ], [ 121.641937696, 39.176214911000045 ], [ 121.649180535000042, 39.158148505000028 ], [ 121.681000196000028, 39.136419989000046 ], [ 121.689789259, 39.118150132000046 ], [ 121.674082879000025, 39.088039455000057 ], [ 121.632334832000083, 39.069484768000045 ], [ 121.546478712000081, 39.049261786000038 ], [ 121.486338738000072, 39.019598700000067 ], [ 121.467295769000103, 39.015122789000081 ], [ 121.441498243000069, 39.013902085000034 ], [ 121.428070509, 39.014715887000072 ], [ 121.419200066000045, 39.018540757000025 ], [ 121.408539259, 39.032863674000048 ], [ 121.403330925000091, 39.038275458000044 ], [ 121.395518425000077, 39.042466539000081 ], [ 121.37484785200003, 39.044175523000021 ], [ 121.352305535000013, 39.038072007000039 ], [ 121.334239129000011, 39.026597398000028 ], [ 121.326752149000072, 39.012030341000063 ], [ 121.328868035000028, 39.001410223000043 ], [ 121.338145379000039, 38.985256252000056 ], [ 121.340342644000103, 38.977606512000072 ], [ 121.334320509, 38.968573309000085 ], [ 121.320323113000086, 38.966498114000039 ], [ 121.291840040000011, 38.96735260600007 ], [ 121.256846550000105, 38.949652411000038 ], [ 121.234385613000086, 38.945624091000063 ], [ 121.219493035000042, 38.940497137000072 ], [ 121.210703972000019, 38.94009023600006 ], [ 121.201996290000025, 38.942857164000081 ], [ 121.188812696000014, 38.952297268000052 ], [ 121.179535352000016, 38.954331773000028 ], [ 121.128754102000016, 38.947333075000067 ], [ 121.117930535000042, 38.943426825000074 ], [ 121.096202019000089, 38.920599677000041 ], [ 121.086192254000011, 38.90570709800005 ], [ 121.090424024000072, 38.89907461100006 ], [ 121.148529493000069, 38.89907461100006 ], [ 121.152354363000072, 38.886297919000064 ], [ 121.140147332000083, 38.874253648000028 ], [ 121.11451256600003, 38.858140367000082 ], [ 121.111338738000072, 38.840277411000045 ], [ 121.117930535000042, 38.828192450000067 ], [ 121.12777754, 38.818915106000077 ], [ 121.134857618000055, 38.809759833000044 ], [ 121.139252149000072, 38.789496161000045 ], [ 121.13404381600003, 38.782212632000039 ], [ 121.124115431000078, 38.778387762000079 ], [ 121.11451256600003, 38.768133856000077 ], [ 121.132416212000052, 38.758734442000033 ], [ 121.141368035000028, 38.742743231000077 ], [ 121.153086785000042, 38.727606512000072 ], [ 121.179535352000016, 38.720933335000041 ], [ 121.19849694100003, 38.727850653000068 ], [ 121.244720899000072, 38.775580145000049 ], [ 121.225596550000091, 38.776312567000048 ], [ 121.217539910000028, 38.775580145000049 ], [ 121.236664259, 38.798488674000055 ], [ 121.260752800000091, 38.795111395000049 ], [ 121.287608269000089, 38.788072007000039 ], [ 121.344737175000077, 38.814642645000049 ], [ 121.380137566000016, 38.816595770000056 ], [ 121.484955274000072, 38.809881903000075 ], [ 121.498871290000011, 38.814642645000049 ], [ 121.504893425000105, 38.82648346600007 ], [ 121.512217644000103, 38.826971747000073 ], [ 121.552744988000086, 38.858140367000082 ], [ 121.581065300000105, 38.862982489000039 ], [ 121.654795769000103, 38.857855536000031 ], [ 121.676117384, 38.871161200000067 ], [ 121.696299675000091, 38.862941799000048 ], [ 121.704844597000047, 38.87311432500006 ], [ 121.703623894000089, 38.891913153000068 ], [ 121.693614129000011, 38.909613348000043 ], [ 121.676768425000091, 38.921535549000055 ], [ 121.659190300000091, 38.92625560100003 ], [ 121.618174675000077, 38.926418361000053 ], [ 121.592539910000028, 38.935980536000038 ], [ 121.587412957000083, 38.94009023600006 ], [ 121.592133009, 38.948675848000057 ], [ 121.604340040000011, 38.951971747000059 ], [ 121.628916863000086, 38.954331773000028 ], [ 121.647797071000014, 38.959377346000046 ], [ 121.652598504000011, 38.963446356000077 ], [ 121.656341993000055, 38.974188544000071 ], [ 121.657806837000081, 38.983872789000081 ], [ 121.656016472000019, 38.990627346000046 ], [ 121.649261915, 38.994452216000063 ], [ 121.635752800000091, 38.995306708000044 ], [ 121.670909050000091, 39.007717190000044 ], [ 121.680186394000103, 39.008978583000044 ], [ 121.710459832000097, 39.006740627000035 ], [ 121.738780144000089, 39.001532294000079 ], [ 121.738780144000089, 39.008978583000044 ], [ 121.720062696000014, 39.019517320000041 ], [ 121.724701368000069, 39.030178127000063 ], [ 121.744883660000028, 39.033514716000063 ], [ 121.772471550000091, 39.021958726000037 ], [ 121.787119988000086, 39.006903387000079 ], [ 121.811534050000091, 38.972845770000042 ], [ 121.847911004000025, 38.947455145000049 ], [ 121.859873894000089, 38.944647528000075 ], [ 121.871348504000025, 38.950628973000043 ], [ 121.887543165000011, 38.962388414000088 ], [ 121.894786004000039, 38.970770575000067 ], [ 121.895274285000028, 38.981024481000077 ], [ 121.880137566000045, 38.997015692000048 ], [ 121.837982618000083, 39.015082098000043 ], [ 121.826914910000042, 39.036281643000059 ], [ 121.855967644000089, 39.03375885600007 ], [ 121.879405144000089, 39.027411200000074 ], [ 121.923187696000014, 39.008978583000044 ], [ 121.920258009, 39.020941473000043 ], [ 121.912933790000011, 39.03070709800005 ], [ 121.901947462000052, 39.038031317000048 ], [ 121.888438347000019, 39.042466539000081 ], [ 121.904307488000086, 39.049383856000077 ], [ 121.91724694100003, 39.046332098000043 ], [ 121.929453972000019, 39.039862372000073 ], [ 121.942963087000066, 39.036281643000059 ], [ 121.959320509000023, 39.04047272300005 ], [ 121.971283399000086, 39.049627997000066 ], [ 121.9804793630001, 39.058783270000049 ], [ 121.988047722000033, 39.062933661000052 ], [ 122.042328321000014, 39.059719143000052 ], [ 122.051280144000089, 39.067124742000075 ], [ 122.039317254000025, 39.090887762000072 ], [ 122.047862175000077, 39.099188544000064 ], [ 122.055674675000091, 39.101385809000071 ], [ 122.063975457000097, 39.101752020000042 ], [ 122.073334181000064, 39.104559637000079 ], [ 122.127452019000089, 39.141994533000052 ], [ 122.142670118000055, 39.146307684000071 ], [ 122.162689649000072, 39.146144924000055 ], [ 122.149912957000097, 39.154445705000064 ], [ 122.135834181000078, 39.158148505000028 ], [ 122.104502800000091, 39.159125067000048 ], [ 122.104014519000089, 39.163804429000031 ], [ 122.11060631600003, 39.17499420800003 ], [ 122.116709832000083, 39.188666083000051 ], [ 122.115000847000047, 39.200751044000079 ], [ 122.198578321, 39.251206773000028 ], [ 122.240244988000072, 39.285630601000037 ], [ 122.245371941000016, 39.310614325000074 ], [ 122.249522332000083, 39.31655508000005 ], [ 122.250743035000028, 39.319037177000041 ], [ 122.251475457000097, 39.32367584800005 ], [ 122.267425977000016, 39.318019924000055 ], [ 122.277110222000047, 39.328517971000046 ], [ 122.283702019000074, 39.343410549000062 ], [ 122.290049675000105, 39.350978908000066 ], [ 122.303558790000011, 39.354152736000067 ], [ 122.318858269000074, 39.362005927000048 ], [ 122.33326256600003, 39.372056382000039 ], [ 122.344737175000091, 39.382025458000044 ], [ 122.355967644000089, 39.387884833000044 ], [ 122.383311394000103, 39.395656643000052 ], [ 122.396332227000016, 39.411037502000056 ], [ 122.413828972000047, 39.413641669000064 ], [ 122.447032097000033, 39.412420966000063 ], [ 122.469818556000078, 39.416693427000034 ], [ 122.495616082000069, 39.42719147300005 ], [ 122.540049675000091, 39.454006252000049 ], [ 122.546478712000066, 39.456610419000057 ], [ 122.551117384000023, 39.455959377000049 ], [ 122.555430535000042, 39.456000067000033 ], [ 122.560069207000097, 39.460760809000071 ], [ 122.561045769000103, 39.467962958000044 ], [ 122.557220899000072, 39.473293361000053 ], [ 122.553233269000089, 39.477525132000039 ], [ 122.553233269000089, 39.481350002000049 ], [ 122.559556591092786, 39.485207852021134 ], [ 122.563751220703352, 39.48041915893554 ], [ 122.572082519531264, 39.464859008789062 ], [ 122.563751220703352, 39.48041915893554 ], [ 122.559556591092786, 39.485207852021134 ], [ 122.532931620842419, 39.515595827032485 ], [ 122.460534829825278, 39.529134048583138 ], [ 122.394719565264239, 39.525749740609911 ], [ 122.320128932095059, 39.515595827032485 ], [ 122.219212193101441, 39.507133098458027 ], [ 122.140233875628198, 39.507133098458027 ], [ 122.100744716891555, 39.520672969378481 ], [ 122.074418611067173, 39.547744793867416 ], [ 122.05906171600293, 39.556202573880498 ], [ 122.039317136634608, 39.539285982792357 ], [ 122.026154083722403, 39.513903363782781 ], [ 121.966920345617439, 39.508825726637141 ], [ 121.95814497700934, 39.476658741161749 ], [ 121.922073364257784, 39.442359924316399 ], [ 121.92041778564473, 39.432922363281307 ], [ 121.908470153808679, 39.440975189209034 ], [ 121.879585266113509, 39.431526184082024 ], [ 121.923469543457259, 39.402919769287237 ] ] ] ] } },
{ "type": "Feature", "properties": { "fid": 2 }, "geometry": { "type": "MultiPolygon", "coordinates": [ [ [ [ 122.402598504000025, 39.213812567000048 ], [ 122.382578972000033, 39.208319403000075 ], [ 122.354828321, 39.195624091000077 ], [ 122.330577019000089, 39.180121161000045 ], [ 122.321299675000077, 39.165961005000042 ], [ 122.333994988000086, 39.146307684000071 ], [ 122.355235222000033, 39.151556708000037 ], [ 122.376312696000014, 39.160589911000045 ], [ 122.388926629000025, 39.152329820000034 ], [ 122.402598504000025, 39.159125067000048 ], [ 122.397471550000077, 39.165838934000078 ], [ 122.388926629000025, 39.187079169000064 ], [ 122.38990319100003, 39.193548895000042 ], [ 122.392914259, 39.203802802000041 ], [ 122.402598504000025, 39.213812567000048 ] ] ] ] } },
{ "type": "Feature", "properties": { "fid": 3 }, "geometry": { "type": "MultiPolygon", "coordinates": [ [ [ [ 122.505056186000033, 39.296942450000074 ], [ 122.533457879000011, 39.271673895000049 ], [ 122.586192254000025, 39.258002020000042 ], [ 122.643077019000074, 39.255072333000044 ], [ 122.684418165000011, 39.262193101000037 ], [ 122.663259311000047, 39.27220286700009 ], [ 122.643890821, 39.27850983300003 ], [ 122.584727410000028, 39.284369208000044 ], [ 122.546560092000064, 39.296942450000074 ], [ 122.536631707000069, 39.298041083000037 ], [ 122.505056186000033, 39.296942450000074 ] ] ] ] } },
{ "type": "Feature", "properties": { "fid": 4 }, "geometry": { "type": "MultiPolygon", "coordinates": [ [ [ [ 122.718597852000016, 39.241888739000053 ], [ 122.662119988000086, 39.232733466000056 ], [ 122.63599694100003, 39.234279690000051 ], [ 122.63599694100003, 39.228013414000081 ], [ 122.683604363000086, 39.224310614000039 ], [ 122.697520379000025, 39.221258856000084 ], [ 122.693695509, 39.213771877000049 ], [ 122.692556186000033, 39.20766836100006 ], [ 122.692149285000042, 39.201402085000041 ], [ 122.690684441000016, 39.193304755000028 ], [ 122.725596550000105, 39.210028387000072 ], [ 122.73951256600003, 39.222235419000079 ], [ 122.741953972000033, 39.236070054000038 ], [ 122.718597852000016, 39.241888739000053 ] ] ] ] } },
{ "type": "Feature", "properties": { "fid": 5 }, "geometry": { "type": "MultiPolygon", "coordinates": [ [ [ [ 122.793376553015804, 39.239683426905842 ], [ 122.777325887403634, 39.231074892717857 ], [ 122.778986301087642, 39.225909261152339 ], [ 122.789502254419759, 39.226339745088552 ], [ 122.808320276171926, 39.232366240721227 ], [ 122.803892506347879, 39.237100978445028 ], [ 122.793376553015804, 39.239683426905842 ] ] ] ] } },
{ "type": "Feature", "properties": { "fid": 6 }, "geometry": { "type": "MultiPolygon", "coordinates": [ [ [ [ 122.987921689659757, 39.267137030740329 ], [ 122.967166518609545, 39.265631208551973 ], [ 122.965782840539532, 39.258531893243031 ], [ 122.976575529485643, 39.254228925160753 ], [ 122.993733137553804, 39.257025884696375 ], [ 122.998160907377851, 39.264555601307109 ], [ 122.987921689659757, 39.267137030740329 ] ] ] ] } },
{ "type": "Feature", "properties": { "fid": 7 }, "geometry": { "type": "MultiPolygon", "coordinates": [ [ [ [ 122.467330111792876, 39.27217860869321 ], [ 122.452109653022717, 39.277986053276202 ], [ 122.442977377760613, 39.27389938360129 ], [ 122.448788825654674, 39.267016028376695 ], [ 122.458751307758774, 39.265725323394214 ], [ 122.467330111792876, 39.27217860869321 ] ] ] ] } },
{ "type": "Feature", "properties": { "fid": 8 }, "geometry": { "type": "MultiPolygon", "coordinates": [ [ [ [ 122.462902341968828, 39.242488536588809 ], [ 122.460965192670784, 39.235171645331327 ], [ 122.462072135126817, 39.228284456729902 ], [ 122.477846065124979, 39.237754165380686 ], [ 122.47065093916089, 39.241197376383688 ], [ 122.462902341968828, 39.242488536588809 ] ] ] ] } },
{ "type": "Feature", "properties": { "fid": 9 }, "geometry": { "type": "MultiPolygon", "coordinates": [ [ [ [ 122.568061875289899, 39.236032495994991 ], [ 122.517419257927372, 39.229575856496034 ], [ 122.52682826880347, 39.22354911930757 ], [ 122.542602198801632, 39.223979617835823 ], [ 122.551734474063707, 39.21579969067627 ], [ 122.569722288973907, 39.225486341724682 ], [ 122.572766380727913, 39.234095567029179 ], [ 122.568061875289899, 39.236032495994991 ] ] ] ] } },
{ "type": "Feature", "properties": { "fid": 10 }, "geometry": { "type": "MultiPolygon", "coordinates": [ [ [ [ 122.60269166198745, 39.21268908179151 ], [ 122.5977104209354, 39.19288018445021 ], [ 122.614314557775572, 39.196325614572729 ], [ 122.614868029003574, 39.211397368833566 ], [ 122.609333316723536, 39.218286227822375 ], [ 122.60269166198745, 39.21268908179151 ] ] ] ] } },
{ "type": "Feature", "properties": { "fid": 11 }, "geometry": { "type": "MultiPolygon", "coordinates": [ [ [ [ 123.180674675000105, 39.091945705000057 ], [ 123.176280144000089, 39.08999258000005 ], [ 123.168142123000038, 39.083929755000035 ], [ 123.143565300000091, 39.080877997000073 ], [ 123.143321160000013, 39.075832424000048 ], [ 123.150889519000089, 39.07343170800003 ], [ 123.159190300000091, 39.071682033000052 ], [ 123.164724155000059, 39.066392320000034 ], [ 123.164886915000011, 39.060492255000035 ], [ 123.153086785000042, 39.062323309000071 ], [ 123.14812259200005, 39.056341864000046 ], [ 123.14519290500003, 39.043280341000077 ], [ 123.149912957000083, 39.036566473000043 ], [ 123.160655144000089, 39.029242255000042 ], [ 123.172536655000044, 39.033677476000022 ], [ 123.185231967000064, 39.042303778000075 ], [ 123.195567254000039, 39.052069403000075 ], [ 123.195811394000089, 39.065334377000063 ], [ 123.18482506600003, 39.086127020000049 ], [ 123.180674675000105, 39.091945705000057 ] ] ] ] } },
{ "type": "Feature", "properties": { "fid": 12 }, "geometry": { "type": "MultiPolygon", "coordinates": [ [ [ [ 122.73909637572703, 39.024504961398911 ], [ 122.719724882746846, 39.021914546297147 ], [ 122.706441573274702, 39.033138987321323 ], [ 122.701460332222652, 39.024073232193508 ], [ 122.709762400642745, 39.018028744234918 ], [ 122.707548515730707, 39.011551929053205 ], [ 122.741310260639068, 38.999028390756166 ], [ 122.754593570111183, 39.010256494257114 ], [ 122.740756789411066, 39.016733429039128 ], [ 122.74407761677908, 39.023209765808808 ], [ 122.73909637572703, 39.024504961398911 ] ] ] ] } },
{ "type": "Feature", "properties": { "fid": 13 }, "geometry": { "type": "MultiPolygon", "coordinates": [ [ [ [ 122.775072005547401, 39.088802905749922 ], [ 122.770644235723353, 39.078881572168449 ], [ 122.777839361687441, 39.070684626971044 ], [ 122.787248372563511, 39.07845017793047 ], [ 122.785587958879503, 39.083626733292483 ], [ 122.775072005547401, 39.088802905749922 ] ] ] ] } },
{ "type": "Feature", "properties": { "fid": 14 }, "geometry": { "type": "MultiPolygon", "coordinates": [ [ [ [ 122.803852509403697, 39.091390848385196 ], [ 122.814368462735814, 39.0810385034737 ], [ 122.819903175015867, 39.085783518350752 ], [ 122.807173336771726, 39.096997729014639 ], [ 122.803852509403697, 39.091390848385196 ] ] ] ] } },
{ "type": "Feature", "properties": { "fid": 15 }, "geometry": { "type": "MultiPolygon", "coordinates": [ [ [ [ 122.848683678872149, 39.075861756664466 ], [ 122.852004506240164, 39.055582478532777 ], [ 122.857539218520245, 39.054287857124649 ], [ 122.871929470448364, 39.065075637744819 ], [ 122.865841286940309, 39.068958831990223 ], [ 122.854218391152202, 39.081469881757734 ], [ 122.848683678872149, 39.075861756664466 ] ] ] ] } },
{ "type": "Feature", "properties": { "fid": 16 }, "geometry": { "type": "MultiPolygon", "coordinates": [ [ [ [ 122.822117059927876, 39.063349704508653 ], [ 122.819349703787836, 39.054719400252566 ], [ 122.803852509403697, 39.047814391187671 ], [ 122.810494164139769, 39.042635187775254 ], [ 122.831526070803974, 39.050403849340888 ], [ 122.828205243435931, 39.065075637744819 ], [ 122.822117059927876, 39.063349704508653 ] ] ] ] } },
{ "type": "Feature", "properties": { "fid": 17 }, "geometry": { "type": "MultiPolygon", "coordinates": [ [ [ [ 121.340586785000042, 39.481350002000049 ], [ 121.33130944100003, 39.475775458000037 ], [ 121.327321811000047, 39.468451239000046 ], [ 121.324717644000089, 39.460760809000071 ], [ 121.320160352, 39.454006252000049 ], [ 121.311045769000074, 39.447943427000041 ], [ 121.302907748000052, 39.445217190000058 ], [ 121.294769727, 39.443345445000027 ], [ 121.265879754000025, 39.433579820000034 ], [ 121.2617293630001, 39.427801825000067 ], [ 121.258636915, 39.412420966000063 ], [ 121.257578972000033, 39.399644273000035 ], [ 121.25945071700005, 39.391506252000049 ], [ 121.264414910000042, 39.386908270000042 ], [ 121.272959832000083, 39.385077216000063 ], [ 121.29615319100003, 39.391424872000073 ], [ 121.313324415000025, 39.408433335000034 ], [ 121.327321811000047, 39.427639065000051 ], [ 121.340586785000042, 39.440334377000049 ], [ 121.351898634000023, 39.444281317000041 ], [ 121.364268425000077, 39.44546133000005 ], [ 121.375254754000025, 39.442368882000039 ], [ 121.381602410000042, 39.433539130000035 ], [ 121.379649285000028, 39.424872137000072 ], [ 121.371755405000044, 39.417547919000064 ], [ 121.354258660000028, 39.406195380000035 ], [ 121.336110873000038, 39.387355861000046 ], [ 121.336924675000091, 39.377386786000038 ], [ 121.353200717000036, 39.373195705000057 ], [ 121.403493686000047, 39.370591539000088 ], [ 121.421722852, 39.373683986000053 ], [ 121.433604363000086, 39.385809637000072 ], [ 121.436045769000089, 39.409816799000055 ], [ 121.435557488000072, 39.416205145000049 ], [ 121.431976759000023, 39.424261786000038 ], [ 121.425547722000033, 39.430121161000045 ], [ 121.416270379000025, 39.433539130000035 ], [ 121.416270379000025, 39.440334377000049 ], [ 121.443125847000019, 39.441148179000031 ], [ 121.450450066000016, 39.450262762000079 ], [ 121.442393425000091, 39.462876695000034 ], [ 121.422536655000044, 39.474514065000044 ], [ 121.413259311000047, 39.476507880000035 ], [ 121.388438347000033, 39.474514065000044 ], [ 121.352549675000091, 39.482407945000041 ], [ 121.340586785000042, 39.481350002000049 ] ] ] ] } },
{ "type": "Feature", "properties": { "fid": 18 }, "geometry": { "type": "MultiPolygon", "coordinates": [ [ [ [ 121.57457129203344, 39.316935978785175 ], [ 121.554646327825239, 39.321235064871416 ], [ 121.552432442913229, 39.308337007652774 ], [ 121.564608809929339, 39.306617085596777 ], [ 121.57457129203344, 39.316935978785175 ] ] ] ] } },
{ "type": "Feature", "properties": { "fid": 19 }, "geometry": { "type": "MultiPolygon", "coordinates": [ [ [ [ 121.511475572040808, 39.207649920187123 ], [ 121.494871435200636, 39.202482550897095 ], [ 121.497085320112646, 39.189562451142699 ], [ 121.508154744672765, 39.195592129069695 ], [ 121.511475572040808, 39.207649920187123 ] ] ] ] } },
{ "type": "Feature", "properties": { "fid": 20 }, "geometry": { "type": "MultiPolygon", "coordinates": [ [ [ [ 121.482695068184498, 39.191285269485071 ], [ 121.46719787380033, 39.201621285424864 ], [ 121.460556219064273, 39.196453469053893 ], [ 121.482695068184498, 39.179224647018749 ], [ 121.486015895552541, 39.182670752022432 ], [ 121.482695068184498, 39.191285269485071 ] ] ] ] } }
]
}
