{"type": "FeatureCollection", "features": [{"type": "Feature", "properties": {"fid": 5}, "geometry": {"type": "Polygon", "coordinates": [[[111.96539315899426, 39.614775088380625], [111.78072621671873, 39.49766922254738], [111.58705113091759, 39.488661079021746], [111.45192897803305, 39.46614072020766], [111.32131089691136, 39.52018958136147], [111.24023760518064, 39.596758801329365], [111.13213988287302, 39.59225472956655], [110.9699932994116, 39.52469365312429], [110.77181414184763, 39.37605928495131], [110.60065941486057, 39.22292084501552], [110.28537439146336, 39.01122947216311], [110.19529295620701, 38.934660252195215], [110.10070744918785, 38.7499933099197], [109.91153643514953, 38.556318224118556], [109.64129212938047, 38.412187927708395], [109.34852746479734, 38.22752098543288], [108.69093298742601, 37.72306494799734], [108.56932304982995, 37.63298351274099], [108.4567212557595, 37.58343872335], [108.19998916527892, 37.57893465158718], [107.92073671598423, 37.59244686687563], [107.70454127136901, 37.601455010401274], [107.56041097495884, 37.63748758450381], [107.39376031973461, 37.74108123504861], [107.2090933774591, 37.87620338793313], [107.08748343986302, 37.97979703847793], [106.89380835406187, 38.11942326312527], [106.56050704361338, 38.31309834892642], [106.43889710601732, 38.434708286522486], [106.4614174648314, 38.53830193706728], [106.65509255063255, 38.70495259229153], [106.93434499992722, 38.97519689806057], [107.0064101481323, 39.14184755328481], [106.91632871287595, 39.29048192145779], [106.89831242582468, 39.4751488637333], [106.93434499992722, 39.65981580600881], [106.97037757402975, 39.96609268588039], [106.96587350226694, 40.17778405873281], [107.12351601396554, 40.430012077450584], [107.10549972691427, 40.60567087620046], [107.10099565515146, 40.722776742033716], [106.99289793284385, 40.78132967495034], [106.82174320585678, 40.80835410552724], [106.57401925890183, 40.844386679629785], [106.36232788604941, 40.89393146902077], [106.15964465672263, 40.94798033017458], [105.92543292505613, 41.0560780524822], [105.62366011694736, 41.155167631264185], [105.41647281585776, 41.27677756886025], [105.20027737124252, 41.357850860590965], [105.02011450072983, 41.42090786527041], [104.75887833848643, 41.51549337228957], [104.50665031976865, 41.62359109459719], [104.27243858810215, 41.75420917571889], [103.9266631101543, 41.96623483514746], [104.06628933480164, 42.03379591158972], [104.2374440617887, 42.096852916269164], [104.42661507582703, 42.15990992094861], [104.72388381217297, 42.27251171501904], [105.14276248611499, 42.46618680082019], [105.34544571544177, 42.56978045136499], [105.84089360935168, 42.70940667601233], [106.17419491980017, 42.74093517835205], [106.44894329733204, 42.8310166136084], [106.62009802431909, 42.876057331236574], [107.05699298531239, 43.04270798646081], [107.14257034880592, 43.09675684761462], [107.24616399935071, 43.14179756524279], [107.38579022399806, 43.14630163700561], [107.53442459217102, 43.09675684761462], [107.71458746268372, 43.00217134059545], [107.88574218967078, 42.916593977101925], [108.03888062960657, 42.87605733123657], [108.1740027824911, 42.87605733123657], [108.35866972476661, 42.849032900659665], [108.5613529540934, 42.7814718242174], [108.7460198963689, 42.70940667601232], [109.00725605861231, 42.59680488194189], [109.23696371851601, 42.515731590211175], [109.34956551258644, 42.49771530315991], [108.79885238265882, 42.33196461669154], [108.3285401989767, 42.23893583310607], [108.22032626293546, 42.22006451271588], [108.19416528935324, 42.00119560838764], [108.22000661812699, 41.69626792885747], [108.26135274416497, 41.55155648772452], [108.30269887020296, 41.15876829036363], [108.53527082916665, 40.84350407932397], [108.78851585114931, 40.76598009300274], [109.18130404851021, 40.69362437243626], [109.963623046875, 40.50812409061911], [110.1828895419551, 40.46123301962272], [110.86484375000002, 40.25880768436911], [110.8798828125, 40.25531647343161], [110.94130859375002, 40.253290106244116], [110.96484374999999, 40.26264069218162], [110.98740234375002, 40.26166412968161], [110.99658203124999, 40.265887762494124], [111.014892578125, 40.28339264530662], [111.03466796874999, 40.29689362186911], [111.06103515625, 40.267206121869116], [111.22440837056057, 40.05895868001844], [111.25902949505715, 40.0057316989646], [111.29365061955373, 39.96356398500526], [111.3628928685469, 39.89915217174876], [111.42203728956187, 39.8680349512413], [111.45088822664236, 39.82800618365728], [111.45810096091247, 39.82355709076269], [111.82904400198768, 39.79540657768381], [111.98463056263131, 40.012387361036154], [112.026464421398, 40.06450074942937], [112.07118337387274, 40.11768149621818], [112.11734487320155, 40.17303356743797], [112.15052345084409, 40.21285890901705], [112.18514457534066, 40.242712445712606], [112.21255296556714, 40.25818683637314], [112.2356337152315, 40.26260743589518], [112.25438682433382, 40.25818683637314], [112.29045049568444, 40.22612878468857], [112.26592719916601, 40.174140145188915], [112.23996135579358, 40.11546646794117], [112.18370202848664, 40.04676452806029], [112.15177491058401, 40.0086892610488], [112.0610855458946, 39.84135171997016], [112.04521753050034, 39.770145328392886], [112.03477406787103, 39.749682411196574], [112.02580804810015, 39.732248483864296], [112.01059640600374, 39.70555034480269], [111.97741782836118, 39.67991819761346], [111.97309018779912, 39.65650655519324], [111.97547528588933, 39.63437922400993], [111.96539315899426, 39.614775088380625]]]}}], "crs": {"type": "name", "properties": {"name": "urn:ogc:def:crs:OGC:1.3:CRS84"}}}