{
"type": "FeatureCollection",
"name": "mengjiang-actual-occupied",
"crs": { "type": "name", "properties": { "name": "urn:ogc:def:crs:OGC:1.3:CRS84" } },
"features": [
{ "type": "Feature", "properties": { "fid": 1 }, "geometry": { "type": "Polygon", "coordinates": [ [ [ 116.098019753621728, 40.348358182719217 ], [ 116.086759574214682, 40.276293034514133 ], [ 116.131800291842865, 40.233504352767369 ], [ 116.077751430689048, 40.210983993953285 ], [ 115.958393528974383, 40.276293034514133 ], [ 115.906596703701993, 40.265032855107094 ], [ 115.899840596057771, 40.21323602983469 ], [ 115.805255089038596, 40.192967706902017 ], [ 115.748954192003382, 40.123154594578345 ], [ 115.694905330849579, 40.132162738103979 ], [ 115.625092218525907, 40.201975850427651 ], [ 115.541766890913777, 40.204227886309056 ], [ 115.462945635064472, 40.150179025155246 ], [ 115.449433419776028, 40.082617948712986 ], [ 115.393132522740814, 40.035325195203406 ], [ 115.386376415096578, 39.900203042318886 ], [ 115.287286836314593, 39.83489400175803 ], [ 115.05082306876669, 39.789853284129855 ], [ 115.005782351138507, 39.708779992399144 ], [ 114.884172413542444, 39.677251490059426 ], [ 114.778326727116237, 39.539877301293494 ], [ 114.694016133806031, 39.455632685596974 ], [ 114.567902124447144, 39.392575680917524 ], [ 114.554389909158701, 39.361047178577806 ], [ 114.504845119767708, 39.275469815084271 ], [ 114.522861406818976, 39.171876164539476 ], [ 114.509349191530518, 39.023241796366499 ], [ 114.419267756274166, 38.951176648161422 ], [ 114.248113029287111, 38.919648145821704 ], [ 114.031917584671874, 38.960184791687055 ], [ 113.860762857684819, 39.050266226943407 ], [ 113.522957475473518, 39.162868021013843 ], [ 113.405851609640266, 39.171876164539476 ], [ 113.203168380313485, 39.158363949251026 ], [ 113.04102179685205, 39.122331375148484 ], [ 112.860858926339361, 39.063778442231857 ], [ 112.70321641464075, 38.97820107873833 ], [ 112.496029113551145, 38.915144074058887 ], [ 112.270825525410288, 38.879111499956345 ], [ 112.171735946628303, 38.987209222263964 ], [ 112.12669522900012, 39.117827303385667 ], [ 112.226978434107366, 39.197821629455881 ], [ 112.203897684442978, 39.250556965951816 ], [ 112.188029669048703, 39.313338403839225 ], [ 112.153408544552121, 39.332385830115115 ], [ 112.108689592077383, 39.364866429779703 ], [ 112.075511014434809, 39.395093306605567 ], [ 112.040889889938242, 39.424188198031501 ], [ 112.007711312295683, 39.449915784942682 ], [ 111.999056031171534, 39.496871878365042 ], [ 111.991843296901408, 39.539328431970695 ], [ 111.988958203193377, 39.602964207165051 ], [ 111.975975281507175, 39.629740601945898 ], [ 111.973090187799116, 39.656506555193239 ], [ 111.977417828361183, 39.679918197613461 ], [ 112.010596406003742, 39.705550344802688 ], [ 112.026464421398018, 39.733400492665972 ], [ 112.045217530500338, 39.770145328392886 ], [ 112.061085545894599, 39.841351719970163 ], [ 112.15177491058401, 40.008689261048801 ], [ 112.183702028486636, 40.046764528060287 ], [ 112.239961355793582, 40.115466467941168 ], [ 112.265927199166015, 40.174140145188915 ], [ 112.290450495684439, 40.226128784688569 ], [ 112.254386824333821, 40.258186836373142 ], [ 112.235633715231501, 40.262607435895177 ], [ 112.212552965567141, 40.258186836373142 ], [ 112.185144575340658, 40.242712445712606 ], [ 112.150523450844091, 40.212858909017051 ], [ 112.117344873201546, 40.173033567437969 ], [ 112.071183373872742, 40.117681496218182 ], [ 112.026464421398003, 40.064500749429371 ], [ 111.98463056263131, 40.012387361036154 ], [ 111.829044001987683, 39.795406577683814 ], [ 111.458100960912475, 39.823557090762691 ], [ 111.450888226642363, 39.82800618365728 ], [ 111.422037289561871, 39.868034951241299 ], [ 111.362892868546894, 39.89915217174876 ], [ 111.293650619553731, 39.963563985005258 ], [ 111.259029495057149, 40.005731698964603 ], [ 111.224408370560568, 40.058958680018442 ], [ 111.06103515625, 40.267206121869116 ], [ 111.034667968749986, 40.29689362186911 ], [ 111.014892578125, 40.28339264530662 ], [ 110.996582031249986, 40.265887762494124 ], [ 110.98740234375002, 40.261664129681613 ], [ 110.964843749999986, 40.26264069218162 ], [ 110.941308593750023, 40.253290106244116 ], [ 110.8798828125, 40.255316473431613 ], [ 110.86484375000002, 40.25880768436911 ], [ 110.182889541955106, 40.461233019622718 ], [ 109.963623046875, 40.508124090619113 ], [ 109.181304048510214, 40.693624372436261 ], [ 108.788515851149313, 40.765980093002739 ], [ 108.535270829166649, 40.843504079323971 ], [ 108.30269887020296, 41.158768290363632 ], [ 108.261352744164967, 41.551556487724518 ], [ 108.220006618126988, 41.696267928857473 ], [ 108.194165289353236, 42.00119560838764 ], [ 108.220326262935458, 42.220064512715879 ], [ 108.328540198976697, 42.238935833106069 ], [ 108.798852382658822, 42.331964616691543 ], [ 109.349565512586437, 42.497715303159907 ], [ 109.453159163131247, 42.515731590211175 ], [ 109.570265028964485, 42.623829312518794 ], [ 109.637826105406759, 42.758951465403314 ], [ 109.795468617105357, 42.970642838255735 ], [ 109.885550052361708, 43.146301637005607 ], [ 110.016168133483419, 43.344480794569577 ], [ 110.223355434573008, 43.641749530915519 ], [ 110.556656745021485, 43.975050841364002 ], [ 110.660250395566294, 44.047115989569079 ], [ 110.808884763739258, 44.114677066011346 ], [ 110.99355170601477, 44.173229998927965 ], [ 111.178218648290283, 44.2588073624215 ], [ 111.263796011783811, 44.32636843886376 ], [ 111.353877447040176, 44.709214538703236 ], [ 111.502511815213154, 44.826320404536489 ], [ 111.613117721801189, 44.847500258989513 ], [ 111.925894560917982, 44.907393696267199 ], [ 112.371797665436901, 44.974954772709459 ], [ 112.461879100693253, 45.047019920914536 ], [ 112.447142709557866, 45.120701876591511 ], [ 112.443862813641985, 45.137101356170888 ], [ 112.304236588994655, 45.366809016074576 ], [ 112.236675512552395, 45.70011032652306 ], [ 112.254691799603663, 45.943330201715199 ], [ 112.232171440789571, 46.137005287516345 ], [ 112.236675512552395, 46.321672229791858 ], [ 112.245683656078029, 46.443282167387927 ], [ 112.358285450148458, 46.623445037900623 ], [ 112.646546042968765, 46.700014257868517 ], [ 112.835717057007102, 46.700014257868517 ], [ 113.05191250162234, 46.709022401394151 ], [ 113.403230099122084, 46.686502042580067 ], [ 113.786076198961567, 46.672989827291616 ], [ 114.03830421767934, 46.668485755528799 ], [ 114.17342637056386, 46.650469468477532 ], [ 114.299540379922746, 46.600924679086539 ], [ 114.412142173993189, 46.479314741490469 ], [ 114.461686963384182, 46.384729234471301 ], [ 114.560776542166153, 46.254111153349598 ], [ 114.64184983389687, 46.123493072227895 ], [ 114.785980130307024, 46.028907565208726 ], [ 114.916598211428735, 45.911801699375481 ], [ 115.168826230146507, 45.794695833542228 ], [ 115.367005387710464, 45.772175474728137 ], [ 115.632745621716694, 45.785687690016594 ], [ 115.925510286299826, 45.844240622933221 ], [ 116.26781974027395, 45.938826129952382 ], [ 116.53806404604299, 46.024403493445917 ], [ 116.862357212965847, 46.109980856939444 ], [ 117.231691097516872, 46.195558220432972 ], [ 117.366813250401393, 46.254111153349598 ], [ 117.420862111555195, 46.389233306234118 ], [ 117.551480192676905, 46.537867674407096 ], [ 118.308164248830209, 46.700014257868517 ], [ 118.501839334631356, 46.776583477836411 ], [ 118.560392267547982, 46.776583477836411 ], [ 118.636961487515876, 46.731542760208235 ], [ 118.758571425111953, 46.767575334310777 ], [ 118.871173219182381, 46.83063233899022 ], [ 118.952246510913099, 46.781087549599228 ], [ 119.136913453188612, 46.704518329631334 ], [ 119.335092610752568, 46.68199797081725 ], [ 119.579127972046848, 46.767366395444682 ], [ 119.580020084203525, 46.766200136892046 ], [ 119.573438557747437, 46.740647644405705 ], [ 119.573438557747437, 46.707561727741862 ], [ 119.586601610659642, 46.666928550197035 ], [ 119.634866138004384, 46.618731128243809 ], [ 119.65680455952473, 46.585570492211474 ], [ 119.67874298104509, 46.534282312480627 ], [ 119.709456771173564, 46.501070008110013 ], [ 119.784047404342743, 46.46028170718764 ], [ 119.836699615991591, 46.401311287066036 ], [ 119.858638037511923, 46.339247943729838 ], [ 119.849862668903796, 46.311978344606104 ], [ 119.830118089535475, 46.257398363748223 ], [ 119.827924247383422, 46.187578139192098 ], [ 119.830118089535475, 46.11462758008409 ], [ 119.852056511055807, 46.046148610871782 ], [ 119.884964143336333, 45.982158222053883 ], [ 119.913484091312782, 45.915041252881117 ], [ 119.902514880552602, 45.870760633819565 ], [ 119.887157985488329, 45.843258353596518 ], [ 119.867413406120065, 45.831030751768274 ], [ 119.838893458143588, 45.831030751768274 ], [ 119.799404299406973, 45.843258353596518 ], [ 119.764302824974408, 45.847843011566411 ], [ 119.722619824085768, 45.838673317782686 ], [ 119.687518349653203, 45.808096756215214 ], [ 119.67435529674097, 45.777503400991009 ], [ 119.643641506612525, 45.739238090126456 ], [ 119.619509242940111, 45.696349787661461 ], [ 119.599764663571818, 45.659562184807264 ], [ 119.558081662683136, 45.625818968744333 ], [ 119.544918609770932, 45.6135436694858 ], [ 119.518592503946522, 45.599730745490284 ], [ 119.492266398122112, 45.588985008629734 ], [ 119.45058339723343, 45.578237214162307 ], [ 119.437420344321254, 45.558271565426544 ], [ 119.430838817865137, 45.536762160900587 ], [ 119.422063449256981, 45.509095118086044 ], [ 119.404512712040727, 45.479876256364612 ], [ 119.35844202684801, 45.466030451568599 ], [ 119.354054342543932, 45.449103181777105 ], [ 119.367217395456109, 45.422932860744353 ], [ 119.365023553304098, 45.39983132190892 ], [ 119.356248184695957, 45.370555807750094 ], [ 119.356248184695957, 45.339723098091333 ], [ 119.391349659128522, 45.333554540267343 ], [ 119.448389555081434, 45.328927680920373 ], [ 119.463746450145663, 45.304244714010679 ], [ 119.457164923689547, 45.247124173361939 ], [ 119.454971081537522, 45.211587830814906 ], [ 119.446195712929395, 45.19149224406609 ], [ 119.42425729140902, 45.186853792973487 ], [ 119.391349659128522, 45.180668603517134 ], [ 119.354054342543932, 45.174482742060476 ], [ 119.327728236719508, 45.165202689872977 ], [ 119.288239077982865, 45.146638049478405 ], [ 119.248749919246222, 45.129615149412217 ], [ 119.193903865445392, 45.123423743921627 ], [ 119.145639338100622, 45.126519530667814 ], [ 119.079824073539555, 45.117231666423585 ], [ 119.038141072650916, 45.08316322802591 ], [ 119.031559546194799, 45.064571875312382 ], [ 119.009621124674467, 45.049074461302723 ], [ 118.985488861002082, 45.032022454800504 ], [ 118.974519650241888, 44.97462840891157 ], [ 119.009621124674467, 44.95134417214171 ], [ 119.044722599107033, 44.928050485193758 ], [ 119.053497967715174, 44.895423447199406 ], [ 119.038141072650916, 44.870552319411587 ], [ 119.011814966826506, 44.847225872011343 ], [ 118.998651913914301, 44.81922166105911 ], [ 119.011814966826506, 44.800544627082992 ], [ 119.02936570404276, 44.778747110142852 ], [ 119.020590335434647, 44.758499187767626 ], [ 118.996458071762234, 44.75382558231022 ], [ 118.948193544417506, 44.749151598859093 ], [ 118.902122859224761, 44.716423130922855 ], [ 118.871409069096288, 44.688355416821906 ], [ 118.827532226055553, 44.62281116624272 ], [ 118.825338383903514, 44.566571415881668 ], [ 118.80778764668726, 44.513406120787579 ], [ 118.74416622427826, 44.457060542 ], [ 118.687126328325334, 44.41946658750625 ], [ 118.581821905027681, 44.366167081129653 ], [ 118.52039432477072, 44.306539601596441 ], [ 118.472129797425978, 44.26413586312281 ], [ 118.423865270081208, 44.215412343086591 ], [ 118.370498799999979, 44.1828012 ], [ 118.30101010956723, 44.16192725023469 ], [ 118.24287329253832, 44.152483666416977 ], [ 118.198996449497614, 44.146974211230379 ], [ 118.184736475509382, 44.139102668842007 ], [ 118.181445712281345, 44.105243077090627 ], [ 118.1777931, 44.0874483 ], [ 118.193511844117523, 44.046139209270812 ], [ 118.18912415981346, 44.017748384674405 ], [ 118.197899528421587, 43.983030018479717 ], [ 118.21106258133382, 43.956188275501304 ], [ 118.197899528421587, 43.919853668687502 ], [ 118.18034879120529, 43.902468399395225 ], [ 118.134278106012587, 43.902468399395225 ], [ 118.086013578667817, 43.913532340169127 ], [ 118.055299788539344, 43.916693088369968 ], [ 118.007035261194574, 43.915112735254922 ], [ 117.960964576001842, 43.905629735182139 ], [ 117.910506206505048, 43.910371424085675 ], [ 117.846884784096048, 43.918273399514192 ], [ 117.774487993078893, 43.948291336681343 ], [ 117.743774202950391, 43.953029625891666 ], [ 117.710866570669879, 43.965663216976083 ], [ 117.669183569781239, 43.970400121072601 ], [ 117.5850072, 43.9343457 ], [ 117.546328409267289, 43.930914377707666 ], [ 117.495870039770494, 43.919853668687502 ], [ 117.445411670273671, 43.924594224381046 ], [ 117.401534827232965, 43.938813625004038 ], [ 117.373014879256516, 43.956188275501304 ], [ 117.313781141151608, 43.964084164996841 ], [ 117.265516613806838, 43.956188275501304 ], [ 117.223833612918185, 43.949870808390791 ], [ 117.149242979748976, 43.93881362500403 ], [ 117.087815399492015, 43.926174325669813 ], [ 117.0571016093635, 43.919853668687502 ], [ 117.019806292778938, 43.916693088369968 ], [ 116.97812329189027, 43.916693088369968 ], [ 116.947409501761797, 43.902468399395225 ], [ 116.938634133153656, 43.870845808236517 ], [ 116.958378712521949, 43.847117848167088 ], [ 116.960572554674002, 43.817048876828316 ], [ 116.94960334391385, 43.77429322584387 ], [ 116.934246448849592, 43.734677384508004 ], [ 116.899144974417027, 43.704551805774003 ], [ 116.822360499095794, 43.661715717146102 ], [ 116.765320603142911, 43.63790467415992 ], [ 116.732412970862413, 43.61726080137538 ], [ 116.699505338581901, 43.583898030143075 ], [ 116.673179232757491, 43.542566110895898 ], [ 116.657822337693219, 43.494840199910286 ], [ 116.631496231868823, 43.461409601606313 ], [ 116.585425546676078, 43.431146932465474 ], [ 116.570068651611848, 43.410432172551367 ], [ 116.563487125155746, 43.384927354254764 ], [ 116.526191808571156, 43.346649998600448 ], [ 116.475733439074361, 43.301962558092626 ], [ 116.4497716, 43.2668461 ], [ 116.407724332361241, 43.223680443606142 ], [ 116.398948963753099, 43.178902615770696 ], [ 116.377010542232767, 43.132490936254875 ], [ 116.328746014888011, 43.100462344489578 ], [ 116.287063013999358, 43.08123714290803 ], [ 116.2717061189351, 43.052388025817201 ], [ 116.273899961087153, 42.976995769921714 ], [ 116.262930750326944, 42.904724969863778 ], [ 116.295838382607499, 42.853280793322618 ], [ 116.341909067800188, 42.817888043111616 ], [ 116.383592068688884, 42.793745000955845 ], [ 116.449407333249923, 42.737374595176696 ], [ 116.574456335915897, 42.687403688313537 ], [ 116.609557810348463, 42.642234095784168 ], [ 116.629302389716756, 42.597031686050997 ], [ 116.638077758324926, 42.545331610417428 ], [ 116.655628495541166, 42.509762951042802 ], [ 116.684148443517614, 42.491971026846613 ], [ 116.736800655166491, 42.475792157097416 ], [ 116.767514445294964, 42.402935471837559 ], [ 116.774095971751052, 42.370527533229449 ], [ 116.767514445294964, 42.339724495713256 ], [ 116.741188339470526, 42.317017860221753 ], [ 116.728025286558292, 42.28294253950498 ], [ 116.743382181622579, 42.245600793308753 ], [ 116.756545234534755, 42.21961088248063 ], [ 116.747769865926642, 42.195235621818725 ], [ 116.749963708078695, 42.175728641697361 ], [ 116.771902129599027, 42.157841955933485 ], [ 116.793840551119374, 42.120426180853904 ], [ 116.79164670896732, 42.087872754954518 ], [ 116.789452866815282, 42.024345503693887 ], [ 116.774095971751052, 41.996634252246487 ], [ 116.745576023774589, 41.981958702518128 ], [ 116.721443760102233, 41.993373311358866 ], [ 116.688536127821692, 42.014566440501746 ], [ 116.649046969085049, 42.029234471337752 ], [ 116.598588599588282, 42.027604857231367 ], [ 116.539354861483332, 42.02108598305847 ], [ 116.50000044155631, 41.998728746095047 ], [ 116.440631964641781, 41.97380415744415 ], [ 116.3777904, 41.9417892 ], [ 116.280481487543241, 41.928119409693807 ], [ 116.11155564183656, 41.916693106983821 ], [ 116.043546535123468, 41.90526475814039 ], [ 116.012832744994995, 41.869333770588568 ], [ 116.004057376386839, 41.836651701249274 ], [ 115.99966969208279, 41.754873478711538 ], [ 115.968955901954317, 41.705756465036217 ], [ 115.909722163849366, 41.684460763631783 ], [ 115.854876110048494, 41.661519046310609 ], [ 115.786867003335416, 41.651684378740832 ], [ 115.679368737885738, 41.627091139946252 ], [ 115.628910368388915, 41.566387694489862 ], [ 115.602584262564505, 41.410266076003232 ], [ 115.616962, 41.315234 ], [ 115.6576558, 41.3183485 ], [ 115.689013699999975, 41.3513773 ], [ 115.727760399999966, 41.36835 ], [ 115.7756663, 41.3351407 ], [ 115.7756986, 41.3350814 ], [ 115.775695, 41.3349574 ], [ 115.775756, 41.3348765 ], [ 115.775914, 41.3348011 ], [ 115.7761509, 41.3346447 ], [ 115.7760935, 41.3344022 ], [ 115.776441600000012, 41.3340976 ], [ 115.776753900000017, 41.3338712 ], [ 115.776969300000019, 41.3336799 ], [ 115.7772816, 41.33344 ], [ 115.7773677, 41.3333942 ], [ 115.777762599999988, 41.3330842 ], [ 115.778060499999981, 41.3328443 ], [ 115.778401499999973, 41.3325829 ], [ 115.7785702, 41.3324023 ], [ 115.778685, 41.3322271 ], [ 115.7790583, 41.3318848 ], [ 115.779306, 41.3316584 ], [ 115.779485499999979, 41.3314455 ], [ 115.7795214, 41.3313808 ], [ 115.779830100000012, 41.3313565 ], [ 115.7800706, 41.3313565 ], [ 115.780630500000015, 41.3312541 ], [ 115.78081, 41.3312622 ], [ 115.7813771, 41.331397 ], [ 115.7817612, 41.3314616 ], [ 115.7819191, 41.3314374 ], [ 115.782016, 41.3314293 ], [ 115.782195499999986, 41.3313457 ], [ 115.7823391, 41.3311975 ], [ 115.7825257, 41.3310681 ], [ 115.7827375, 41.3308875 ], [ 115.783017500000014, 41.3307204 ], [ 115.783204199999986, 41.330618 ], [ 115.78356669999998, 41.3304509 ], [ 115.7838503, 41.3303431 ], [ 115.7841482, 41.3302703 ], [ 115.7845071, 41.3302056 ], [ 115.784708100000017, 41.330184 ], [ 115.7849271, 41.3301382 ], [ 115.785458299999988, 41.3301274 ], [ 115.7857347, 41.3301544 ], [ 115.7859896, 41.33022720000001 ], [ 115.786190600000012, 41.330246 ], [ 115.7864311, 41.3302353 ], [ 115.786894099999984, 41.3301733 ], [ 115.787493499999968, 41.330114 ], [ 115.787852499999985, 41.33008430000001 ], [ 115.7880714, 41.3300277 ], [ 115.788347800000011, 41.3299496 ], [ 115.78846990000001, 41.3299253 ], [ 115.7885955, 41.3298795 ], [ 115.788749799999962, 41.329866 ], [ 115.7888611, 41.3299226 ], [ 115.7889437, 41.3299361 ], [ 115.7890191, 41.3298849 ], [ 115.7890693, 41.329804 ], [ 115.7891626, 41.3297474 ], [ 115.789248799999982, 41.3297204 ], [ 115.789367199999987, 41.3296611 ], [ 115.7896041, 41.3294159 ], [ 115.7901067, 41.3287797 ], [ 115.790235899999985, 41.3285372 ], [ 115.7904082, 41.3283727 ], [ 115.790580500000019, 41.3281975 ], [ 115.7907384, 41.3281005 ], [ 115.791057900000013, 41.3279549 ], [ 115.7912266, 41.3278525 ], [ 115.7914742, 41.3276072 ], [ 115.7916717, 41.3273916 ], [ 115.791811599999988, 41.3272218 ], [ 115.7920091, 41.3271113 ], [ 115.7923824, 41.326928 ], [ 115.7925941, 41.3267824 ], [ 115.7926767, 41.3266854 ], [ 115.7926767, 41.3265236 ], [ 115.792716199999987, 41.3264077 ], [ 115.792859800000016, 41.3262056 ], [ 115.7928885, 41.3260896 ], [ 115.793060800000021, 41.3257877 ], [ 115.79311460000001, 41.3256098 ], [ 115.7931218, 41.3254643 ], [ 115.7931362, 41.325181199999989 ], [ 115.7931864, 41.3249952 ], [ 115.7932726, 41.3247796 ], [ 115.793419699999987, 41.3245289 ], [ 115.7935597, 41.324262 ], [ 115.793635099999989, 41.3240949 ], [ 115.793635099999989, 41.3239386 ], [ 115.7936243, 41.323084 ], [ 115.793642300000016, 41.3228333 ], [ 115.7937212, 41.3223643 ], [ 115.7938074, 41.3220705 ], [ 115.7938756, 41.3218737 ], [ 115.793893499999982, 41.3216257 ], [ 115.793886299999983, 41.3214693 ], [ 115.7938181, 41.3212968 ], [ 115.7939689, 41.3211944 ], [ 115.794101699999985, 41.3210596 ], [ 115.794162699999973, 41.3209302 ], [ 115.794216599999956, 41.320639 ], [ 115.794353, 41.320418 ], [ 115.794449900000018, 41.3201268 ], [ 115.794625799999977, 41.319895 ], [ 115.794708300000011, 41.3197198 ], [ 115.794909300000015, 41.319124 ], [ 115.794974, 41.3187358 ], [ 115.794945199999972, 41.3184231 ], [ 115.794808800000013, 41.3179998 ], [ 115.794787299999982, 41.317892 ], [ 115.794701199999977, 41.3177545 ], [ 115.794604199999981, 41.3174121 ], [ 115.7947406, 41.3173231 ], [ 115.794812399999984, 41.3171722 ], [ 115.795020599999987, 41.3169107 ], [ 115.795042199999983, 41.3167705 ], [ 115.7952503, 41.316557499999988 ], [ 115.79544060000002, 41.3162636 ], [ 115.795638, 41.3160372 ], [ 115.795788799999968, 41.3158673 ], [ 115.7959467, 41.3158134 ], [ 115.7960544, 41.3156651 ], [ 115.7962123, 41.3155465 ], [ 115.796463599999967, 41.3154441 ], [ 115.796790199999975, 41.3152931 ], [ 115.7970953, 41.3151017 ], [ 115.797418400000012, 41.3148078 ], [ 115.7977342, 41.3144816 ], [ 115.7980537, 41.3141311 ], [ 115.7984449, 41.3136971 ], [ 115.7986711, 41.3134059 ], [ 115.7988506, 41.3132657 ], [ 115.798872099999983, 41.3129772 ], [ 115.7989223, 41.3127399 ], [ 115.799065899999988, 41.3124892 ], [ 115.7991664, 41.3123382 ], [ 115.799202300000019, 41.3120174 ], [ 115.799173599999989, 41.3118637 ], [ 115.798829, 41.3118152 ], [ 115.7985706, 41.3117666 ], [ 115.7984234, 41.3116992 ], [ 115.7983767, 41.3115617 ], [ 115.7983588, 41.3114323 ], [ 115.798208, 41.3112975 ], [ 115.798200900000012, 41.3110683 ], [ 115.798089600000012, 41.3109308 ], [ 115.7980357, 41.3107799 ], [ 115.7977845, 41.310583 ], [ 115.7975763, 41.3103431 ], [ 115.797465, 41.3102056 ], [ 115.7973286, 41.3100222 ], [ 115.797457799999975, 41.3098739 ], [ 115.7975512, 41.3097014 ], [ 115.7978096, 41.3085312 ], [ 115.797831200000019, 41.3081079 ], [ 115.7979424, 41.3076037 ], [ 115.7980537, 41.3071642 ], [ 115.7982547, 41.3067409 ], [ 115.79841620000002, 41.3064631 ], [ 115.798520300000021, 41.3063634 ], [ 115.798872099999983, 41.3061584 ], [ 115.7995002, 41.305878 ], [ 115.7999094, 41.3056407 ], [ 115.8000351, 41.3055814 ], [ 115.8001607, 41.3054062 ], [ 115.8003689, 41.3052552 ], [ 115.8005017, 41.3051176 ], [ 115.800781699999987, 41.3049693 ], [ 115.8009791, 41.3048992 ], [ 115.801047299999979, 41.3047374 ], [ 115.8013309, 41.304519 ], [ 115.8011299, 41.3042089 ], [ 115.801162199999979, 41.3040741 ], [ 115.8014098, 41.3035645 ], [ 115.801714899999979, 41.3032409 ], [ 115.8019159, 41.3031438 ], [ 115.8018334, 41.3028014 ], [ 115.8019231, 41.3026585 ], [ 115.802271299999987, 41.3023915 ], [ 115.8027666, 41.3021353 ], [ 115.803046599999988, 41.302041 ], [ 115.803473799999978, 41.3019655 ], [ 115.8037107, 41.301863 ], [ 115.8041917, 41.3017821 ], [ 115.804374699999968, 41.3016554 ], [ 115.804529099999968, 41.3014882 ], [ 115.8044609, 41.3009893 ], [ 115.8043604, 41.3005282 ], [ 115.8043783, 41.3003152 ], [ 115.8045111, 41.300148 ], [ 115.8047803, 41.2999646 ], [ 115.805229, 41.2996895 ], [ 115.805473099999986, 41.2995331 ], [ 115.8055269, 41.2993336 ], [ 115.805763799999966, 41.2991232 ], [ 115.805893, 41.2989372 ], [ 115.806104799999986, 41.2985623 ], [ 115.8065248, 41.2984652 ], [ 115.8068443, 41.2983466 ], [ 115.806912499999981, 41.2981686 ], [ 115.8071206, 41.2976428 ], [ 115.807246300000017, 41.2974405 ], [ 115.807476, 41.2972005 ], [ 115.80761960000001, 41.296947 ], [ 115.807698499999987, 41.296766299999987 ], [ 115.807831399999984, 41.296529 ], [ 115.8079965, 41.2962674 ], [ 115.80832310000001, 41.2958764 ], [ 115.808761, 41.2953532 ], [ 115.8090733, 41.2949487 ], [ 115.8092851, 41.2947923 ], [ 115.809461, 41.2947275 ], [ 115.8098307, 41.2946628 ], [ 115.810265, 41.2946089 ], [ 115.810588, 41.294563 ], [ 115.8108644, 41.2944444 ], [ 115.811158799999973, 41.2941882 ], [ 115.8113634, 41.2940668 ], [ 115.811485399999981, 41.2940237 ], [ 115.811790499999958, 41.2937513 ], [ 115.8121459, 41.293522 ], [ 115.812501199999986, 41.2932901 ], [ 115.812784799999989, 41.2931229 ], [ 115.812975, 41.293069 ], [ 115.813240599999972, 41.2930042 ], [ 115.813391399999986, 41.2929098 ], [ 115.8134452, 41.2927723 ], [ 115.8134129, 41.292624 ], [ 115.813456, 41.2924729 ], [ 115.8134273, 41.2922437 ], [ 115.8134524, 41.2921142 ], [ 115.8135134, 41.2919686 ], [ 115.8133268, 41.2918823 ], [ 115.8132614, 41.2917542 ], [ 115.8132758, 41.2916275 ], [ 115.813326, 41.2915681 ], [ 115.8134337, 41.29148450000001 ], [ 115.813516299999975, 41.2912984 ], [ 115.8135773, 41.291142 ], [ 115.8135342, 41.2908939 ], [ 115.813616799999977, 41.2905487 ], [ 115.813692199999977, 41.2902061 ], [ 115.813749599999966, 41.2899445 ], [ 115.8138393, 41.2896964 ], [ 115.813997299999969, 41.2894348 ], [ 115.814008, 41.2893674 ], [ 115.814008, 41.2891813 ], [ 115.8140475, 41.289095 ], [ 115.814198299999973, 41.2889385 ], [ 115.8143526, 41.2888333 ], [ 115.814438799999962, 41.2887443 ], [ 115.814539299999979, 41.2883721 ], [ 115.814600299999981, 41.2882723 ], [ 115.8145285, 41.288097 ], [ 115.814424399999979, 41.2879918 ], [ 115.814323899999977, 41.287741 ], [ 115.814384899999979, 41.2876358 ], [ 115.8142808, 41.2875333 ], [ 115.8141624, 41.287387699999989 ], [ 115.814130099999957, 41.2872906 ], [ 115.814119299999987, 41.2871665 ], [ 115.814158799999987, 41.2870101 ], [ 115.814230599999959, 41.2868617 ], [ 115.814277199999978, 41.2867539 ], [ 115.814273699999987, 41.2865893 ], [ 115.8142952, 41.2865003 ], [ 115.81433829999996, 41.2864356 ], [ 115.814446, 41.2863331 ], [ 115.814485399999981, 41.2862549 ], [ 115.814524899999981, 41.2862333 ], [ 115.814632599999982, 41.286209 ], [ 115.8146613, 41.2861632 ], [ 115.81469, 41.2860688 ], [ 115.814740299999983, 41.2859986 ], [ 115.815009499999988, 41.2857883 ], [ 115.8151782, 41.2856966 ], [ 115.815311, 41.2856588 ], [ 115.81549769999998, 41.2855239 ], [ 115.815612500000015, 41.2854322 ], [ 115.815623299999984, 41.2853082 ], [ 115.8158422, 41.2850762 ], [ 115.816003799999976, 41.2849171 ], [ 115.8161402, 41.2847229 ], [ 115.81630890000001, 41.2845799 ], [ 115.816535, 41.2844342 ], [ 115.8167001, 41.2843156 ], [ 115.8167899, 41.2842077 ], [ 115.816868799999966, 41.2840728 ], [ 115.816972899999982, 41.2837977 ], [ 115.816990899999951, 41.2836493 ], [ 115.817005199999983, 41.283412 ], [ 115.817095, 41.2832232 ], [ 115.816976499999967, 41.2831557 ], [ 115.8169227, 41.2830775 ], [ 115.8168581, 41.2829372 ], [ 115.81671809999996, 41.2826675 ], [ 115.816621199999986, 41.2824652 ], [ 115.8165422, 41.282271 ], [ 115.8164417, 41.2820282 ], [ 115.816463199999973, 41.2818637 ], [ 115.8164812, 41.2816182 ], [ 115.816402199999956, 41.2813215 ], [ 115.8163519, 41.2811948 ], [ 115.8163663, 41.2809304 ], [ 115.816337599999983, 41.280774 ], [ 115.816255, 41.2804179 ], [ 115.816136599999965, 41.280099599999986 ], [ 115.816086299999952, 41.279972799999989 ], [ 115.816183199999983, 41.2799135 ], [ 115.816402199999956, 41.2798433 ], [ 115.816531399999988, 41.2797651 ], [ 115.816771899999978, 41.2795439 ], [ 115.8170196, 41.2793335 ], [ 115.8171273, 41.2792013 ], [ 115.817209800000015, 41.2790557 ], [ 115.817235, 41.2788453 ], [ 115.8172314, 41.2786538 ], [ 115.8172493, 41.2785485 ], [ 115.8173462, 41.2783759 ], [ 115.817400099999986, 41.2781196 ], [ 115.8174683, 41.277979399999985 ], [ 115.81762980000002, 41.2777825 ], [ 115.8177195, 41.2776125 ], [ 115.81782, 41.2774803 ], [ 115.817899, 41.277377799999982 ], [ 115.81796, 41.2772295 ], [ 115.8181215, 41.2770163 ], [ 115.8181754, 41.2768734 ], [ 115.81838, 41.2766657 ], [ 115.8185918, 41.2765092 ], [ 115.8187282, 41.2763986 ], [ 115.8188538, 41.2763096 ], [ 115.8189687, 41.2761558 ], [ 115.819101499999988, 41.276029 ], [ 115.8192091, 41.2759481 ], [ 115.819324, 41.2758348 ], [ 115.8195214, 41.2756244 ], [ 115.819672199999985, 41.2755515 ], [ 115.819772699999987, 41.2754814 ], [ 115.82017110000001, 41.2753222 ], [ 115.8203578, 41.2752386 ], [ 115.820695199999989, 41.2751658 ], [ 115.8209213, 41.2751118 ], [ 115.8214059, 41.27495 ], [ 115.82178279999998, 41.2748232 ], [ 115.8222386, 41.2746694 ], [ 115.822698099999968, 41.2744914 ], [ 115.823139599999976, 41.2743079 ], [ 115.823477, 41.2741919 ], [ 115.823961599999976, 41.2740166 ], [ 115.824202099999965, 41.2739195 ], [ 115.824744099999975, 41.2736902 ], [ 115.825016899999966, 41.2735526 ], [ 115.825336299999989, 41.2734231 ], [ 115.8255589, 41.27333680000001 ], [ 115.825943, 41.2731506 ], [ 115.8502296, 41.2082469 ], [ 115.886686821252951, 41.136561519279539 ], [ 115.911916006001363, 41.05472275022197 ], [ 115.940435953977811, 40.992655815409854 ], [ 115.991991244550633, 40.905663852930473 ], [ 116.042449614047428, 40.830178130866805 ], [ 116.097295667848286, 40.747958592295326 ], [ 116.162155199999987, 40.675949 ], [ 116.200165899999973, 40.6237693 ], [ 116.216860065134171, 40.614863376872258 ], [ 116.2725863, 40.6132623 ], [ 116.310098356595645, 40.61236530370806 ], [ 116.364944410396504, 40.602372077106729 ], [ 116.390173595144887, 40.58654641240291 ], [ 116.415402779893299, 40.577382473432699 ], [ 116.443922727869747, 40.58404728082774 ], [ 116.481218044454323, 40.593210306729048 ], [ 116.49547801844254, 40.589045450595407 ], [ 116.502059544898657, 40.577382473432699 ], [ 116.492187255214503, 40.564884169840184 ], [ 116.469151912618145, 40.550716603877277 ], [ 116.447719300000017, 40.5272916 ], [ 116.477674400000012, 40.5133118 ], [ 116.483411886606362, 40.49985536596963 ], [ 116.473539596922208, 40.487342592342152 ], [ 116.37715510000001, 40.4771026 ], [ 116.338618304572051, 40.470655264626131 ], [ 116.315463548546134, 40.466825741038697 ], [ 116.242089249882554, 40.457302416090734 ], [ 116.211375459754052, 40.446451272188376 ], [ 116.181758590701605, 40.433093612824784 ], [ 116.171886301017409, 40.417227945294613 ], [ 116.177370906397528, 40.401358535584649 ], [ 116.098019753621728, 40.348358182719217 ] ] ] } }
]
}
