{
"type": "FeatureCollection",
"name": "mengjiang-1942",
"crs": { "type": "name", "properties": { "name": "urn:ogc:def:crs:OGC:1.3:CRS84" } },
"features": [
{ "type": "Feature", "properties": { "fid": 1 }, "geometry": { "type": "Polygon", "coordinates": [ [ [ 119.5949, 46.6031 ], [ 119.3576, 46.6229 ], [ 119.097, 46.7857 ], [ 118.811, 46.7184 ], [ 118.3956, 46.7167 ], [ 118.0516, 46.6166 ], [ 117.7845, 46.5904 ], [ 117.659001024924663, 46.600176327556703 ], [ 117.554734961228235, 46.608270815026664 ], [ 117.436572125267631, 46.457872930922463 ], [ 117.4264, 46.4449 ], [ 117.426394885651703, 46.444899838657648 ], [ 117.426375946477179, 46.444875693704319 ], [ 116.726015170420951, 46.422760220040225 ], [ 116.4567170783764, 46.06455387016937 ], [ 116.4232, 46.0198 ], [ 116.4358, 45.8199 ], [ 115.5396, 45.446 ], [ 115.1286, 45.4272 ], [ 114.7465, 45.4953 ], [ 114.746490683275184, 45.49528978433753 ], [ 114.746476815904941, 45.495292255343102 ], [ 114.514063684625583, 45.23993570754849 ], [ 114.022109342694478, 44.940015172159541 ], [ 113.562709285283077, 44.878834574999622 ], [ 112.792471276737103, 44.877428148900066 ], [ 112.5475, 45.117 ], [ 112.023296446465707, 45.136336281952921 ], [ 112.005297833686953, 45.136998405102034 ], [ 111.5951, 44.8342 ], [ 111.5481, 44.5675 ], [ 111.6353, 44.1238 ], [ 111.988690897732809, 43.825507702391818 ], [ 111.881561468445653, 43.725549124654776 ], [ 111.654, 43.5127 ], [ 111.1138, 43.4332 ], [ 110.3472, 42.7311 ], [ 109.5955, 42.5549 ], [ 109.516734373743006, 42.330665632262857 ], [ 109.468469846398236, 42.018501166267903 ], [ 109.468469846398236, 41.776823284117718 ], [ 109.44653142487789, 41.616290206152541 ], [ 109.354390054492427, 41.514521573747245 ], [ 109.367553107404646, 41.369800633641589 ], [ 109.336839317276159, 41.208254415849204 ], [ 109.178882682329657, 41.095926124902164 ], [ 108.977049204342507, 41.014864394899675 ], [ 108.872314453124986, 40.933954168744116 ], [ 108.868066406250023, 40.91701080936911 ], [ 108.86328125, 40.91400787968162 ], [ 108.845117187500009, 40.90253327030662 ], [ 108.740625, 40.838397528119117 ], [ 108.721435546875, 40.81928131718162 ], [ 108.7109375, 40.80377838749412 ], [ 108.676269531249986, 40.76801178593162 ], [ 108.663671875000034, 40.74806549686911 ], [ 108.650390624999986, 40.698749090619117 ], [ 108.651269531250023, 40.688788153119113 ], [ 108.671484375000034, 40.66120026249412 ], [ 108.713788146098352, 40.63803115611811 ], [ 108.748046874999986, 40.61798737186912 ], [ 108.76611328125, 40.612176824994116 ], [ 108.757080078124986, 40.58808014530662 ], [ 108.763574218750023, 40.573187567181613 ], [ 108.779785156249986, 40.564032293744127 ], [ 108.811279296874986, 40.551874090619116 ], [ 108.8203125, 40.546747137494116 ], [ 108.829980468750023, 40.543280340619113 ], [ 108.842382812500034, 40.543280340619113 ], [ 108.848388671875, 40.546942449994113 ], [ 108.8564453125, 40.55390045780662 ], [ 108.866699218749986, 40.560736395306627 ], [ 108.879394531249986, 40.563788153119127 ], [ 108.883203125, 40.558417059369113 ], [ 108.886621093750023, 40.546698309369113 ], [ 108.891601562499986, 40.53497955936912 ], [ 108.900390624999986, 40.529608465619113 ], [ 108.9130859375, 40.531683660931613 ], [ 108.92138671875, 40.534686590619124 ], [ 108.929443359375, 40.534369207806613 ], [ 108.94101562500002, 40.526239324994108 ], [ 108.950683593749986, 40.522162176556627 ], [ 108.963769531250023, 40.521356512494108 ], [ 108.9892578125, 40.52277252811912 ], [ 109.000244140624986, 40.526312567181613 ], [ 109.00439453125, 40.53497955936912 ], [ 109.005615234375, 40.556952215619113 ], [ 109.015380859374986, 40.547430731244113 ], [ 109.02587890625, 40.545184637494117 ], [ 109.036523437500023, 40.548846746869124 ], [ 109.046630859374986, 40.556952215619113 ], [ 109.046386718749986, 40.540643621869101 ], [ 109.049902343750034, 40.528680731244108 ], [ 109.057861328125, 40.525018621869108 ], [ 109.087304687500023, 40.546649481244117 ], [ 109.098144531249986, 40.547235418744116 ], [ 109.122314453125, 40.529608465619113 ], [ 109.150097656250011, 40.52370026249411 ], [ 109.18505859375, 40.520697332806627 ], [ 109.207275390624986, 40.511908270306613 ], [ 109.197509765624986, 40.48871491093162 ], [ 109.222363281250011, 40.492059637494116 ], [ 109.28671875000002, 40.52277252811912 ], [ 109.279541015625, 40.490423895306613 ], [ 109.287109374999986, 40.488226629681613 ], [ 109.335156250000011, 40.487323309369117 ], [ 109.355468749999986, 40.48341705936911 ], [ 109.39658203125002, 40.468207098431606 ], [ 109.413085937499986, 40.477362371869113 ], [ 109.45947265625, 40.489813543744113 ], [ 109.472363281250011, 40.502313543744116 ], [ 109.460693359375, 40.502313543744116 ], [ 109.45, 40.504510809369108 ], [ 109.439941406249986, 40.50885651249412 ], [ 109.430908203124986, 40.51532623905662 ], [ 109.447021484375, 40.520819403119127 ], [ 109.48251953125002, 40.52460358280662 ], [ 109.499023437499986, 40.529608465619113 ], [ 109.505859374999986, 40.516717840619108 ], [ 109.519238281249997, 40.52265045780662 ], [ 109.536523437500009, 40.535516668744116 ], [ 109.554443359374986, 40.543280340619113 ], [ 109.57285156250002, 40.542254949994117 ], [ 109.582031249999986, 40.539129949994106 ], [ 109.5908203125, 40.53998444218162 ], [ 109.608300781250009, 40.550726629681613 ], [ 109.665136718750034, 40.49677155155662 ], [ 109.6904296875, 40.484686590619127 ], [ 109.700878906250011, 40.477606512494113 ], [ 109.713378906249986, 40.475287176556613 ], [ 109.737597656249989, 40.492450262494117 ], [ 109.749023437499986, 40.497821356244124 ], [ 109.76230468750002, 40.50116608280662 ], [ 109.789550781249986, 40.504022528119108 ], [ 109.828027343750023, 40.51532623905662 ], [ 109.883300781249986, 40.51532623905662 ], [ 109.892480468750009, 40.51996491093162 ], [ 109.901367187499986, 40.52265045780662 ], [ 109.91064453125, 40.52277252811912 ], [ 109.916015624999986, 40.52028229374411 ], [ 109.924218750000023, 40.51239655155662 ], [ 109.931152343749986, 40.509149481244116 ], [ 109.941503906250034, 40.505877996869117 ], [ 109.952880859374986, 40.50397369999412 ], [ 109.963623046875, 40.508124090619113 ], [ 109.972070312500023, 40.52277252811912 ], [ 109.988281249999986, 40.511590887494116 ], [ 109.99960937500002, 40.512811590619123 ], [ 110.010156250000023, 40.519061590619117 ], [ 110.023925781249986, 40.52277252811912 ], [ 110.039648437500034, 40.52057526249412 ], [ 110.054785156250034, 40.516717840619108 ], [ 110.069042968749997, 40.515985418744108 ], [ 110.082519531249986, 40.52277252811912 ], [ 110.095214843749986, 40.51068756718162 ], [ 110.102294921875, 40.505389715619117 ], [ 110.10986328125, 40.502313543744116 ], [ 110.122802734374986, 40.502875067181613 ], [ 110.142578124999986, 40.512884832806613 ], [ 110.1533203125, 40.51532623905662 ], [ 110.154296874999986, 40.518915106244108 ], [ 110.167578125000034, 40.540228582806613 ], [ 110.175097656249974, 40.54157135624412 ], [ 110.182903409755511, 40.541015792394916 ], [ 110.213776240440012, 40.534433288389174 ], [ 110.223144531249986, 40.52277252811912 ], [ 110.23779296875, 40.48273346561912 ], [ 110.24609375, 40.47443268436912 ], [ 110.286376953124986, 40.483905340619124 ], [ 110.303613281250009, 40.48139069218162 ], [ 110.29355468750002, 40.46137116093162 ], [ 110.306640624999986, 40.453192449994127 ], [ 110.347070312500009, 40.453143621869117 ], [ 110.355712890624986, 40.450799871869123 ], [ 110.362060546875, 40.444208074994116 ], [ 110.40341796875002, 40.420428778119117 ], [ 110.419189453125, 40.39838287968162 ], [ 110.430273437500034, 40.388495184369113 ], [ 110.441406249999986, 40.389349676556613 ], [ 110.456347656249974, 40.397088934369116 ], [ 110.46738281250002, 40.394598699994113 ], [ 110.475, 40.38507721561912 ], [ 110.47910156250002, 40.372015692181613 ], [ 110.486523437499997, 40.372015692181613 ], [ 110.506835937499986, 40.381366278119117 ], [ 110.542968749999986, 40.360541082806613 ], [ 110.580761718750011, 40.33185455936912 ], [ 110.60605468750002, 40.31740143436911 ], [ 110.638183593749986, 40.322137762494123 ], [ 110.658105468750023, 40.321795965619117 ], [ 110.688476562499986, 40.305731512494113 ], [ 110.727294921874986, 40.296747137494108 ], [ 110.746093749999986, 40.290057684369117 ], [ 110.765869140624986, 40.280340887494113 ], [ 110.77978515625, 40.276068426556613 ], [ 110.814941406249986, 40.27643463749412 ], [ 110.834375, 40.273700262494117 ], [ 110.86484375000002, 40.25880768436911 ], [ 110.8798828125, 40.255316473431613 ], [ 110.941308593750023, 40.253290106244116 ], [ 110.964843749999986, 40.26264069218162 ], [ 110.98740234375002, 40.261664129681613 ], [ 110.996582031249986, 40.265887762494124 ], [ 111.014892578125, 40.28339264530662 ], [ 111.034667968749986, 40.29689362186911 ], [ 111.06103515625, 40.267206121869116 ], [ 111.184814453125, 40.208124090619101 ], [ 111.209570312500034, 40.180438543744117 ], [ 111.219726562499986, 40.172723699994123 ], [ 111.23125, 40.168963934369124 ], [ 111.254980468750034, 40.166766668744117 ], [ 111.277148437499989, 40.160760809369116 ], [ 111.290722656250011, 40.159051824994116 ], [ 111.302734374999986, 40.15607330936912 ], [ 111.328320312499997, 40.11871979374412 ], [ 111.33837890625, 40.11066315311912 ], [ 111.361328125, 40.09796784061912 ], [ 111.369873046875, 40.090838934369117 ], [ 111.379882812499986, 40.06244537968162 ], [ 111.380761718750023, 40.05731842655662 ], [ 111.397363281250023, 40.04791901249412 ], [ 111.405371093750034, 40.02582428593162 ], [ 111.411376953124986, 39.981561590619116 ], [ 111.436523437499986, 39.91730377811912 ], [ 111.435302734374986, 39.90643952030662 ], [ 111.42343750000002, 39.895941473431606 ], [ 111.469253889053988, 39.82405589913899 ], [ 111.574558312351684, 39.854377459835852 ], [ 111.684250419953415, 39.835849208041921 ], [ 111.739096473754273, 39.785292201987382 ], [ 111.829044001987683, 39.795406577683814 ], [ 111.998, 39.7741 ], [ 111.973837584021936, 39.525181266449536 ], [ 112.079142007319632, 39.359146835235563 ], [ 112.1909, 39.2606 ], [ 112.4, 39.15 ], [ 112.610051808112033, 39.209717587517964 ], [ 112.746070021538188, 39.22331523634579 ], [ 112.855762129139919, 39.219916071028003 ], [ 112.925965078005049, 39.253900316753317 ], [ 112.965454236741664, 39.298055222636023 ], [ 113.018106448390483, 39.33200159634449 ], [ 113.097084765863727, 39.33200159634449 ], [ 113.184838451945112, 39.348968606222613 ], [ 113.276979822330588, 39.413405677666297 ], [ 113.294530559546857, 39.454072120755605 ], [ 113.290142875242779, 39.494714823272353 ], [ 113.303305928154998, 39.552251333111357 ], [ 113.347182771195676, 39.589455434502881 ], [ 113.452487194493372, 39.58269253743039 ], [ 113.50513940614222, 39.5488681521514 ], [ 113.535853196270708, 39.481169894015352 ], [ 113.562179302095117, 39.457459919481053 ], [ 113.645545303872439, 39.454072120755605 ], [ 113.689422146913103, 39.481169894015352 ], [ 113.737686674257887, 39.498100643319091 ], [ 113.790338885906735, 39.464235022321347 ], [ 113.821052676035222, 39.4032353582054 ], [ 113.87, 39.38 ], [ 113.900030993508466, 39.206317763842421 ], [ 113.921969415028812, 39.162105080792337 ], [ 114.071150681367186, 39.230113073179126 ], [ 114.185230473272966, 39.260695190402522 ], [ 114.351962476827595, 39.298055222636023 ], [ 114.409002372780506, 39.4032353582054 ], [ 114.409002372780506, 39.471009465655349 ], [ 114.400227004172393, 39.565782407164541 ], [ 114.38706395126016, 39.646913406534878 ], [ 114.404614688476457, 39.694195915121973 ], [ 114.448491531517135, 39.741446058191265 ], [ 114.531857533294456, 39.738072121531104 ], [ 114.580122060639212, 39.714449940144789 ], [ 114.641549640896173, 39.704323670768609 ], [ 114.689814168240972, 39.707699259040012 ], [ 114.755629432801996, 39.694195915121973 ], [ 114.825832381667141, 39.819001004128104 ], [ 114.940016009941019, 39.941772514597965 ], [ 115.084705755607246, 39.990658752881956 ], [ 115.277763864986312, 40.098145898640816 ], [ 115.418169762716531, 40.195409698603925 ], [ 115.514698817406057, 40.282493291571377 ], [ 115.591483292727276, 40.334355210976383 ], [ 115.648523188680187, 40.33769977370045 ], [ 115.707756926785123, 40.310938630238411 ], [ 115.742858401217688, 40.270777024604435 ], [ 115.745052243369685, 40.217191096915691 ], [ 115.745052243369685, 40.148472148574569 ], [ 115.766990664890031, 40.138409879029545 ], [ 115.815255192234815, 40.143441200096497 ], [ 115.923796476390109, 40.213887764566287 ], [ 116.237868623681464, 40.317258248604539 ], [ 116.3375, 40.45 ], [ 116.3875, 40.55 ], [ 116.4125, 40.65 ], [ 116.4125, 40.75 ], [ 116.3875, 40.85 ], [ 116.4, 40.9562 ], [ 116.45, 41.0688 ], [ 116.5375, 41.1875 ], [ 116.6625, 41.3125 ], [ 116.7687, 41.4375 ], [ 116.8606, 41.5704 ], [ 116.80082056888601, 41.607587208324745 ], [ 116.868311686630406, 41.693210627876503 ], [ 116.8773, 41.7046 ], [ 116.9106, 41.8564 ], [ 116.862321797445944, 41.939571333091699 ], [ 116.857624510238836, 41.947667976139137 ], [ 116.890803176234357, 42.062505811172976 ], [ 116.981636091488454, 42.228474308098825 ], [ 117.006091920856463, 42.273081269794453 ], [ 117.090102359193978, 42.334611328062635 ], [ 117.1133, 42.4459 ], [ 117.0281, 42.5231 ], [ 116.984469105081587, 42.621762465958746 ], [ 116.945650788237984, 42.709329663862661 ], [ 116.9118750953335, 42.766727809469671 ], [ 116.8368, 42.894 ], [ 116.5892, 43.0328 ], [ 116.562006455979912, 43.060845924665934 ], [ 116.457842482026905, 43.168230163317382 ], [ 116.639073436171799, 43.302337001412624 ], [ 116.807135796136293, 43.444970350071245 ], [ 117.133390465415516, 43.58608865682308 ], [ 117.128417266920692, 43.636951630433067 ], [ 117.1176, 43.7472 ], [ 117.0269, 43.8664 ], [ 117.023681648062691, 43.898093697812108 ], [ 117.019253696112045, 43.942177060424704 ], [ 117.106655760971876, 44.024405238574879 ], [ 117.1157, 44.0329 ], [ 117.216666753662409, 44.032488611434985 ], [ 117.287490001850699, 44.032166455629067 ], [ 117.555641776437923, 43.988136733403685 ], [ 117.675718517630514, 43.987120586319705 ], [ 117.7273, 43.9867 ], [ 118.0907, 44.0601 ], [ 118.4294, 44.2933 ], [ 118.7672, 44.3921 ], [ 118.9801, 44.5808 ], [ 119.025582183199319, 44.716363664003211 ], [ 119.057767670064905, 44.812183888871765 ], [ 119.054861088110485, 45.050261074445849 ], [ 119.065984083051376, 45.279290995283318 ], [ 119.093284240412004, 45.470763718254311 ], [ 119.187205304262676, 45.483468719972116 ], [ 119.555011091679418, 45.447541899920246 ], [ 119.5881, 45.5724 ], [ 119.580479777995222, 45.609724725770057 ], [ 119.549356245265358, 45.761736615169227 ], [ 119.4582030705335, 45.911362749446141 ], [ 119.554187738938069, 46.123871940071901 ], [ 119.557331547981505, 46.195381598716061 ], [ 119.5655, 46.3814 ], [ 119.4661, 46.4841 ], [ 119.466120144327206, 46.484118632002378 ], [ 119.466097827569499, 46.484141668343362 ], [ 119.5949, 46.6031 ] ] ] } }
]
}
