{
"type": "FeatureCollection",
"name": "mengjiang-unoccupied",
"crs": { "type": "name", "properties": { "name": "urn:ogc:def:crs:OGC:1.3:CRS84" } },
"features": [
{ "type": "Feature", "properties": { "fid": 1 }, "geometry": { "type": "Polygon", "coordinates": [ [ [ 117.772179709054953, 46.587412463798088 ], [ 118.308164248830209, 46.700014257868517 ], [ 117.551480192676905, 46.537867674407096 ], [ 117.772179709054953, 46.587412463798088 ] ] ] } },
{ "type": "Feature", "properties": { "fid": 2 }, "geometry": { "type": "Polygon", "coordinates": [ [ [ 112.376301737199725, 45.24069500671569 ], [ 112.304236588994655, 45.366809016074576 ], [ 112.443862813641985, 45.137101356170888 ], [ 112.376301737199725, 45.24069500671569 ] ] ] } },
{ "type": "Feature", "properties": { "fid": 3 }, "geometry": { "type": "Polygon", "coordinates": [ [ [ 112.443862813641985, 45.137101356170888 ], [ 112.447142709557866, 45.120701876591511 ], [ 112.461879100693253, 45.047019920914536 ], [ 112.443862813641985, 45.137101356170888 ] ] ] } },
{ "type": "Feature", "properties": { "fid": 4 }, "geometry": { "type": "Polygon", "coordinates": [ [ [ 111.682674685725843, 44.86685705040184 ], [ 111.925894560917982, 44.907393696267199 ], [ 111.613117721801189, 44.847500258989513 ], [ 111.502511815213154, 44.826320404536489 ], [ 111.682674685725843, 44.86685705040184 ] ] ] } },
{ "type": "Feature", "properties": { "fid": 5 }, "geometry": { "type": "Polygon", "coordinates": [ [ [ 111.96539315899426, 39.614775088380625 ], [ 111.780726216718733, 39.49766922254738 ], [ 111.587051130917587, 39.488661079021746 ], [ 111.451928978033052, 39.466140720207662 ], [ 111.321310896911356, 39.520189581361471 ], [ 111.240237605180639, 39.596758801329365 ], [ 111.13213988287302, 39.592254729566548 ], [ 110.969993299411598, 39.524693653124288 ], [ 110.771814141847628, 39.37605928495131 ], [ 110.600659414860573, 39.222920845015523 ], [ 110.285374391463364, 39.011229472163109 ], [ 110.195292956207012, 38.934660252195215 ], [ 110.100707449187851, 38.749993309919702 ], [ 109.911536435149529, 38.556318224118556 ], [ 109.641292129380474, 38.412187927708395 ], [ 109.348527464797343, 38.227520985432882 ], [ 108.69093298742601, 37.723064947997337 ], [ 108.569323049829947, 37.632983512740992 ], [ 108.456721255759504, 37.58343872335 ], [ 108.199989165278922, 37.578934651587183 ], [ 107.920736715984233, 37.592446866875633 ], [ 107.70454127136901, 37.601455010401274 ], [ 107.560410974958842, 37.637487584503809 ], [ 107.393760319734611, 37.741081235048611 ], [ 107.209093377459098, 37.876203387933131 ], [ 107.087483439863021, 37.979797038477933 ], [ 106.893808354061875, 38.11942326312527 ], [ 106.560507043613384, 38.313098348926417 ], [ 106.438897106017322, 38.434708286522486 ], [ 106.461417464831399, 38.538301937067281 ], [ 106.655092550632546, 38.704952592291527 ], [ 106.93434499992722, 38.975196898060567 ], [ 107.006410148132304, 39.141847553284812 ], [ 106.916328712875952, 39.29048192145779 ], [ 106.898312425824685, 39.475148863733303 ], [ 106.93434499992722, 39.659815806008808 ], [ 106.970377574029754, 39.96609268588039 ], [ 106.965873502266945, 40.177784058732811 ], [ 107.123516013965542, 40.430012077450584 ], [ 107.105499726914275, 40.605670876200463 ], [ 107.100995655151465, 40.722776742033716 ], [ 106.992897932843846, 40.781329674950342 ], [ 106.821743205856777, 40.808354105527243 ], [ 106.574019258901828, 40.844386679629785 ], [ 106.362327886049414, 40.893931469020771 ], [ 106.159644656722634, 40.94798033017458 ], [ 105.925432925056128, 41.056078052482199 ], [ 105.623660116947363, 41.155167631264185 ], [ 105.416472815857759, 41.276777568860247 ], [ 105.200277371242521, 41.357850860590965 ], [ 105.020114500729832, 41.420907865270408 ], [ 104.758878338486426, 41.515493372289569 ], [ 104.506650319768653, 41.623591094597188 ], [ 104.272438588102148, 41.754209175718891 ], [ 103.926663110154294, 41.966234835147461 ], [ 104.066289334801638, 42.033795911589721 ], [ 104.237444061788693, 42.096852916269164 ], [ 104.42661507582703, 42.159909920948607 ], [ 104.723883812172971, 42.272511715019043 ], [ 105.142762486114989, 42.466186800820189 ], [ 105.34544571544177, 42.569780451364991 ], [ 105.840893609351681, 42.709406676012328 ], [ 106.174194919800172, 42.740935178352053 ], [ 106.448943297332036, 42.831016613608398 ], [ 106.620098024319091, 42.876057331236574 ], [ 107.056992985312391, 43.042707986460812 ], [ 107.142570348805918, 43.096756847614621 ], [ 107.246163999350713, 43.14179756524279 ], [ 107.385790223998058, 43.146301637005607 ], [ 107.534424592171021, 43.096756847614621 ], [ 107.714587462683724, 43.002171340595453 ], [ 107.885742189670779, 42.916593977101925 ], [ 108.038880629606567, 42.876057331236566 ], [ 108.174002782491101, 42.876057331236566 ], [ 108.358669724766614, 42.849032900659665 ], [ 108.561352954093394, 42.781471824217398 ], [ 108.746019896368907, 42.709406676012321 ], [ 109.007256058612313, 42.596804881941893 ], [ 109.236963718516009, 42.515731590211175 ], [ 109.349565512586437, 42.497715303159907 ], [ 108.798852382658822, 42.331964616691543 ], [ 108.328540198976697, 42.238935833106069 ], [ 108.220326262935458, 42.220064512715879 ], [ 108.194165289353236, 42.00119560838764 ], [ 108.220006618126988, 41.696267928857473 ], [ 108.261352744164967, 41.551556487724518 ], [ 108.30269887020296, 41.158768290363632 ], [ 108.535270829166649, 40.843504079323971 ], [ 108.788515851149313, 40.765980093002739 ], [ 109.181304048510214, 40.693624372436261 ], [ 109.963623046875, 40.508124090619113 ], [ 110.182889541955106, 40.461233019622718 ], [ 110.86484375000002, 40.25880768436911 ], [ 110.8798828125, 40.255316473431613 ], [ 110.941308593750023, 40.253290106244116 ], [ 110.964843749999986, 40.26264069218162 ], [ 110.98740234375002, 40.261664129681613 ], [ 110.996582031249986, 40.265887762494124 ], [ 111.014892578125, 40.28339264530662 ], [ 111.034667968749986, 40.29689362186911 ], [ 111.06103515625, 40.267206121869116 ], [ 111.224408370560568, 40.058958680018442 ], [ 111.259029495057149, 40.005731698964603 ], [ 111.293650619553731, 39.963563985005258 ], [ 111.362892868546894, 39.89915217174876 ], [ 111.422037289561871, 39.868034951241299 ], [ 111.450888226642363, 39.82800618365728 ], [ 111.458100960912475, 39.823557090762691 ], [ 111.829044001987683, 39.795406577683814 ], [ 111.98463056263131, 40.012387361036154 ], [ 112.026464421398003, 40.064500749429371 ], [ 112.071183373872742, 40.117681496218182 ], [ 112.117344873201546, 40.173033567437969 ], [ 112.150523450844091, 40.212858909017051 ], [ 112.185144575340658, 40.242712445712606 ], [ 112.212552965567141, 40.258186836373142 ], [ 112.235633715231501, 40.262607435895177 ], [ 112.254386824333821, 40.258186836373142 ], [ 112.290450495684439, 40.226128784688569 ], [ 112.265927199166015, 40.174140145188915 ], [ 112.239961355793582, 40.115466467941168 ], [ 112.183702028486636, 40.046764528060287 ], [ 112.15177491058401, 40.008689261048801 ], [ 112.061085545894599, 39.841351719970163 ], [ 112.045217530500338, 39.770145328392886 ], [ 112.034774067871027, 39.749682411196574 ], [ 112.025808048100146, 39.732248483864296 ], [ 112.010596406003742, 39.705550344802688 ], [ 111.977417828361183, 39.679918197613461 ], [ 111.973090187799116, 39.656506555193239 ], [ 111.975475285889331, 39.634379224009933 ], [ 111.96539315899426, 39.614775088380625 ] ] ] } },
{ "type": "Feature", "properties": { "fid": 6 }, "geometry": { "type": "Polygon", "coordinates": [ [ [ 115.8396515, 41.2423602 ], [ 115.84354660000001, 41.22664 ], [ 115.8502296, 41.2082469 ], [ 115.825943, 41.2731506 ], [ 115.8396515, 41.2423602 ] ] ] } },
{ "type": "Feature", "properties": { "fid": 7 }, "geometry": { "type": "Polygon", "coordinates": [ [ [ 115.617941157628735, 41.500698131235481 ], [ 115.602584262564505, 41.410266076003232 ], [ 115.628910368388915, 41.566387694489862 ], [ 115.617941157628735, 41.500698131235481 ] ] ] } },
{ "type": "Feature", "properties": { "fid": 8 }, "geometry": { "type": "Polygon", "coordinates": [ [ [ 116.190533959309818, 41.921590344411612 ], [ 116.11155564183656, 41.916693106983821 ], [ 116.280481487543241, 41.928119409693807 ], [ 116.190533959309818, 41.921590344411612 ] ] ] } }
]
}
