{"type": "FeatureCollection", "features": [{"type": "Feature", "properties": {"fid": 1}, "geometry": {"type": "Polygon", "coordinates": [[[119.58002008420353, 46.766200136892046], [119.33509261075257, 46.68199797081725], [119.13691345318861, 46.704518329631334], [118.9522465109131, 46.78108754959923], [118.87117321918238, 46.83063233899022], [118.75857142511195, 46.76757533431078], [118.63696148751588, 46.731542760208235], [118.56039226754798, 46.77658347783641], [118.50183933463136, 46.77658347783641], [118.30816424883021, 46.70001425786852], [117.77217970905495, 46.58741246379809], [117.5514801926769, 46.537867674407096], [117.4208621115552, 46.38923330623412], [117.36681325040139, 46.2541111533496], [117.23169109751687, 46.19555822043297], [116.86235721296585, 46.109980856939444], [116.53806404604299, 46.02440349344592], [116.26781974027395, 45.93882612995238], [115.92551028629983, 45.84424062293322], [115.6327456217167, 45.785687690016594], [115.36700538771046, 45.77217547472814], [115.16882623014651, 45.79469583354223], [114.91659821142873, 45.91180169937548], [114.78598013030702, 46.028907565208726], [114.64184983389687, 46.123493072227895], [114.56077654216615, 46.2541111533496], [114.46168696338418, 46.3847292344713], [114.41214217399319, 46.47931474149047], [114.29954037992275, 46.60092467908654], [114.17342637056386, 46.65046946847753], [114.03830421767934, 46.6684857555288], [113.78607619896157, 46.672989827291616], [113.40323009912208, 46.68650204258007], [113.05191250162234, 46.70902240139415], [112.8357170570071, 46.70001425786852], [112.64654604296877, 46.70001425786852], [112.35828545014846, 46.62344503790062], [112.24568365607803, 46.44328216738793], [112.2366755125524, 46.32167222979186], [112.23217144078957, 46.137005287516345], [112.25469179960366, 45.9433302017152], [112.2366755125524, 45.70011032652306], [112.2682040148921, 45.546971886587265], [112.30423658899466, 45.366809016074576], [112.37630173719973, 45.24069500671569], [112.44386281364199, 45.13710135617089], [112.46187910069325, 45.047019920914536], [112.3717976654369, 44.97495477270946], [112.15109814905885, 44.92540998331847], [111.92589456091798, 44.9073936962672], [111.68267468572584, 44.86685705040184], [111.50251181521315, 44.82632040453649], [111.35387744704018, 44.709214538703236], [111.30433265764917, 44.470498735273914], [111.26379601178381, 44.32636843886376], [111.17821864829028, 44.2588073624215], [110.99355170601477, 44.173229998927965], [110.80888476373926, 44.114677066011346], [110.6602503955663, 44.04711598956908], [110.55665674502148, 43.975050841364], [110.22335543457301, 43.64174953091552], [110.15129028636794, 43.53365180860791], [110.01616813348342, 43.34448079456958], [109.88555005236171, 43.14630163700561], [109.79546861710536, 42.970642838255735], [109.63782610540676, 42.758951465403314], [109.57026502896449, 42.623829312518794], [109.45315916313125, 42.515731590211175], [109.34956551258644, 42.49771530315991], [109.23696371851601, 42.515731590211175], [109.00725605861231, 42.59680488194189], [108.7460198963689, 42.70940667601232], [108.5613529540934, 42.7814718242174], [108.35866972476661, 42.849032900659665], [108.1740027824911, 42.87605733123657], [108.03888062960657, 42.87605733123657], [107.88574218967078, 42.916593977101925], [107.71458746268372, 43.00217134059545], [107.53442459217102, 43.09675684761462], [107.38579022399806, 43.14630163700561], [107.24616399935071, 43.14179756524279], [107.14257034880592, 43.09675684761462], [107.05699298531239, 43.04270798646081], [106.62009802431909, 42.876057331236574], [106.44894329733204, 42.8310166136084], [106.17419491980017, 42.74093517835205], [105.84089360935168, 42.70940667601233], [105.34544571544177, 42.56978045136499], [105.14276248611499, 42.46618680082019], [104.72388381217297, 42.27251171501904], [104.42661507582703, 42.15990992094861], [104.2374440617887, 42.096852916269164], [104.06628933480164, 42.03379591158972], [103.9266631101543, 41.96623483514746], [104.27243858810215, 41.75420917571889], [104.50665031976865, 41.62359109459719], [104.75887833848643, 41.51549337228957], [105.02011450072983, 41.42090786527041], [105.20027737124252, 41.357850860590965], [105.41647281585776, 41.27677756886025], [105.62366011694736, 41.155167631264185], [105.92543292505613, 41.0560780524822], [106.15964465672263, 40.94798033017458], [106.36232788604941, 40.89393146902077], [106.57401925890183, 40.844386679629785], [106.82174320585678, 40.80835410552724], [106.99289793284385, 40.78132967495034], [107.10099565515146, 40.722776742033716], [107.10549972691427, 40.60567087620046], [107.12351601396554, 40.430012077450584], [106.96587350226694, 40.17778405873281], [106.97037757402975, 39.96609268588039], [106.93434499992722, 39.65981580600881], [106.89831242582468, 39.4751488637333], [106.91632871287595, 39.29048192145779], [107.0064101481323, 39.14184755328481], [106.93434499992722, 38.97519689806057], [106.65509255063255, 38.70495259229153], [106.4614174648314, 38.53830193706728], [106.43889710601732, 38.434708286522486], [106.56050704361338, 38.31309834892642], [106.89380835406187, 38.11942326312527], [107.08748343986302, 37.97979703847793], [107.2090933774591, 37.87620338793313], [107.39376031973461, 37.74108123504861], [107.56041097495884, 37.63748758450381], [107.70454127136901, 37.601455010401274], [107.92073671598423, 37.59244686687563], [108.19998916527892, 37.57893465158718], [108.4567212557595, 37.58343872335], [108.56932304982995, 37.63298351274099], [108.69093298742601, 37.72306494799734], [109.34852746479734, 38.22752098543288], [109.64129212938047, 38.412187927708395], [109.91153643514953, 38.556318224118556], [110.10070744918785, 38.7499933099197], [110.19529295620701, 38.934660252195215], [110.28537439146336, 39.01122947216311], [110.60065941486057, 39.22292084501552], [110.77181414184763, 39.37605928495131], [110.9699932994116, 39.52469365312429], [111.13213988287302, 39.59225472956655], [111.24023760518064, 39.596758801329365], [111.32131089691136, 39.52018958136147], [111.45192897803305, 39.46614072020766], [111.58705113091759, 39.488661079021746], [111.78072621671873, 39.49766922254738], [111.96539315899426, 39.614775088380625], [112.04646645072496, 39.77241760007923], [112.11853159893005, 39.912043824726574], [112.2626618953402, 40.03365376232264], [112.4428247658529, 40.1012148387649], [112.63649985165405, 40.09220669523927], [112.7806301480642, 40.08319855171363], [112.89323194213463, 40.12373519757899], [113.15446810437804, 40.23183291988661], [113.28508618549975, 40.25885735046351], [113.46975312777526, 40.276873637514775], [113.62739563947387, 40.317410283380134], [113.80305443822375, 40.38947543158521], [113.96520102168517, 40.452532436264654], [114.1273476051466, 40.53810979975819], [114.24445347097985, 40.61467901972608], [114.35705526505029, 40.71376859850807], [114.45164077206945, 40.76781745966187], [114.55073035085144, 40.88942739725794], [114.60027514024242, 40.934468114886116], [114.6723402884475, 40.934468114886116], [114.7489095084154, 40.880419253732306], [114.79395022604358, 40.79033781847596], [114.86151130248584, 40.718272670270885], [115.02816195771007, 40.68224009616834], [115.1903085411715, 40.68674416793116], [115.29840626347912, 40.718272670270885], [115.43352841636364, 40.75880931613624], [115.61369128687633, 40.898435540783574], [115.65422793274169, 41.015541406616826], [115.71278086565832, 41.11463098539881], [115.78034194210058, 41.18219206184107], [115.85022959999999, 41.208246900000006], [115.84354660000001, 41.226639999999996], [115.8396515, 41.2423602], [115.82594300000001, 41.273150599999994], [115.82555889999999, 41.27333680000001], [115.82533629999999, 41.2734231], [115.82501689999997, 41.2735526], [115.82474409999998, 41.27369019999999], [115.82420209999997, 41.27391949999999], [115.82396159999998, 41.274016599999996], [115.823477, 41.27419189999999], [115.82313959999998, 41.2743079], [115.82269809999997, 41.274491399999995], [115.8222386, 41.27466939999999], [115.82178279999998, 41.2748232], [115.8214059, 41.27495], [115.8209213, 41.27511179999999], [115.82069519999999, 41.275165799999996], [115.8203578, 41.2752386], [115.82017110000001, 41.2753222], [115.81977269999999, 41.2754814], [115.81967219999999, 41.27555149999999], [115.8195214, 41.2756244], [115.819324, 41.275834800000005], [115.8192091, 41.27594810000001], [115.81910149999999, 41.276028999999994], [115.8189687, 41.2761558], [115.8188538, 41.27630959999999], [115.8187282, 41.2763986], [115.81859180000001, 41.27650919999999], [115.81838, 41.2766657], [115.8181754, 41.2768734], [115.8181215, 41.2770163], [115.81796, 41.27722949999999], [115.81789900000001, 41.27737779999998], [115.81782, 41.2774803], [115.8177195, 41.2776125], [115.81762980000002, 41.2777825], [115.8174683, 41.277979399999985], [115.81740009999999, 41.2781196], [115.8173462, 41.27837590000001], [115.8172493, 41.27854849999999], [115.8172314, 41.2786538], [115.817235, 41.27884529999999], [115.81720980000001, 41.279055699999994], [115.8171273, 41.2792013], [115.8170196, 41.2793335], [115.81677189999998, 41.2795439], [115.81653139999999, 41.2797651], [115.81640219999996, 41.2798433], [115.81618319999998, 41.27991349999999], [115.81608629999995, 41.27997279999999], [115.81613659999996, 41.280099599999986], [115.81625499999997, 41.280417899999996], [115.81633759999998, 41.280773999999994], [115.8163663, 41.280930399999995], [115.8163519, 41.2811948], [115.81640219999996, 41.281321500000004], [115.8164812, 41.28161819999999], [115.81646319999997, 41.281863699999995], [115.8164417, 41.2820282], [115.8165422, 41.282270999999994], [115.81662119999999, 41.2824652], [115.81671809999996, 41.2826675], [115.8168581, 41.2829372], [115.81692269999999, 41.2830775], [115.81697649999997, 41.28315570000001], [115.81709499999998, 41.28322320000001], [115.81700519999998, 41.28341199999999], [115.81699089999995, 41.2836493], [115.81697289999998, 41.28379770000001], [115.81686879999997, 41.2840728], [115.8167899, 41.2842077], [115.81670009999999, 41.2843156], [115.816535, 41.28443419999999], [115.81630890000001, 41.28457989999999], [115.81614019999999, 41.28472289999999], [115.81600379999998, 41.284917099999994], [115.81584219999999, 41.285076200000006], [115.81562329999998, 41.2853082], [115.81561250000001, 41.2854322], [115.81549769999998, 41.2855239], [115.81531100000001, 41.2856588], [115.8151782, 41.285696599999994], [115.81500949999999, 41.2857883], [115.81474029999998, 41.2859986], [115.81468999999997, 41.2860688], [115.8146613, 41.28616319999999], [115.81463259999998, 41.28620899999999], [115.81452489999998, 41.28623329999999], [115.81448539999998, 41.286254899999996], [115.81444599999996, 41.28633309999999], [115.81433829999996, 41.28643559999999], [115.8142952, 41.28650029999999], [115.81427369999999, 41.2865893], [115.81427719999998, 41.286753899999994], [115.81423059999996, 41.286861699999996], [115.81415879999999, 41.287010099999996], [115.81411929999999, 41.28716649999999], [115.81413009999996, 41.28729059999999], [115.8141624, 41.28738769999999], [115.8142808, 41.2875333], [115.81438489999998, 41.2876358], [115.81432389999998, 41.287741], [115.81442439999998, 41.2879918], [115.8145285, 41.288097], [115.81460029999998, 41.288272299999996], [115.81453929999998, 41.2883721], [115.81443879999996, 41.2887443], [115.81435259999999, 41.2888333], [115.81419829999997, 41.2889385], [115.8140475, 41.289094999999996], [115.81400799999996, 41.2891813], [115.81400799999996, 41.289367399999996], [115.81399729999997, 41.289434799999995], [115.8138393, 41.2896964], [115.81374959999997, 41.2899445], [115.81369219999998, 41.29020609999999], [115.81361679999998, 41.2905487], [115.81353419999999, 41.29089389999999], [115.81357729999999, 41.291142], [115.81351629999997, 41.291298399999995], [115.81343369999999, 41.29148450000001], [115.81332599999999, 41.291568100000006], [115.8132758, 41.2916275], [115.8132614, 41.2917542], [115.8133268, 41.29188229999999], [115.8135134, 41.2919686], [115.8134524, 41.2921142], [115.8134273, 41.29224369999999], [115.81345599999997, 41.2924729], [115.8134129, 41.292623999999996], [115.8134452, 41.2927723], [115.81339139999999, 41.29290979999999], [115.81324059999997, 41.29300419999999], [115.81297499999998, 41.29306900000001], [115.81278479999999, 41.29312290000001], [115.81250119999999, 41.2932901], [115.8121459, 41.293521999999996], [115.81179049999996, 41.2937513], [115.81148539999998, 41.29402369999999], [115.8113634, 41.294066799999996], [115.81115879999997, 41.294188199999994], [115.8108644, 41.2944444], [115.81058799999998, 41.294563], [115.810265, 41.2946089], [115.80983069999999, 41.29466279999999], [115.809461, 41.29472749999999], [115.8092851, 41.2947923], [115.8090733, 41.2949487], [115.808761, 41.295353199999994], [115.80832310000001, 41.2958764], [115.8079965, 41.2962674], [115.80783139999998, 41.296529], [115.80769849999999, 41.29676629999999], [115.80761960000001, 41.296947], [115.807476, 41.297200499999995], [115.80724630000002, 41.2974405], [115.80712059999999, 41.29764279999999], [115.80691249999998, 41.2981686], [115.80684430000001, 41.2983466], [115.8065248, 41.2984652], [115.80610479999999, 41.2985623], [115.80589299999998, 41.2989372], [115.80576379999997, 41.2991232], [115.80552689999999, 41.2993336], [115.80547309999999, 41.2995331], [115.80522899999995, 41.29968949999999], [115.8047803, 41.299964599999996], [115.8045111, 41.30014799999999], [115.8043783, 41.30031520000001], [115.80436040000001, 41.300528199999995], [115.80446090000001, 41.30098929999999], [115.80452909999997, 41.30148820000001], [115.80437469999997, 41.301655399999994], [115.80419169999999, 41.301782100000004], [115.8037107, 41.301863], [115.80347379999998, 41.301965499999994], [115.80304659999999, 41.30204100000001], [115.8027666, 41.3021353], [115.80227129999999, 41.30239149999999], [115.8019231, 41.3026585], [115.8018334, 41.30280139999999], [115.8019159, 41.303143799999994], [115.80171489999998, 41.3032409], [115.8014098, 41.30356449999999], [115.80116219999998, 41.30407410000001], [115.8011299, 41.3042089], [115.8013309, 41.304519], [115.80104729999998, 41.30473739999999], [115.80097909999999, 41.3048992], [115.80078169999999, 41.3049693], [115.8005017, 41.3051176], [115.80036890000001, 41.30525519999999], [115.8001607, 41.30540619999999], [115.8000351, 41.30558140000001], [115.7999094, 41.30564069999999], [115.7995002, 41.305878], [115.79887209999998, 41.306158399999994], [115.79852030000002, 41.3063634], [115.79841620000002, 41.3064631], [115.7982547, 41.3067409], [115.7980537, 41.3071642], [115.7979424, 41.30760370000001], [115.79783120000002, 41.308107899999996], [115.7978096, 41.30853119999999], [115.7975512, 41.3097014], [115.79745779999998, 41.3098739], [115.7973286, 41.31002219999999], [115.79746499999997, 41.310205599999996], [115.7975763, 41.3103431], [115.7977845, 41.31058300000001], [115.7980357, 41.31077989999999], [115.79808960000001, 41.3109308], [115.79820090000001, 41.3110683], [115.798208, 41.3112975], [115.7983588, 41.3114323], [115.79837669999999, 41.3115617], [115.7984234, 41.31169919999999], [115.7985706, 41.3117666], [115.798829, 41.3118152], [115.79917359999999, 41.3118637], [115.79920230000002, 41.3120174], [115.7991664, 41.31233819999999], [115.79906589999999, 41.312489199999995], [115.7989223, 41.3127399], [115.79887209999998, 41.3129772], [115.7988506, 41.3132657], [115.7986711, 41.31340589999999], [115.7984449, 41.31369709999999], [115.7980537, 41.3141311], [115.7977342, 41.31448160000001], [115.79741840000001, 41.3148078], [115.79709530000001, 41.3151017], [115.79679019999998, 41.31529309999999], [115.79646359999997, 41.3154441], [115.7962123, 41.315546499999996], [115.7960544, 41.3156651], [115.7959467, 41.3158134], [115.79578879999997, 41.3158673], [115.795638, 41.3160372], [115.79544060000002, 41.316263600000006], [115.7952503, 41.31655749999999], [115.79504219999998, 41.31677049999999], [115.79502059999999, 41.31691070000001], [115.79481239999998, 41.317172199999995], [115.7947406, 41.3173231], [115.79460419999998, 41.3174121], [115.79470119999998, 41.3177545], [115.79478729999998, 41.317892], [115.79480880000001, 41.3179998], [115.79494519999997, 41.3184231], [115.79497399999997, 41.3187358], [115.79490930000001, 41.319123999999995], [115.79470830000001, 41.319719799999994], [115.79462579999998, 41.319895], [115.79444990000002, 41.32012679999999], [115.79435299999999, 41.32041799999999], [115.79421659999996, 41.32063900000001], [115.79416269999997, 41.32093019999999], [115.79410169999998, 41.3210596], [115.7939689, 41.3211944], [115.7938181, 41.32129679999999], [115.79388629999998, 41.32146929999999], [115.79389349999998, 41.3216257], [115.7938756, 41.3218737], [115.7938074, 41.3220705], [115.7937212, 41.3223643], [115.79364230000002, 41.322833300000006], [115.79362429999999, 41.323084], [115.79363509999999, 41.323938600000005], [115.79363509999999, 41.32409489999999], [115.7935597, 41.324262], [115.79341969999999, 41.3245289], [115.7932726, 41.32477960000001], [115.7931864, 41.3249952], [115.7931362, 41.32518119999999], [115.79312180000001, 41.3254643], [115.79311460000001, 41.3256098], [115.79306080000002, 41.3257877], [115.7928885, 41.3260896], [115.79285980000002, 41.326205599999994], [115.79271619999999, 41.3264077], [115.7926767, 41.326523599999994], [115.7926767, 41.3266854], [115.7925941, 41.326782400000006], [115.7923824, 41.326927999999995], [115.7920091, 41.3271113], [115.79181159999999, 41.3272218], [115.7916717, 41.3273916], [115.7914742, 41.3276072], [115.7912266, 41.3278525], [115.79105790000001, 41.3279549], [115.79073840000001, 41.328100500000005], [115.79058050000002, 41.3281975], [115.7904082, 41.328372699999996], [115.79023589999998, 41.3285372], [115.7901067, 41.32877969999999], [115.7896041, 41.329415899999994], [115.78936719999999, 41.329661099999996], [115.78924879999998, 41.3297204], [115.7891626, 41.329747399999995], [115.7890693, 41.329804], [115.7890191, 41.3298849], [115.7889437, 41.3299361], [115.78886109999999, 41.329922599999996], [115.78874979999996, 41.329866], [115.7885955, 41.3298795], [115.78846990000001, 41.3299253], [115.78834780000001, 41.3299496], [115.78807139999999, 41.330027699999995], [115.78785249999999, 41.33008430000001], [115.78749349999997, 41.330114], [115.78689409999998, 41.33017329999999], [115.7864311, 41.330235300000005], [115.78619060000001, 41.330246], [115.78598960000001, 41.33022720000001], [115.7857347, 41.3301544], [115.78545829999999, 41.3301274], [115.7849271, 41.33013819999999], [115.78470810000002, 41.330184], [115.7845071, 41.33020559999999], [115.7841482, 41.3302703], [115.7838503, 41.3303431], [115.78356669999998, 41.3304509], [115.78320419999999, 41.33061800000001], [115.78301750000001, 41.3307204], [115.7827375, 41.3308875], [115.7825257, 41.331068099999996], [115.7823391, 41.3311975], [115.78219549999999, 41.33134569999999], [115.782016, 41.3314293], [115.7819191, 41.331437400000006], [115.7817612, 41.33146159999999], [115.7813771, 41.331396999999996], [115.78080999999999, 41.33126219999999], [115.78063050000002, 41.3312541], [115.7800706, 41.33135649999999], [115.77983010000001, 41.33135649999999], [115.77952140000001, 41.3313808], [115.77948549999998, 41.33144550000001], [115.779306, 41.3316584], [115.7790583, 41.33188479999999], [115.77868499999997, 41.33222709999999], [115.77857019999999, 41.3324023], [115.77840149999997, 41.332582900000006], [115.77806049999998, 41.332844300000005], [115.77776259999999, 41.333084199999995], [115.7773677, 41.3333942], [115.7772816, 41.33344], [115.77696930000002, 41.3336799], [115.77675390000002, 41.3338712], [115.77644160000001, 41.33409760000001], [115.7760935, 41.33440219999999], [115.77615089999999, 41.3346447], [115.775914, 41.3348011], [115.77575600000002, 41.3348765], [115.775695, 41.33495739999999], [115.7756986, 41.33508139999999], [115.7756663, 41.33514069999999], [115.72776039999997, 41.36835000000001], [115.68901369999998, 41.3513773], [115.6576558, 41.31834849999999], [115.616962, 41.315234], [115.6025842625645, 41.41026607600323], [115.61794115762874, 41.50069813123548], [115.62891036838892, 41.56638769448986], [115.67936873788574, 41.62709113994625], [115.78686700333542, 41.65168437874083], [115.8548761100485, 41.66151904631061], [115.90972216384937, 41.68446076363178], [115.96895590195432, 41.70575646503622], [115.99966969208279, 41.75487347871154], [116.00405737638684, 41.836651701249274], [116.012832744995, 41.86933377058857], [116.04354653512347, 41.90526475814039], [116.11155564183656, 41.91669310698382], [116.19053395930982, 41.92159034441161], [116.28048148754324, 41.92811940969381], [116.3777904, 41.941789199999995], [116.44063196464178, 41.97380415744415], [116.50000044155631, 41.99872874609505], [116.53935486148333, 42.02108598305847], [116.59858859958828, 42.02760485723137], [116.64904696908505, 42.02923447133775], [116.68853612782169, 42.014566440501746], [116.72144376010223, 41.993373311358866], [116.74557602377459, 41.98195870251813], [116.77409597175105, 41.99663425224649], [116.78945286681528, 42.02434550369389], [116.79164670896732, 42.08787275495452], [116.79384055111937, 42.120426180853904], [116.77190212959903, 42.157841955933485], [116.7499637080787, 42.17572864169736], [116.74776986592664, 42.195235621818725], [116.75654523453476, 42.21961088248063], [116.74338218162258, 42.24560079330875], [116.72802528655829, 42.28294253950498], [116.74118833947053, 42.31701786022175], [116.76751444529496, 42.339724495713256], [116.77409597175105, 42.37052753322945], [116.76751444529496, 42.40293547183756], [116.73680065516649, 42.475792157097416], [116.68414844351761, 42.49197102684661], [116.65562849554117, 42.5097629510428], [116.63807775832493, 42.54533161041743], [116.62930238971676, 42.597031686051], [116.60955781034846, 42.64223409578417], [116.5744563359159, 42.68740368831354], [116.44940733324992, 42.737374595176696], [116.38359206868888, 42.793745000955845], [116.34190906780019, 42.817888043111616], [116.2958383826075, 42.85328079332262], [116.26293075032694, 42.90472496986378], [116.27389996108715, 42.976995769921714], [116.2717061189351, 43.0523880258172], [116.28706301399936, 43.08123714290803], [116.32874601488801, 43.10046234448958], [116.37701054223277, 43.132490936254875], [116.3989489637531, 43.178902615770696], [116.40772433236124, 43.22368044360614], [116.4497716, 43.2668461], [116.47573343907436, 43.301962558092626], [116.52619180857116, 43.34664999860045], [116.56348712515575, 43.38492735425476], [116.57006865161185, 43.41043217255137], [116.58542554667608, 43.431146932465474], [116.63149623186882, 43.46140960160631], [116.65782233769322, 43.494840199910286], [116.67317923275749, 43.5425661108959], [116.6995053385819, 43.583898030143075], [116.73241297086241, 43.61726080137538], [116.76532060314291, 43.63790467415992], [116.8223604990958, 43.6617157171461], [116.89914497441703, 43.704551805774], [116.93424644884959, 43.734677384508004], [116.94960334391385, 43.77429322584387], [116.960572554674, 43.817048876828316], [116.95837871252195, 43.84711784816709], [116.93863413315366, 43.87084580823652], [116.9474095017618, 43.902468399395225], [116.97812329189027, 43.91669308836997], [117.01980629277894, 43.91669308836997], [117.0571016093635, 43.9198536686875], [117.08781539949202, 43.92617432566981], [117.14924297974898, 43.93881362500403], [117.22383361291818, 43.94987080839079], [117.26551661380684, 43.956188275501304], [117.31378114115161, 43.96408416499684], [117.37301487925652, 43.956188275501304], [117.40153482723296, 43.93881362500404], [117.44541167027367, 43.924594224381046], [117.4958700397705, 43.9198536686875], [117.54632840926729, 43.930914377707666], [117.5850072, 43.9343457], [117.66918356978124, 43.9704001210726], [117.71086657066988, 43.96566321697608], [117.74377420295039, 43.953029625891666], [117.77448799307889, 43.94829133668134], [117.84688478409605, 43.91827339951419], [117.91050620650505, 43.910371424085675], [117.96096457600184, 43.90562973518214], [118.00703526119457, 43.91511273525492], [118.05529978853934, 43.91669308836997], [118.08601357866782, 43.91353234016913], [118.13427810601259, 43.902468399395225], [118.18034879120529, 43.902468399395225], [118.19789952842159, 43.9198536686875], [118.21106258133382, 43.956188275501304], [118.19789952842159, 43.98303001847972], [118.18912415981346, 44.017748384674405], [118.19351184411752, 44.04613920927081], [118.1777931, 44.08744829999999], [118.18144571228135, 44.10524307709063], [118.18473647550938, 44.13910266884201], [118.19899644949761, 44.14697421123038], [118.24287329253832, 44.15248366641698], [118.30101010956723, 44.16192725023469], [118.37049879999998, 44.18280119999999], [118.42386527008121, 44.21541234308659], [118.47212979742598, 44.26413586312281], [118.52039432477072, 44.30653960159644], [118.58182190502768, 44.36616708112965], [118.68712632832533, 44.41946658750625], [118.74416622427826, 44.457060542], [118.80778764668726, 44.51340612078758], [118.82533838390351, 44.56657141588167], [118.82753222605555, 44.62281116624272], [118.87140906909629, 44.688355416821906], [118.90212285922476, 44.716423130922855], [118.9481935444175, 44.74915159885909], [118.99645807176223, 44.75382558231022], [119.02059033543465, 44.758499187767626], [119.02936570404276, 44.77874711014285], [119.0118149668265, 44.80054462708299], [118.9986519139143, 44.81922166105911], [119.0118149668265, 44.84722587201134], [119.03814107265092, 44.87055231941159], [119.05349796771517, 44.895423447199406], [119.04472259910703, 44.92805048519376], [119.00962112467447, 44.95134417214171], [118.97451965024189, 44.97462840891157], [118.98548886100208, 45.032022454800504], [119.00962112467447, 45.04907446130272], [119.0315595461948, 45.06457187531238], [119.03814107265092, 45.08316322802591], [119.07982407353956, 45.117231666423585], [119.14563933810062, 45.126519530667814], [119.19390386544539, 45.12342374392163], [119.24874991924622, 45.12961514941222], [119.28823907798287, 45.146638049478405], [119.32772823671951, 45.16520268987298], [119.35405434254393, 45.174482742060476], [119.39134965912852, 45.180668603517134], [119.42425729140902, 45.18685379297349], [119.4461957129294, 45.19149224406609], [119.45497108153752, 45.211587830814906], [119.45716492368955, 45.24712417336194], [119.46374645014566, 45.30424471401068], [119.44838955508143, 45.32892768092037], [119.39134965912852, 45.33355454026734], [119.35624818469596, 45.33972309809133], [119.35624818469596, 45.370555807750094], [119.3650235533041, 45.39983132190892], [119.36721739545611, 45.42293286074435], [119.35405434254393, 45.449103181777105], [119.35844202684801, 45.4660304515686], [119.40451271204073, 45.47987625636461], [119.42206344925698, 45.509095118086044], [119.43083881786514, 45.53676216090059], [119.43742034432125, 45.558271565426544], [119.45058339723343, 45.57823721416231], [119.49226639812211, 45.588985008629734], [119.51859250394652, 45.599730745490284], [119.54491860977093, 45.6135436694858], [119.55808166268314, 45.62581896874433], [119.59976466357182, 45.659562184807264], [119.61950924294011, 45.69634978766146], [119.64364150661252, 45.739238090126456], [119.67435529674097, 45.77750340099101], [119.6875183496532, 45.808096756215214], [119.72261982408577, 45.838673317782686], [119.76430282497441, 45.84784301156641], [119.79940429940697, 45.84325835359652], [119.83889345814359, 45.831030751768274], [119.86741340612006, 45.831030751768274], [119.88715798548833, 45.84325835359652], [119.9025148805526, 45.870760633819565], [119.91348409131278, 45.91504125288112], [119.88496414333633, 45.98215822205388], [119.8520565110558, 46.04614861087178], [119.83011808953547, 46.11462758008409], [119.82792424738342, 46.1875781391921], [119.83011808953547, 46.25739836374822], [119.8498626689038, 46.3119783446061], [119.85863803751192, 46.33924794372984], [119.83669961599159, 46.40131128706604], [119.78404740434274, 46.46028170718764], [119.70945677117356, 46.50107000811001], [119.67874298104509, 46.53428231248063], [119.65680455952473, 46.585570492211474], [119.63486613800438, 46.61873112824381], [119.58660161065964, 46.666928550197035], [119.57343855774744, 46.70756172774186], [119.57343855774744, 46.740647644405705], [119.58002008420353, 46.766200136892046]]]}}, {"type": "Feature", "properties": {"fid": 2}, "geometry": {"type": "Polygon", "coordinates": [[[111.78072621671873, 39.49766922254738], [111.9375242149618, 39.35203903505217], [112.06363822432068, 39.2304290974561], [112.12669522900012, 39.11782730338567], [112.1717359466283, 38.987209222263964], [112.27082552541029, 38.879111499956345], [112.49602911355115, 38.91514407405889], [112.70321641464075, 38.97820107873833], [112.86085892633936, 39.06377844223186], [113.04102179685205, 39.122331375148484], [113.20316838031349, 39.158363949251026], [113.40585160964027, 39.171876164539476], [113.52295747547352, 39.16286802101384], [113.67159184364648, 39.11332323162285], [113.86076285768482, 39.05026622694341], [114.03191758467187, 38.960184791687055], [114.24811302928711, 38.919648145821704], [114.41926775627417, 38.95117664816142], [114.50934919153052, 39.0232417963665], [114.52286140681898, 39.171876164539476], [114.50484511976771, 39.27546981508427], [114.5543899091587, 39.361047178577806], [114.56790212444714, 39.392575680917524], [114.50484511976771, 39.45563268559697], [114.41025961274853, 39.48716118793669], [114.374227038646, 39.57273855143022], [114.36972296688319, 39.68083627373784], [114.33819446454346, 39.77542178075701], [114.27513745986401, 39.874511359538985], [114.22559267047302, 39.98711315360942], [114.20307231165894, 40.06818644534013], [114.20757638342175, 40.15826788059648], [114.27513745986401, 40.266365602904095], [114.30666596220374, 40.333926679346355], [114.30216189044091, 40.40148775578862], [114.25712117281275, 40.455536616942425], [114.23460081399865, 40.52309769338469], [114.24445347097985, 40.61467901972608], [114.1273476051466, 40.53810979975819], [113.96520102168517, 40.452532436264654], [113.80305443822375, 40.38947543158521], [113.62739563947387, 40.317410283380134], [113.46975312777526, 40.276873637514775], [113.28508618549975, 40.25885735046351], [113.15446810437804, 40.23183291988661], [112.89323194213463, 40.12373519757899], [112.7806301480642, 40.08319855171363], [112.4428247658529, 40.1012148387649], [112.2626618953402, 40.03365376232264], [112.11853159893005, 39.912043824726574], [112.04646645072496, 39.77241760007923], [111.96539315899426, 39.614775088380625], [111.78072621671873, 39.49766922254738]]]}}, {"type": "Feature", "properties": {"fid": 3}, "geometry": {"type": "Polygon", "coordinates": [[[114.56790212444714, 39.392575680917524], [114.69401613380603, 39.455632685596974], [114.77832672711624, 39.539877301293494], [114.88417241354244, 39.677251490059426], [115.0057823511385, 39.708779992399144], [115.05082306876669, 39.789853284129855], [115.129644324616, 39.80561753529972], [115.28728683631459, 39.83489400175803], [115.38637641509658, 39.900203042318886], [115.39313252274081, 40.035325195203406], [115.44943341977603, 40.082617948712986], [115.46294563506447, 40.150179025155246], [115.54176689091378, 40.204227886309056], [115.62509221852591, 40.20197585042765], [115.69490533084958, 40.13216273810398], [115.74895419200338, 40.123154594578345], [115.8052550890386, 40.19296770690202], [115.89984059605777, 40.21323602983469], [115.906596703702, 40.265032855107094], [115.95839352897438, 40.27629303451413], [116.07775143068905, 40.210983993953285], [116.13180029184286, 40.23350435276737], [116.08675957421468, 40.27629303451413], [116.09801975362173, 40.34835818271922], [116.17737090639753, 40.40135853558465], [116.17188630101741, 40.41722794529461], [116.1817585907016, 40.433093612824784], [116.21137545975405, 40.446451272188376], [116.24208924988255, 40.457302416090734], [116.28815993507529, 40.462310045356496], [116.33861830457205, 40.47065526462613], [116.37715510000001, 40.4771026], [116.47353959692221, 40.48734259234215], [116.48341188660636, 40.49985536596963], [116.47767440000001, 40.5133118], [116.44771930000002, 40.52729159999999], [116.46915191261814, 40.55071660387728], [116.4921872552145, 40.564884169840184], [116.50205954489866, 40.5773824734327], [116.49547801844254, 40.58904545059541], [116.48121804445432, 40.59321030672905], [116.44392272786975, 40.58404728082774], [116.4154027798933, 40.5773824734327], [116.39017359514489, 40.58654641240291], [116.3649444103965, 40.60237207710673], [116.31009835659565, 40.61236530370806], [116.2725863, 40.6132623], [116.21686006513417, 40.61486337687226], [116.20016589999997, 40.62376929999999], [116.16215519999999, 40.675949], [116.09729566784829, 40.747958592295326], [116.04244961404743, 40.830178130866805], [115.99199124455063, 40.90566385293047], [115.94043595397781, 40.992655815409854], [115.91191600600136, 41.05472275022197], [115.88668682125295, 41.13656151927954], [115.85022959999999, 41.208246900000006], [115.78034194210058, 41.18219206184107], [115.71278086565832, 41.11463098539881], [115.65422793274169, 41.015541406616826], [115.61369128687633, 40.898435540783574], [115.43352841636364, 40.75880931613624], [115.29840626347912, 40.718272670270885], [115.1903085411715, 40.68674416793116], [115.02816195771007, 40.68224009616834], [114.86151130248584, 40.718272670270885], [114.79395022604358, 40.79033781847596], [114.7489095084154, 40.880419253732306], [114.6723402884475, 40.934468114886116], [114.60027514024242, 40.934468114886116], [114.55073035085144, 40.88942739725794], [114.45164077206945, 40.76781745966187], [114.35705526505029, 40.71376859850807], [114.24445347097985, 40.61467901972608], [114.23460081399865, 40.52309769338469], [114.25712117281275, 40.455536616942425], [114.30216189044091, 40.40148775578862], [114.30666596220374, 40.333926679346355], [114.27513745986401, 40.266365602904095], [114.20757638342175, 40.15826788059648], [114.20307231165894, 40.06818644534013], [114.22559267047302, 39.98711315360942], [114.27513745986401, 39.874511359538985], [114.33819446454346, 39.77542178075701], [114.36972296688319, 39.68083627373784], [114.374227038646, 39.57273855143022], [114.41025961274853, 39.48716118793669], [114.50484511976771, 39.45563268559697], [114.56790212444714, 39.392575680917524]]]}}]}