{
"type": "FeatureCollection",
"name": "resistanceareas1942map",
"features": [
{ "type": "Feature", "properties": { }, "geometry": { "type": "Polygon", "coordinates": [ [ [ 122.589027, 37.22403 ], [ 122.418434, 37.209104 ], [ 122.277859, 37.188109 ], [ 122.124104, 37.156605 ], [ 121.987922, 37.132093 ], [ 121.928617, 37.154855 ], [ 121.886883, 37.205606 ], [ 121.838561, 37.226596 ], [ 121.785845, 37.216101 ], [ 121.744111, 37.170609 ], [ 121.706771, 37.118083 ], [ 121.605732, 37.004152 ], [ 121.544231, 36.9322 ], [ 121.454174, 36.89532 ], [ 121.34435, 36.902346 ], [ 121.280652, 36.949755 ], [ 121.223543, 37.014676 ], [ 121.177417, 37.069026 ], [ 121.100539, 37.111077 ], [ 121.039038, 37.112828 ], [ 120.929213, 37.072531 ], [ 120.841353, 37.002398 ], [ 120.76228, 36.9322 ], [ 120.707367, 36.886536 ], [ 120.670027, 36.86018 ], [ 120.670027, 36.81799 ], [ 120.724939, 36.807439 ], [ 120.786441, 36.823265 ], [ 120.858925, 36.821507 ], [ 120.922624, 36.812715 ], [ 120.984125, 36.770499 ], [ 121.019269, 36.726499 ], [ 121.05002, 36.682474 ], [ 121.074181, 36.647236 ], [ 121.082642, 36.622421 ], [ 121.170418, 36.677643 ], [ 121.183197, 36.699036 ], [ 121.184029, 36.697926 ], [ 121.18042, 36.686253 ], [ 121.174858, 36.68042 ], [ 121.22403, 36.694862 ], [ 121.235977, 36.69236 ], [ 121.237076, 36.677086 ], [ 121.244308, 36.692924 ], [ 121.284027, 36.711815 ], [ 121.311249, 36.707088 ], [ 121.330971, 36.719864 ], [ 121.36097, 36.718475 ], [ 121.347366, 36.732372 ], [ 121.352913, 36.740974 ], [ 121.376251, 36.700699 ], [ 121.40403, 36.713753 ], [ 121.395142, 36.717087 ], [ 121.38652, 36.712364 ], [ 121.373749, 36.724304 ], [ 121.390419, 36.75264 ], [ 121.413193, 36.763203 ], [ 121.445137, 36.754311 ], [ 121.452362, 36.771252 ], [ 121.47403, 36.770691 ], [ 121.466248, 36.784863 ], [ 121.47625, 36.805973 ], [ 121.447083, 36.845699 ], [ 121.469582, 36.825142 ], [ 121.498474, 36.840973 ], [ 121.485138, 36.821251 ], [ 121.484581, 36.794304 ], [ 121.548752, 36.835693 ], [ 121.600128, 36.84153 ], [ 121.551529, 36.812363 ], [ 121.543213, 36.78986 ], [ 121.537918, 36.801811 ], [ 121.524017, 36.802639 ], [ 121.490692, 36.790974 ], [ 121.480972, 36.77375 ], [ 121.544296, 36.750969 ], [ 121.539307, 36.767082 ], [ 121.56208, 36.78014 ], [ 121.580696, 36.760971 ], [ 121.600693, 36.77375 ], [ 121.606796, 36.752079 ], [ 121.598473, 36.743469 ], [ 121.644302, 36.735142 ], [ 121.619026, 36.791248 ], [ 121.630692, 36.808472 ], [ 121.620697, 36.821804 ], [ 121.631248, 36.832085 ], [ 121.643753, 36.828472 ], [ 121.625969, 36.818199 ], [ 121.634033, 36.811249 ], [ 121.727356, 36.8307 ], [ 121.751808, 36.845699 ], [ 121.74736, 36.859032 ], [ 121.762917, 36.883472 ], [ 121.96875, 36.94902 ], [ 121.957916, 36.962639 ], [ 121.968193, 36.96764 ], [ 121.944031, 36.983749 ], [ 121.961243, 36.976532 ], [ 121.974861, 36.962921 ], [ 121.995972, 36.972919 ], [ 122.011528, 36.967091 ], [ 122.020973, 36.93985 ], [ 122.031807, 36.946529 ], [ 122.020691, 36.909027 ], [ 122.045692, 36.882915 ], [ 122.044861, 36.908749 ], [ 122.080139, 36.920422 ], [ 122.10125, 36.915421 ], [ 122.086807, 36.932919 ], [ 122.097641, 36.952084 ], [ 122.143471, 36.94875 ], [ 122.158752, 37.002922 ], [ 122.19236, 37.0093 ], [ 122.200966, 37.030972 ], [ 122.193192, 37.049583 ], [ 122.202919, 37.044582 ], [ 122.205696, 37.008194 ], [ 122.16597, 37.000694 ], [ 122.162086, 36.966251 ], [ 122.147087, 36.950699 ], [ 122.157364, 36.917915 ], [ 122.21347, 36.908749 ], [ 122.193192, 36.907082 ], [ 122.179306, 36.889309 ], [ 122.193192, 36.86153 ], [ 122.174576, 36.840969 ], [ 122.219856, 36.853199 ], [ 122.296806, 36.833191 ], [ 122.332916, 36.839584 ], [ 122.342361, 36.829861 ], [ 122.375687, 36.849861 ], [ 122.357361, 36.865421 ], [ 122.371246, 36.857639 ], [ 122.378754, 36.867085 ], [ 122.409027, 36.862362 ], [ 122.442085, 36.875137 ], [ 122.445419, 36.882931 ], [ 122.435417, 36.880421 ], [ 122.410416, 36.906807 ], [ 122.429863, 36.92625 ], [ 122.474297, 36.92931 ], [ 122.477638, 36.92181 ], [ 122.484863, 36.933193 ], [ 122.50264, 36.93375 ], [ 122.50486, 36.90625 ], [ 122.486526, 36.894306 ], [ 122.515419, 36.89431 ], [ 122.528198, 36.919304 ], [ 122.541252, 36.918751 ], [ 122.519577, 36.949589 ], [ 122.539856, 36.97847 ], [ 122.535698, 37.02486 ], [ 122.574028, 37.043194 ], [ 122.517357, 37.03043 ], [ 122.529297, 37.009861 ], [ 122.523193, 37.004032 ], [ 122.516251, 37.02792 ], [ 122.479858, 37.022915 ], [ 122.47847, 37.010971 ], [ 122.469017, 37.035141 ], [ 122.436806, 37.027363 ], [ 122.435143, 37.007084 ], [ 122.409576, 37.003189 ], [ 122.415138, 37.02597 ], [ 122.406509, 37.030972 ], [ 122.441803, 37.055691 ], [ 122.438469, 37.067921 ], [ 122.463196, 37.070141 ], [ 122.461807, 37.097084 ], [ 122.444031, 37.124306 ], [ 122.454849, 37.151249 ], [ 122.480423, 37.151531 ], [ 122.453751, 37.12347 ], [ 122.461807, 37.102089 ], [ 122.490417, 37.155693 ], [ 122.527084, 37.159584 ], [ 122.575142, 37.146526 ], [ 122.579582, 37.159584 ], [ 122.55764, 37.168751 ], [ 122.559586, 37.182083 ], [ 122.580406, 37.190971 ], [ 122.59375, 37.183189 ], [ 122.594025, 37.194584 ], [ 122.611542, 37.20042 ], [ 122.624031, 37.19347 ], [ 122.621529, 37.2057 ], [ 122.589027, 37.22403 ] ] ] } },
{ "type": "Feature", "properties": { }, "geometry": { "type": "Polygon", "coordinates": [ [ [ 120.698556, 37.367417 ], [ 120.707342, 37.402323 ], [ 120.705145, 37.449419 ], [ 120.656822, 37.456394 ], [ 120.588731, 37.400578 ], [ 120.525033, 37.341227 ], [ 120.485496, 37.285325 ], [ 120.454745, 37.241623 ], [ 120.434977, 37.192646 ], [ 120.452549, 37.15064 ], [ 120.51405, 37.143637 ], [ 120.579945, 37.203144 ], [ 120.64584, 37.28882 ], [ 120.698556, 37.367417 ] ] ] } },
{ "type": "Feature", "properties": { }, "geometry": { "type": "Polygon", "coordinates": [ [ [ 120.065966, 37.038512 ], [ 120.015447, 37.027991 ], [ 119.960534, 36.985894 ], [ 119.964927, 36.94553 ], [ 120.01325, 36.943774 ], [ 120.05718, 36.971857 ], [ 120.072555, 37.0087 ], [ 120.065966, 37.038512 ] ] ] } },
{ "type": "Feature", "properties": { }, "geometry": { "type": "Polygon", "coordinates": [ [ [ 119.561537, 36.806963 ], [ 119.535179, 36.757705 ], [ 119.55934, 36.699611 ], [ 119.60327, 36.662619 ], [ 119.666968, 36.681998 ], [ 119.664772, 36.727783 ], [ 119.649396, 36.77706 ], [ 119.598877, 36.813997 ], [ 119.561537, 36.806963 ] ] ] } },
{ "type": "Feature", "properties": { }, "geometry": { "type": "Polygon", "coordinates": [ [ [ 118.955971, 37.280693 ], [ 118.939929, 37.201633 ], [ 118.968484, 37.122863 ], [ 119.038771, 37.054529 ], [ 119.152989, 36.982625 ], [ 119.2716, 36.98438 ], [ 119.420961, 37.015955 ], [ 119.500035, 37.036998 ], [ 119.544579, 37.055691 ], [ 119.551529, 37.117649 ], [ 119.529861, 37.12431 ], [ 119.501251, 37.124584 ], [ 119.489029, 37.099861 ], [ 119.473747, 37.097363 ], [ 119.473747, 37.080139 ], [ 119.465416, 37.06847 ], [ 119.464027, 37.072083 ], [ 119.472641, 37.081249 ], [ 119.467636, 37.114311 ], [ 119.43013, 37.1157 ], [ 119.427917, 37.09264 ], [ 119.380142, 37.090973 ], [ 119.378197, 37.075409 ], [ 119.337364, 37.075695 ], [ 119.307358, 37.06736 ], [ 119.303467, 37.055141 ], [ 119.242638, 37.059029 ], [ 119.239296, 37.082359 ], [ 119.257919, 37.110691 ], [ 119.254028, 37.128471 ], [ 119.216522, 37.134861 ], [ 119.19458, 37.119026 ], [ 119.190407, 37.134861 ], [ 119.204865, 37.134029 ], [ 119.192917, 37.138752 ], [ 119.206253, 37.145973 ], [ 119.196251, 37.155693 ], [ 119.181252, 37.12764 ], [ 119.189026, 37.167641 ], [ 119.176247, 37.157082 ], [ 119.147087, 37.161251 ], [ 119.141251, 37.128193 ], [ 119.127083, 37.172916 ], [ 119.137917, 37.18486 ], [ 119.119026, 37.209862 ], [ 119.099861, 37.209305 ], [ 119.057083, 37.239861 ], [ 119.044029, 37.218472 ], [ 119.047081, 37.243473 ], [ 119.034302, 37.243191 ], [ 119.016525, 37.266251 ], [ 118.955971, 37.280693 ] ] ] } },
{ "type": "Feature", "properties": { }, "geometry": { "type": "Polygon", "coordinates": [ [ [ 118.934593, 37.32597 ], [ 118.930969, 37.345699 ], [ 118.951248, 37.347363 ], [ 118.89875, 37.360695 ], [ 118.940697, 37.353752 ], [ 118.943466, 37.37125 ], [ 118.930969, 37.390694 ], [ 118.940697, 37.456532 ], [ 118.927917, 37.530422 ], [ 118.974586, 37.626259 ], [ 119.03653, 37.685699 ], [ 119.116806, 37.703194 ], [ 119.123749, 37.680416 ], [ 119.157639, 37.678749 ], [ 119.16597, 37.68903 ], [ 119.169029, 37.680691 ], [ 119.201805, 37.680416 ], [ 119.288193, 37.632359 ], [ 119.307358, 37.64653 ], [ 119.289307, 37.686531 ], [ 119.24292, 37.72514 ], [ 119.249863, 37.734585 ], [ 119.228195, 37.732918 ], [ 119.206253, 37.766529 ], [ 119.262077, 37.78931 ], [ 119.266525, 37.779861 ], [ 119.25708, 37.768749 ], [ 119.264862, 37.77319 ], [ 119.271797, 37.790142 ], [ 119.264587, 37.81625 ], [ 119.232086, 37.787918 ], [ 119.170692, 37.767921 ], [ 119.189583, 37.784309 ], [ 119.18486, 37.796249 ], [ 119.145691, 37.808472 ], [ 119.152916, 37.814583 ], [ 119.133194, 37.829304 ], [ 119.085976, 37.83847 ], [ 119.097084, 37.85236 ], [ 119.089859, 37.912922 ], [ 119.031525, 37.953194 ], [ 118.999031, 37.958752 ], [ 118.969566, 38.021252 ], [ 118.953476, 38.022079 ], [ 118.954582, 38.030972 ], [ 118.969307, 38.024582 ], [ 118.947639, 38.061806 ], [ 118.961525, 38.077641 ], [ 118.953476, 38.09153 ], [ 118.888481, 38.135422 ], [ 118.876808, 38.128742 ], [ 118.846252, 38.144585 ], [ 118.809303, 38.147083 ], [ 118.740692, 38.124859 ], [ 118.710678, 38.140141 ], [ 118.619026, 38.130421 ], [ 118.61264, 38.138474 ], [ 118.570137, 38.101822 ], [ 118.58429, 38.087639 ], [ 118.577637, 38.089031 ], [ 118.571251, 38.095699 ], [ 118.567642, 38.095421 ], [ 118.562637, 38.082359 ], [ 118.54792, 38.081249 ], [ 118.554031, 38.065971 ], [ 118.525406, 38.065689 ], [ 118.518471, 38.086529 ], [ 118.474304, 38.112083 ], [ 118.387085, 38.117363 ], [ 118.380966, 38.10347 ], [ 118.377083, 38.106529 ], [ 118.376801, 38.108749 ], [ 118.382637, 38.116249 ], [ 118.343193, 38.125694 ], [ 118.337082, 38.115971 ], [ 118.355698, 38.102089 ], [ 118.314857, 38.124584 ], [ 118.29792, 38.124031 ], [ 118.302643, 38.114311 ], [ 118.297638, 38.112362 ], [ 118.300423, 38.116531 ], [ 118.294586, 38.119579 ], [ 118.294861, 38.126251 ], [ 118.26403, 38.134583 ], [ 118.123192, 38.14431 ], [ 118.050972, 38.132084 ], [ 118.04847, 38.169029 ], [ 118.013748, 38.191636 ], [ 117.980141, 38.19236 ], [ 117.951508, 38.147361 ], [ 117.966884, 38.066129 ], [ 118.015206, 37.962298 ], [ 118.114048, 37.832302 ], [ 118.184336, 37.768086 ], [ 118.243641, 37.735089 ], [ 118.298554, 37.712503 ], [ 118.375431, 37.642966 ], [ 118.450112, 37.554211 ], [ 118.472077, 37.484525 ], [ 118.487452, 37.402561 ], [ 118.500631, 37.317014 ], [ 118.511613, 37.262842 ], [ 118.559936, 37.24361 ], [ 118.628028, 37.276826 ], [ 118.687333, 37.280321 ], [ 118.72687, 37.247107 ], [ 118.731263, 37.199884 ], [ 118.759817, 37.178886 ], [ 118.792764, 37.203383 ], [ 118.838891, 37.255849 ], [ 118.871838, 37.296049 ], [ 118.934593, 37.32597 ] ] ] } },
{ "type": "Feature", "properties": { }, "geometry": { "type": "Polygon", "coordinates": [ [ [ 117.611809, 38.514584 ], [ 117.573332, 38.500796 ], [ 117.573332, 38.464688 ], [ 117.596395, 38.433725 ], [ 117.623851, 38.398444 ], [ 117.658995, 38.354535 ], [ 117.673272, 38.314908 ], [ 117.68096, 38.270085 ], [ 117.649111, 38.249389 ], [ 117.594199, 38.251114 ], [ 117.550269, 38.259738 ], [ 117.487669, 38.255426 ], [ 117.459114, 38.23645 ], [ 117.448132, 38.210567 ], [ 117.450328, 38.169997 ], [ 117.436051, 38.120766 ], [ 117.441542, 38.049883 ], [ 117.481079, 38.024799 ], [ 117.506339, 38.023934 ], [ 117.553563, 38.042964 ], [ 117.57443, 38.079282 ], [ 117.610672, 38.106076 ], [ 117.653504, 38.12595 ], [ 117.691942, 38.144954 ], [ 117.742462, 38.16568 ], [ 117.791883, 38.183811 ], [ 117.838009, 38.198485 ], [ 117.847893, 38.250251 ], [ 117.839584, 38.265415 ], [ 117.826248, 38.277084 ], [ 117.87764, 38.320972 ], [ 117.821808, 38.283195 ], [ 117.751808, 38.333752 ], [ 117.724304, 38.367363 ], [ 117.715698, 38.361252 ], [ 117.705971, 38.369862 ], [ 117.694305, 38.382362 ], [ 117.711533, 38.376251 ], [ 117.658752, 38.462639 ], [ 117.62236, 38.494301 ], [ 117.611809, 38.514584 ] ] ] } },
{ "type": "Feature", "properties": { }, "geometry": { "type": "Polygon", "coordinates": [ [ [ 118.471817, 39.396834 ], [ 118.441066, 39.357783 ], [ 118.425691, 39.327207 ], [ 118.467424, 39.267714 ], [ 118.517943, 39.267714 ], [ 118.524533, 39.32041 ], [ 118.553087, 39.37816 ], [ 118.535515, 39.403623 ], [ 118.500371, 39.407018 ], [ 118.471817, 39.396834 ] ] ] } },
{ "type": "Feature", "properties": { }, "geometry": { "type": "Polygon", "coordinates": [ [ [ 118.35101, 39.549431 ], [ 118.304884, 39.547737 ], [ 118.230203, 39.517244 ], [ 118.155522, 39.479956 ], [ 118.10061, 39.444345 ], [ 118.102806, 39.413806 ], [ 118.131361, 39.408715 ], [ 118.243382, 39.451129 ], [ 118.35101, 39.507077 ], [ 118.3576, 39.525716 ], [ 118.35101, 39.549431 ] ] ] } },
{ "type": "Feature", "properties": { }, "geometry": { "type": "Polygon", "coordinates": [ [ [ 117.912245, 39.785362 ], [ 117.889731, 39.781775 ], [ 117.872433, 39.770591 ], [ 117.85239, 39.75054 ], [ 117.838388, 39.731328 ], [ 117.834544, 39.707886 ], [ 117.845252, 39.690353 ], [ 117.866393, 39.68655 ], [ 117.897418, 39.701127 ], [ 117.923776, 39.72436 ], [ 117.935033, 39.742307 ], [ 117.938054, 39.760461 ], [ 117.93064, 39.778188 ], [ 117.912245, 39.785362 ] ] ] } },
{ "type": "Feature", "properties": { }, "geometry": { "type": "Polygon", "coordinates": [ [ [ 118.231802, 40.110262 ], [ 118.187872, 40.158962 ], [ 118.141746, 40.182459 ], [ 118.080244, 40.182459 ], [ 118.036314, 40.14721 ], [ 118.047297, 40.111942 ], [ 118.106602, 40.095142 ], [ 118.161514, 40.046396 ], [ 118.185676, 39.995934 ], [ 118.203248, 39.942066 ], [ 118.273535, 39.888155 ], [ 118.341627, 39.849381 ], [ 118.411914, 39.866242 ], [ 118.436076, 39.901637 ], [ 118.425093, 39.95722 ], [ 118.363592, 40.009394 ], [ 118.288911, 40.053122 ], [ 118.242785, 40.091781 ], [ 118.231802, 40.110262 ] ] ] } },
{ "type": "Feature", "properties": { }, "geometry": { "type": "Polygon", "coordinates": [ [ [ 118.324055, 40.395244 ], [ 118.319662, 40.3668 ], [ 118.284518, 40.346714 ], [ 118.249374, 40.323274 ], [ 118.244981, 40.273016 ], [ 118.275732, 40.247874 ], [ 118.348216, 40.251227 ], [ 118.396539, 40.252903 ], [ 118.442665, 40.244521 ], [ 118.512953, 40.256256 ], [ 118.526132, 40.296474 ], [ 118.517346, 40.34504 ], [ 118.50856, 40.3668 ], [ 118.398735, 40.401935 ], [ 118.343823, 40.406952 ], [ 118.324055, 40.395244 ] ] ] } },
{ "type": "Feature", "properties": { }, "geometry": { "type": "Polygon", "coordinates": [ [ [ 118.684279, 40.153925 ], [ 118.701851, 40.095142 ], [ 118.72162, 40.071614 ], [ 118.783122, 40.090101 ], [ 118.829248, 40.108582 ], [ 118.84023, 40.133777 ], [ 118.785318, 40.165676 ], [ 118.717227, 40.175746 ], [ 118.684279, 40.153925 ] ] ] } },
{ "type": "Feature", "properties": { }, "geometry": { "type": "Polygon", "coordinates": [ [ [ 118.919304, 40.105222 ], [ 118.88416, 40.066571 ], [ 118.903929, 40.041352 ], [ 118.961037, 40.03967 ], [ 119.013753, 40.048078 ], [ 119.062076, 40.074975 ], [ 119.055486, 40.103542 ], [ 119.00936, 40.12538 ], [ 118.941269, 40.127059 ], [ 118.919304, 40.105222 ] ] ] } },
{ "type": "Feature", "properties": { }, "geometry": { "type": "Polygon", "coordinates": [ [ [ 118.062672, 40.323274 ], [ 117.966027, 40.351736 ], [ 117.908918, 40.329972 ], [ 117.803486, 40.296474 ], [ 117.726609, 40.27134 ], [ 117.781521, 40.239491 ], [ 117.814469, 40.244521 ], [ 117.884756, 40.274692 ], [ 117.948455, 40.289773 ], [ 118.005563, 40.293124 ], [ 118.062672, 40.323274 ] ] ] } },
{ "type": "Feature", "properties": { }, "geometry": { "type": "Polygon", "coordinates": [ [ [ 115.877575, 41.089086 ], [ 115.835841, 41.064249 ], [ 115.85561, 41.017862 ], [ 115.895147, 40.974759 ], [ 115.910522, 40.928309 ], [ 115.910522, 40.888469 ], [ 115.870985, 40.845282 ], [ 115.831448, 40.803729 ], [ 115.780929, 40.763813 ], [ 115.726017, 40.73719 ], [ 115.677694, 40.70223 ], [ 115.64914, 40.670584 ], [ 115.655729, 40.64059 ], [ 115.682087, 40.628922 ], [ 115.758964, 40.665586 ], [ 115.820466, 40.6989 ], [ 115.884164, 40.730532 ], [ 115.963238, 40.750503 ], [ 116.015954, 40.730532 ], [ 116.011561, 40.675582 ], [ 115.998382, 40.628922 ], [ 116.007168, 40.573888 ], [ 116.01815, 40.537173 ], [ 116.009364, 40.485405 ], [ 115.930291, 40.450313 ], [ 115.881968, 40.418548 ], [ 115.890754, 40.380075 ], [ 115.94347, 40.381749 ], [ 115.993989, 40.396805 ], [ 116.051098, 40.411859 ], [ 116.130171, 40.413531 ], [ 116.202656, 40.410186 ], [ 116.255371, 40.413531 ], [ 116.31248, 40.433597 ], [ 116.358607, 40.440284 ], [ 116.413519, 40.440284 ], [ 116.470628, 40.450313 ], [ 116.505771, 40.470368 ], [ 116.501378, 40.493757 ], [ 116.391554, 40.495428 ], [ 116.18728, 40.488746 ], [ 116.092831, 40.493757 ], [ 116.081849, 40.548857 ], [ 116.136761, 40.593905 ], [ 116.204852, 40.630589 ], [ 116.226817, 40.668918 ], [ 116.229013, 40.71555 ], [ 116.180691, 40.777121 ], [ 116.103813, 40.853589 ], [ 115.877575, 41.089086 ] ] ] } },
{ "type": "Feature", "properties": { }, "geometry": { "type": "Polygon", "coordinates": [ [ [ 116.725953, 40.569394 ], [ 116.790749, 40.61943 ], [ 116.84676, 40.662765 ], [ 116.918146, 40.685254 ], [ 116.989532, 40.701908 ], [ 117.016988, 40.727713 ], [ 116.959879, 40.744357 ], [ 116.92144, 40.73021 ], [ 116.85884, 40.708568 ], [ 116.822598, 40.691083 ], [ 116.78416, 40.668596 ], [ 116.744623, 40.638601 ], [ 116.709479, 40.61026 ], [ 116.698496, 40.585243 ], [ 116.697398, 40.576068 ], [ 116.725953, 40.569394 ] ] ] } },
{ "type": "Feature", "properties": { }, "geometry": { "type": "Polygon", "coordinates": [ [ [ 117.225654, 40.673594 ], [ 117.1971, 40.642768 ], [ 117.230047, 40.616929 ], [ 117.239932, 40.591081 ], [ 117.194904, 40.580238 ], [ 117.17184, 40.549369 ], [ 117.154268, 40.514311 ], [ 117.139991, 40.493434 ], [ 117.10924, 40.47088 ], [ 117.087275, 40.444976 ], [ 117.085079, 40.412372 ], [ 117.111437, 40.387281 ], [ 117.146581, 40.363018 ], [ 117.144384, 40.332048 ], [ 117.132304, 40.303578 ], [ 117.146581, 40.275095 ], [ 117.139991, 40.250791 ], [ 117.11583, 40.23151 ], [ 117.131205, 40.193769 ], [ 117.177332, 40.188735 ], [ 117.231146, 40.174471 ], [ 117.2597, 40.153489 ], [ 117.220163, 40.112346 ], [ 117.181725, 40.084623 ], [ 117.176233, 40.051004 ], [ 117.214672, 40.034188 ], [ 117.264093, 40.031666 ], [ 117.314612, 40.044278 ], [ 117.36623, 40.067815 ], [ 117.41016, 40.090504 ], [ 117.465072, 40.091344 ], [ 117.500216, 40.0779 ], [ 117.533163, 40.055207 ], [ 117.536458, 40.019051 ], [ 117.527672, 39.996338 ], [ 117.459581, 39.981192 ], [ 117.456286, 39.943312 ], [ 117.448598, 39.923101 ], [ 117.440911, 39.893616 ], [ 117.452991, 39.865804 ], [ 117.450795, 39.833764 ], [ 117.42883, 39.816895 ], [ 117.393686, 39.819426 ], [ 117.368426, 39.839668 ], [ 117.358542, 39.862432 ], [ 117.350854, 39.887718 ], [ 117.334381, 39.898672 ], [ 117.312416, 39.891931 ], [ 117.300335, 39.865804 ], [ 117.289353, 39.842197 ], [ 117.261897, 39.832078 ], [ 117.214672, 39.831234 ], [ 117.165251, 39.829548 ], [ 117.10924, 39.828704 ], [ 117.099356, 39.807616 ], [ 117.103749, 39.772172 ], [ 117.120223, 39.7384 ], [ 117.166349, 39.724886 ], [ 117.247619, 39.712215 ], [ 117.335479, 39.710525 ], [ 117.388195, 39.70968 ], [ 117.414553, 39.708835 ], [ 117.435419, 39.697006 ], [ 117.4475, 39.665733 ], [ 117.481546, 39.634446 ], [ 117.543048, 39.625141 ], [ 117.569405, 39.638674 ], [ 117.570504, 39.672496 ], [ 117.532065, 39.70968 ], [ 117.518886, 39.750222 ], [ 117.518886, 39.788208 ], [ 117.522181, 39.844727 ], [ 117.541949, 39.872548 ], [ 117.651774, 39.896987 ], [ 117.745125, 39.897829 ], [ 117.783563, 39.919732 ], [ 117.808823, 39.959309 ], [ 117.793448, 40.004751 ], [ 117.756107, 40.025779 ], [ 117.690212, 40.010639 ], [ 117.64189, 40.012322 ], [ 117.632005, 40.049323 ], [ 117.586977, 40.098906 ], [ 117.544146, 40.114025 ], [ 117.513395, 40.15181 ], [ 117.498019, 40.201319 ], [ 117.45409, 40.239055 ], [ 117.361837, 40.240732 ], [ 117.336577, 40.250791 ], [ 117.287156, 40.281798 ], [ 117.23444, 40.369712 ], [ 117.226753, 40.409863 ], [ 117.254209, 40.500116 ], [ 117.291549, 40.554376 ], [ 117.339872, 40.586077 ], [ 117.375016, 40.609426 ], [ 117.425535, 40.649434 ], [ 117.433223, 40.680257 ], [ 117.40357, 40.706071 ], [ 117.377212, 40.708568 ], [ 117.3223, 40.69608 ], [ 117.289353, 40.696912 ], [ 117.250914, 40.685254 ], [ 117.225654, 40.673594 ] ] ] } },
{ "type": "Feature", "properties": { }, "geometry": { "type": "Polygon", "coordinates": [ [ [ 117.152214, 37.944984 ], [ 117.130249, 37.974424 ], [ 117.081926, 37.93459 ], [ 117.044585, 37.899934 ], [ 117.007245, 37.873931 ], [ 117.031407, 37.820162 ], [ 117.081926, 37.809751 ], [ 117.123659, 37.825368 ], [ 117.11707, 37.858325 ], [ 117.11707, 37.884333 ], [ 117.152214, 37.944984 ] ] ] } },
{ "type": "Feature", "properties": { }, "geometry": { "type": "Polygon", "coordinates": [ [ [ 116.969905, 37.938055 ], [ 116.945743, 37.962303 ], [ 116.906206, 37.964035 ], [ 116.851294, 38.005584 ], [ 116.829329, 38.02808 ], [ 116.785399, 38.03154 ], [ 116.756845, 38.010776 ], [ 116.759042, 37.976156 ], [ 116.802971, 37.943251 ], [ 116.831526, 37.910332 ], [ 116.849098, 37.879132 ], [ 116.877652, 37.854856 ], [ 116.914992, 37.858325 ], [ 116.939154, 37.8878 ], [ 116.983084, 37.918997 ], [ 116.969905, 37.938055 ] ] ] } },
{ "type": "Feature", "properties": { }, "geometry": { "type": "Polygon", "coordinates": [ [ [ 117.262038, 37.641231 ], [ 117.237877, 37.599477 ], [ 117.253252, 37.57685 ], [ 117.294986, 37.606437 ], [ 117.303771, 37.630795 ], [ 117.288396, 37.646449 ], [ 117.262038, 37.641231 ] ] ] } },
{ "type": "Feature", "properties": { }, "geometry": { "type": "Polygon", "coordinates": [ [ [ 118.360284, 36.279333 ], [ 118.300979, 36.339513 ], [ 118.268031, 36.397878 ], [ 118.219709, 36.442066 ], [ 118.169189, 36.466799 ], [ 118.079133, 36.449133 ], [ 118.03081, 36.40495 ], [ 117.975898, 36.348359 ], [ 117.839715, 36.229738 ], [ 117.815554, 36.174792 ], [ 117.82434, 36.064786 ], [ 117.888038, 35.963515 ], [ 117.951737, 35.895929 ], [ 118.000059, 35.842531 ], [ 118.048382, 35.787315 ], [ 118.068151, 35.73741 ], [ 118.002256, 35.660708 ], [ 117.90561, 35.633935 ], [ 117.852894, 35.60358 ], [ 117.839715, 35.562494 ], [ 117.899021, 35.494567 ], [ 117.984684, 35.449846 ], [ 118.065954, 35.433741 ], [ 118.171386, 35.414052 ], [ 118.254852, 35.385405 ], [ 118.351498, 35.342416 ], [ 118.423982, 35.333457 ], [ 118.470109, 35.37466 ], [ 118.467912, 35.408682 ], [ 118.441554, 35.480259 ], [ 118.415196, 35.557134 ], [ 118.437161, 35.674984 ], [ 118.452537, 35.767713 ], [ 118.452537, 35.854994 ], [ 118.463519, 35.910163 ], [ 118.509645, 35.968849 ], [ 118.553575, 36.047029 ], [ 118.5382, 36.11626 ], [ 118.492073, 36.199611 ], [ 118.443751, 36.233281 ], [ 118.360284, 36.279333 ] ] ] } },
{ "type": "Feature", "properties": { }, "geometry": { "type": "Polygon", "coordinates": [ [ [ 119.909302, 35.736813 ], [ 119.737484, 35.776624 ], [ 119.54639, 35.810475 ], [ 119.408011, 35.806912 ], [ 119.298186, 35.79266 ], [ 119.159807, 35.733844 ], [ 119.087323, 35.64286 ], [ 118.87646, 35.277889 ], [ 118.727098, 35.006674 ], [ 118.595309, 34.840989 ], [ 118.593731, 34.79282 ], [ 118.655155, 34.723526 ], [ 118.796227, 34.788078 ], [ 118.9199, 34.869792 ], [ 118.959437, 34.934643 ], [ 119.121978, 34.923838 ], [ 119.201538, 35.004311 ], [ 119.223747, 35.057362 ], [ 119.317642, 35.097084 ], [ 119.346802, 35.087082 ], [ 119.365967, 35.099861 ], [ 119.375137, 35.089581 ], [ 119.366277, 35.155865 ], [ 119.315758, 35.218694 ], [ 119.267435, 35.29044 ], [ 119.24547, 35.369287 ], [ 119.256453, 35.444478 ], [ 119.306972, 35.499932 ], [ 119.401421, 35.537475 ], [ 119.524425, 35.5339 ], [ 119.614481, 35.532113 ], [ 119.623749, 35.567924 ], [ 119.647102, 35.572926 ], [ 119.627907, 35.598755 ], [ 119.654587, 35.590141 ], [ 119.642906, 35.609035 ], [ 119.676529, 35.595142 ], [ 119.700142, 35.619034 ], [ 119.727356, 35.625694 ], [ 119.726524, 35.653198 ], [ 119.736252, 35.659866 ], [ 119.741249, 35.634304 ], [ 119.763191, 35.612923 ], [ 119.752357, 35.590424 ], [ 119.762085, 35.58292 ], [ 119.789856, 35.629585 ], [ 119.81292, 35.641804 ], [ 119.823196, 35.669872 ], [ 119.847641, 35.669872 ], [ 119.855423, 35.659313 ], [ 119.828476, 35.641533 ], [ 119.828186, 35.62125 ], [ 119.865692, 35.643204 ], [ 119.850418, 35.623203 ], [ 119.874863, 35.613754 ], [ 119.892082, 35.635696 ], [ 119.915695, 35.637642 ], [ 119.921516, 35.651253 ], [ 119.90403, 35.659035 ], [ 119.89875, 35.676254 ], [ 119.916252, 35.700699 ], [ 119.947083, 35.715973 ], [ 119.946533, 35.727093 ], [ 119.925423, 35.722645 ], [ 119.909302, 35.736813 ] ] ] } },
{ "type": "Feature", "properties": { }, "geometry": { "type": "Polygon", "coordinates": [ [ [ 117.138683, 35.500829 ], [ 117.151862, 35.448955 ], [ 117.202381, 35.384513 ], [ 117.266079, 35.382723 ], [ 117.301223, 35.406 ], [ 117.288044, 35.454323 ], [ 117.2529, 35.50977 ], [ 117.200185, 35.538372 ], [ 117.140879, 35.531222 ], [ 117.138683, 35.500829 ] ] ] } },
{ "type": "Feature", "properties": { }, "geometry": { "type": "Polygon", "coordinates": [ [ [ 117.312206, 35.300304 ], [ 117.362725, 35.230361 ], [ 117.446192, 35.138806 ], [ 117.520872, 35.077712 ], [ 117.599946, 35.012975 ], [ 117.63509, 34.957187 ], [ 117.637286, 34.908568 ], [ 117.696592, 34.867128 ], [ 117.780058, 34.886949 ], [ 117.79763, 34.940984 ], [ 117.740522, 35.029164 ], [ 117.613125, 35.172927 ], [ 117.437406, 35.300304 ], [ 117.345153, 35.323604 ], [ 117.316599, 35.318228 ], [ 117.312206, 35.300304 ] ] ] } },
{ "type": "Feature", "properties": { }, "geometry": { "type": "Polygon", "coordinates": [ [ [ 116.624558, 34.946329 ], [ 116.523519, 34.912114 ], [ 116.415891, 34.877884 ], [ 116.284102, 34.822005 ], [ 116.169884, 34.762479 ], [ 116.114972, 34.722771 ], [ 116.125954, 34.672206 ], [ 116.248971, 34.712076 ], [ 116.351108, 34.74457 ], [ 116.459834, 34.783365 ], [ 116.532318, 34.827551 ], [ 116.59382, 34.875318 ], [ 116.621276, 34.905946 ], [ 116.636651, 34.931161 ], [ 116.624558, 34.946329 ] ] ] } },
{ "type": "Feature", "properties": { }, "geometry": { "type": "Polygon", "coordinates": [ [ [ 115.558221, 33.441976 ], [ 115.441807, 33.463968 ], [ 115.288053, 33.440143 ], [ 115.061814, 33.586651 ], [ 114.815807, 33.650669 ], [ 114.765288, 33.760305 ], [ 114.681821, 33.826019 ], [ 114.640088, 33.897153 ], [ 114.611533, 34.041062 ], [ 114.543442, 34.17019 ], [ 114.475351, 34.279159 ], [ 114.380902, 34.320893 ], [ 114.233737, 34.397049 ], [ 114.183217, 34.424231 ], [ 114.1942, 34.55639 ], [ 114.170038, 34.650402 ], [ 114.069, 34.699175 ], [ 113.930621, 34.811062 ], [ 113.803224, 34.88677 ], [ 113.653863, 34.926399 ], [ 113.51768, 34.966009 ], [ 113.412249, 34.991205 ], [ 113.306817, 35.000202 ], [ 113.205779, 34.937203 ], [ 113.093758, 34.868751 ], [ 112.946593, 34.901183 ], [ 112.827982, 34.888572 ], [ 112.704978, 34.874157 ], [ 112.529259, 34.879563 ], [ 112.412845, 34.919195 ], [ 112.223947, 34.962408 ], [ 112.089961, 35.014594 ], [ 112.013084, 35.045171 ], [ 111.962564, 35.054161 ], [ 111.857133, 35.063151 ], [ 111.756094, 35.036179 ], [ 111.661645, 34.987606 ], [ 111.547427, 34.843517 ], [ 111.439799, 34.793026 ], [ 111.200382, 34.798437 ], [ 111.079575, 34.738894 ], [ 110.967554, 34.681114 ], [ 110.846746, 34.599793 ], [ 110.671027, 34.552772 ], [ 110.407448, 34.545535 ], [ 110.236122, 34.545535 ], [ 110.224221, 34.72831 ], [ 110.233007, 34.865393 ], [ 110.228614, 35.038223 ], [ 110.241793, 35.146057 ], [ 110.36919, 35.325463 ], [ 110.435084, 35.490166 ], [ 110.496586, 35.6224 ], [ 110.492193, 35.747285 ], [ 110.527337, 35.882653 ], [ 110.645948, 35.907564 ], [ 110.725021, 35.854173 ], [ 110.733807, 35.743719 ], [ 110.740663, 35.701542 ], [ 110.776905, 35.667644 ], [ 110.8428, 35.671213 ], [ 110.902105, 35.706001 ], [ 110.98667, 35.768402 ], [ 111.141475, 35.917782 ], [ 111.216156, 36.006675 ], [ 111.260086, 36.074166 ], [ 111.260086, 36.145147 ], [ 111.20737, 36.24087 ], [ 111.172226, 36.301079 ], [ 111.20737, 36.340014 ], [ 111.299623, 36.30816 ], [ 111.387482, 36.262125 ], [ 111.440198, 36.283375 ], [ 111.497307, 36.357705 ], [ 111.497307, 36.357705 ], [ 111.496252, 36.407374 ], [ 111.485269, 36.500127 ], [ 111.465501, 36.560136 ], [ 111.449027, 36.613928 ], [ 111.438045, 36.677372 ], [ 111.457813, 36.752204 ], [ 111.531396, 36.843664 ], [ 111.568736, 36.936771 ], [ 111.636531, 37.03402 ], [ 111.689247, 37.074338 ], [ 111.748552, 37.111131 ], [ 111.77491, 37.153159 ], [ 111.759535, 37.179414 ], [ 111.673871, 37.186414 ], [ 111.588208, 37.217905 ], [ 111.544278, 37.235395 ], [ 111.346594, 37.238892 ], [ 111.232377, 37.231897 ], [ 111.113766, 37.224902 ], [ 111.036889, 37.231897 ], [ 110.949029, 37.282596 ], [ 110.872152, 37.336754 ], [ 110.793078, 37.3612 ], [ 110.683254, 37.359454 ], [ 110.639324, 37.355962 ], [ 110.577822, 37.3612 ], [ 110.595394, 37.425768 ], [ 110.694236, 37.420534 ], [ 110.753541, 37.469363 ], [ 110.793078, 37.509448 ], [ 110.821633, 37.552995 ], [ 110.828222, 37.619137 ], [ 110.832615, 37.664358 ], [ 110.843598, 37.71129 ], [ 110.89851, 37.726927 ], [ 110.970994, 37.726927 ], [ 111.001745, 37.756455 ], [ 111.021513, 37.831091 ], [ 111.039085, 37.898718 ], [ 111.074229, 37.981867 ], [ 111.168678, 38.108142 ], [ 111.263128, 38.180695 ], [ 111.375149, 38.266973 ], [ 111.504742, 38.347981 ], [ 111.632138, 38.420295 ], [ 111.807857, 38.511445 ], [ 111.864966, 38.549246 ], [ 111.90011, 38.597329 ], [ 111.875949, 38.669393 ], [ 111.827626, 38.703684 ], [ 111.748552, 38.70197 ], [ 111.658496, 38.691684 ], [ 111.535492, 38.936424 ], [ 111.48717, 39.050803 ], [ 111.447633, 39.156481 ], [ 111.476187, 39.292606 ], [ 111.544278, 39.363966 ], [ 111.616763, 39.394527 ], [ 111.719998, 39.403013 ], [ 111.85618, 39.392829 ], [ 111.930861, 39.37755 ], [ 111.974791, 39.392829 ], [ 111.972594, 39.43695 ], [ 111.895717, 39.547129 ], [ 111.864966, 39.663897 ], [ 111.851787, 39.690945 ], [ 111.684854, 39.72643 ], [ 111.618959, 39.772027 ], [ 111.564047, 39.795658 ], [ 111.528903, 39.77878 ], [ 111.48717, 39.756832 ], [ 111.421275, 39.751766 ], [ 111.401507, 39.815907 ], [ 111.397114, 39.839523 ], [ 111.346594, 39.849641 ], [ 111.296075, 39.859758 ], [ 111.263128, 39.88673 ], [ 111.188447, 39.942326 ], [ 111.173071, 40.021429 ], [ 111.14891, 40.06683 ], [ 111.118159, 40.144111 ], [ 111.093998, 40.179362 ], [ 111.008334, 40.268247 ], [ 110.913885, 40.263219 ], [ 110.823829, 40.254838 ], [ 110.784292, 40.278302 ], [ 110.72938, 40.285005 ], [ 110.573429, 40.311809 ], [ 110.476783, 40.333579 ], [ 110.399906, 40.353668 ], [ 110.314243, 40.387137 ], [ 110.202222, 40.415573 ], [ 110.129738, 40.432294 ], [ 110.002341, 40.479091 ], [ 109.813443, 40.534203 ], [ 109.661885, 40.582597 ], [ 109.527899, 40.615952 ], [ 109.391717, 40.662621 ], [ 109.275303, 40.685944 ], [ 109.130334, 40.725906 ], [ 108.956811, 40.72757 ], [ 109.010171, 40.286137 ], [ 109.704262, 40.024248 ], [ 110.240206, 39.720814 ], [ 110.679504, 39.327744 ], [ 110.705862, 38.891434 ], [ 110.371995, 38.183588 ], [ 110.213848, 37.670749 ], [ 110.055701, 37.133331 ], [ 109.888767, 36.443788 ], [ 109.967841, 36.089595 ], [ 109.950269, 35.440854 ], [ 109.879981, 34.887801 ], [ 109.888767, 34.497709 ], [ 110.064487, 34.236628 ], [ 110.494999, 34.127604 ], [ 110.879398, 34.15981 ], [ 111.303308, 34.410772 ], [ 111.760178, 34.475983 ], [ 112.217048, 34.504949 ], [ 112.82328, 34.454252 ], [ 113.376796, 34.251153 ], [ 113.807308, 33.879963 ], [ 114.211463, 33.477842 ], [ 114.677119, 33.287095 ], [ 115.466064, 33.295017 ], [ 115.584796, 33.397343 ], [ 115.586999, 33.424792 ], [ 115.558221, 33.441976 ] ] ] } },
{ "type": "Feature", "properties": { }, "geometry": { "type": "Polygon", "coordinates": [ [ [ 116.312073, 39.041202 ], [ 116.312158, 39.058881 ], [ 116.274818, 39.07423 ], [ 116.233085, 39.063998 ], [ 116.233085, 39.023055 ], [ 116.235281, 38.965013 ], [ 116.244067, 38.913759 ], [ 116.266032, 38.860758 ], [ 116.281408, 38.797447 ], [ 116.320944, 38.761488 ], [ 116.391232, 38.759776 ], [ 116.419787, 38.766626 ], [ 116.450537, 38.804294 ], [ 116.443948, 38.836809 ], [ 116.391232, 38.860758 ], [ 116.342909, 38.884699 ], [ 116.32973, 38.92743 ], [ 116.334123, 38.973551 ], [ 116.312158, 39.011109 ], [ 116.312158, 39.026468 ], [ 116.312073, 39.041202 ] ] ] } },
{ "type": "Feature", "properties": { }, "geometry": { "type": "Polygon", "coordinates": [ [ [ 116.081087, 38.842376 ], [ 116.100855, 38.886843 ], [ 116.087677, 38.922738 ], [ 116.056926, 38.924446 ], [ 115.995424, 38.929573 ], [ 115.914154, 38.917611 ], [ 115.861438, 38.873163 ], [ 115.837276, 38.820132 ], [ 115.874617, 38.794458 ], [ 115.953691, 38.809863 ], [ 116.037157, 38.818421 ], [ 116.081087, 38.842376 ] ] ] } },
{ "type": "Feature", "properties": { }, "geometry": { "type": "Polygon", "coordinates": [ [ [ 116.135999, 38.864613 ], [ 116.12282, 38.826977 ], [ 116.135999, 38.792746 ], [ 116.184322, 38.797881 ], [ 116.206287, 38.821843 ], [ 116.197501, 38.849219 ], [ 116.179929, 38.864613 ], [ 116.155768, 38.869743 ], [ 116.135999, 38.864613 ] ] ] } },
{ "type": "Feature", "properties": { }, "geometry": { "type": "Polygon", "coordinates": [ [ [ 116.397382, 38.607612 ], [ 116.351256, 38.580144 ], [ 116.344666, 38.528613 ], [ 116.362238, 38.475326 ], [ 116.399578, 38.444367 ], [ 116.456687, 38.446087 ], [ 116.480849, 38.466727 ], [ 116.480849, 38.492519 ], [ 116.474259, 38.532049 ], [ 116.483045, 38.571558 ], [ 116.465473, 38.600746 ], [ 116.445705, 38.611044 ], [ 116.425936, 38.61791 ], [ 116.397382, 38.607612 ] ] ] } },
{ "type": "Feature", "properties": { }, "geometry": { "type": "Polygon", "coordinates": [ [ [ 116.355649, 38.396182 ], [ 116.259003, 38.389295 ], [ 116.184322, 38.365188 ], [ 116.083284, 38.365188 ], [ 115.995424, 38.365188 ], [ 115.918547, 38.318674 ], [ 115.896582, 38.280751 ], [ 115.942708, 38.265232 ], [ 116.065712, 38.27213 ], [ 116.182126, 38.279027 ], [ 116.243627, 38.289372 ], [ 116.329291, 38.316951 ], [ 116.371024, 38.344519 ], [ 116.382006, 38.373799 ], [ 116.37981, 38.385852 ], [ 116.355649, 38.396182 ] ] ] } },
{ "type": "Feature", "properties": { }, "geometry": { "type": "Polygon", "coordinates": [ [ [ 115.385271, 37.695564 ], [ 115.304001, 37.672967 ], [ 115.308394, 37.643406 ], [ 115.383075, 37.632969 ], [ 115.444576, 37.636448 ], [ 115.47972, 37.657318 ], [ 115.457755, 37.678182 ], [ 115.431397, 37.688612 ], [ 115.385271, 37.695564 ] ] ] } },
{ "type": "Feature", "properties": { }, "geometry": { "type": "Polygon", "coordinates": [ [ [ 115.389664, 36.97956 ], [ 115.325966, 36.997104 ], [ 115.22932, 36.997104 ], [ 115.119496, 37.002367 ], [ 115.053601, 36.998858 ], [ 114.998689, 36.937436 ], [ 114.98336, 36.839925 ], [ 114.98336, 36.839925 ], [ 114.995634, 36.755569 ], [ 115.005518, 36.678098 ], [ 115.002224, 36.626995 ], [ 114.990143, 36.56792 ], [ 114.982455, 36.531747 ], [ 115.016501, 36.51233 ], [ 115.04176, 36.47878 ], [ 115.06702, 36.431963 ], [ 115.094476, 36.388655 ], [ 115.132915, 36.370971 ], [ 115.177943, 36.360358 ], [ 115.196613, 36.36478 ], [ 115.213087, 36.398379 ], [ 115.196613, 36.454934 ], [ 115.185631, 36.519391 ], [ 115.151585, 36.581149 ], [ 115.113146, 36.67017 ], [ 115.076904, 36.713322 ], [ 115.046153, 36.774925 ], [ 115.053841, 36.832083 ], [ 115.093378, 36.847904 ], [ 115.137308, 36.854056 ], [ 115.21748, 36.8646 ], [ 115.296553, 36.874265 ], [ 115.332796, 36.880415 ], [ 115.360252, 36.907642 ], [ 115.374529, 36.927838 ], [ 115.389664, 36.97956 ] ] ] } },
{ "type": "Feature", "properties": { }, "geometry": { "type": "Polygon", "coordinates": [ [ [ 114.740873, 36.803255 ], [ 114.707377, 36.802815 ], [ 114.689805, 36.789624 ], [ 114.678822, 36.767193 ], [ 114.690903, 36.738595 ], [ 114.721654, 36.735074 ], [ 114.749659, 36.748715 ], [ 114.760092, 36.764993 ], [ 114.763936, 36.786106 ], [ 114.760642, 36.802815 ], [ 114.740873, 36.803255 ] ] ] } },
{ "type": "Feature", "properties": { }, "geometry": { "type": "Polygon", "coordinates": [ [ [ 115.293027, 36.430177 ], [ 115.256697, 36.43833 ], [ 115.238124, 36.369259 ], [ 115.239125, 36.325155 ], [ 115.228143, 36.241937 ], [ 115.265483, 36.155084 ], [ 115.302823, 36.112508 ], [ 115.3797, 36.087662 ], [ 115.324788, 36.041498 ], [ 115.278662, 35.950867 ], [ 115.331378, 35.829863 ], [ 115.357736, 35.751468 ], [ 115.43022, 35.689053 ], [ 115.544437, 35.672996 ], [ 115.671834, 35.689053 ], [ 115.777266, 35.73364 ], [ 115.836571, 35.787112 ], [ 115.89368, 35.845889 ], [ 115.92443, 35.87971 ], [ 116.007897, 35.901064 ], [ 116.086971, 35.938419 ], [ 116.130901, 35.986421 ], [ 116.155062, 36.06991 ], [ 116.122115, 36.119606 ], [ 116.073792, 36.137347 ], [ 115.988129, 36.116057 ], [ 115.950788, 36.068134 ], [ 115.89368, 36.000638 ], [ 115.840964, 35.957979 ], [ 115.770676, 35.940197 ], [ 115.656458, 35.956201 ], [ 115.551027, 36.011299 ], [ 115.507097, 36.082337 ], [ 115.493918, 36.158631 ], [ 115.487329, 36.233079 ], [ 115.476346, 36.316306 ], [ 115.449988, 36.353464 ], [ 115.368718, 36.387068 ], [ 115.333574, 36.418889 ], [ 115.31307, 36.429073 ], [ 115.293027, 36.430177 ] ] ] } },
{ "type": "Feature", "properties": { }, "geometry": { "type": "Polygon", "coordinates": [ [ [ 114.986163, 35.913924 ], [ 114.880731, 35.921039 ], [ 114.829114, 35.929933 ], [ 114.762121, 35.928154 ], [ 114.698422, 35.913924 ], [ 114.654493, 35.888125 ], [ 114.639117, 35.848966 ], [ 114.698422, 35.856087 ], [ 114.780791, 35.867658 ], [ 114.826917, 35.859648 ], [ 114.863159, 35.835612 ], [ 114.897205, 35.815131 ], [ 114.932349, 35.815131 ], [ 114.971886, 35.846296 ], [ 114.992752, 35.879227 ], [ 115.001538, 35.90236 ], [ 114.986163, 35.913924 ] ] ] } },
{ "type": "Feature", "properties": { }, "geometry": { "type": "Polygon", "coordinates": [ [ [ 113.491274, 35.174727 ], [ 113.423183, 35.163954 ], [ 113.429772, 35.125339 ], [ 113.452836, 35.092096 ], [ 113.48139, 35.081312 ], [ 113.509944, 35.090299 ], [ 113.534106, 35.116356 ], [ 113.560464, 35.125339 ], [ 113.590116, 35.137913 ], [ 113.623064, 35.160363 ], [ 113.616474, 35.178318 ], [ 113.583527, 35.190884 ], [ 113.530811, 35.198064 ], [ 113.495667, 35.188192 ], [ 113.491274, 35.174727 ] ] ] } },
{ "type": "Feature", "properties": { }, "geometry": { "type": "Polygon", "coordinates": [ [ [ 112.399732, 35.009364 ], [ 112.387408, 35.036289 ], [ 112.379721, 35.08034 ], [ 112.368738, 35.11718 ], [ 112.377524, 35.144126 ], [ 112.401686, 35.179142 ], [ 112.452205, 35.199786 ], [ 112.504921, 35.209657 ], [ 112.553244, 35.225807 ], [ 112.570816, 35.246438 ], [ 112.569717, 35.301132 ], [ 112.543359, 35.353101 ], [ 112.514805, 35.395189 ], [ 112.508216, 35.399665 ], [ 112.488447, 35.428307 ], [ 112.439026, 35.465884 ], [ 112.399489, 35.481983 ], [ 112.343479, 35.482877 ], [ 112.301745, 35.466778 ], [ 112.258914, 35.454255 ], [ 112.213886, 35.462306 ], [ 112.16117, 35.498973 ], [ 112.124928, 35.540985 ], [ 112.084293, 35.585655 ], [ 112.039265, 35.623158 ], [ 111.984352, 35.656182 ], [ 111.926145, 35.677596 ], [ 111.84158, 35.686516 ], [ 111.765801, 35.67938 ], [ 111.721871, 35.654397 ], [ 111.681236, 35.611552 ], [ 111.634012, 35.550815 ], [ 111.617538, 35.497185 ], [ 111.631815, 35.459622 ], [ 111.675745, 35.437256 ], [ 111.738345, 35.446203 ], [ 111.786668, 35.456939 ], [ 111.844875, 35.437256 ], [ 111.876724, 35.379073 ], [ 111.909672, 35.311887 ], [ 111.951405, 35.262581 ], [ 112.03597, 35.215938 ], [ 112.097472, 35.190811 ], [ 112.121633, 35.177347 ], [ 112.197412, 35.160289 ], [ 112.257815, 35.139636 ], [ 112.257798, 35.120928 ], [ 112.243781, 35.039942 ], [ 112.238467, 34.958147 ], [ 112.266473, 34.951396 ], [ 112.377945, 34.925738 ], [ 112.412845, 34.919195 ], [ 112.399732, 35.009364 ] ] ] } },
{ "type": "Feature", "properties": { }, "geometry": { "type": "Polygon", "coordinates": [ [ [ 111.354294, 35.328911 ], [ 111.270827, 35.296648 ], [ 111.23788, 35.230291 ], [ 111.244469, 35.162083 ], [ 111.336722, 35.106398 ], [ 111.44435, 35.106398 ], [ 111.501459, 35.169265 ], [ 111.499262, 35.239261 ], [ 111.453136, 35.31995 ], [ 111.380652, 35.334286 ], [ 111.354294, 35.328911 ] ] ] } },
{ "type": "Feature", "properties": { }, "geometry": { "type": "Polygon", "coordinates": [ [ [ 111.23788, 35.065058 ], [ 111.163199, 35.04528 ], [ 111.119269, 35.011105 ], [ 111.119269, 34.971517 ], [ 111.200539, 34.933711 ], [ 111.268631, 34.913901 ], [ 111.334525, 34.906696 ], [ 111.398224, 34.933711 ], [ 111.415795, 34.973317 ], [ 111.382848, 35.021899 ], [ 111.31915, 35.057866 ], [ 111.290595, 35.06326 ], [ 111.23788, 35.065058 ] ] ] } },
{ "type": "Feature", "properties": { }, "geometry": { "type": "Polygon", "coordinates": [ [ [ 110.550378, 34.802153 ], [ 110.477364, 34.807554 ], [ 110.425746, 34.789517 ], [ 110.389504, 34.766965 ], [ 110.365343, 34.752529 ], [ 110.344476, 34.73087 ], [ 110.353262, 34.705594 ], [ 110.390602, 34.702885 ], [ 110.441122, 34.716427 ], [ 110.494936, 34.721844 ], [ 110.535571, 34.731772 ], [ 110.56083, 34.750724 ], [ 110.572911, 34.770574 ], [ 110.572911, 34.783203 ], [ 110.56742, 34.796732 ], [ 110.550378, 34.802153 ] ] ] } },
{ "type": "Feature", "properties": { }, "geometry": { "type": "Polygon", "coordinates": [ [ [ 115.410551, 40.187913 ], [ 115.290842, 40.115722 ], [ 115.208474, 40.053542 ], [ 115.153562, 40.014021 ], [ 115.088765, 39.962692 ], [ 114.988825, 39.913852 ], [ 114.891081, 39.849803 ], [ 114.837267, 39.800882 ], [ 114.801025, 39.763747 ], [ 114.77906, 39.722369 ], [ 114.736228, 39.665749 ], [ 114.66594, 39.642074 ], [ 114.58467, 39.619236 ], [ 114.517677, 39.604853 ], [ 114.511088, 39.581157 ], [ 114.526463, 39.569306 ], [ 114.597849, 39.551525 ], [ 114.659351, 39.535434 ], [ 114.743916, 39.512561 ], [ 114.843856, 39.475271 ], [ 114.919635, 39.462553 ], [ 114.997611, 39.45577 ], [ 115.097551, 39.456618 ], [ 115.186509, 39.462553 ], [ 115.211769, 39.4829 ], [ 115.260091, 39.507477 ], [ 115.329281, 39.523575 ], [ 115.377604, 39.526116 ], [ 115.455579, 39.571845 ], [ 115.485232, 39.600622 ], [ 115.507197, 39.637845 ], [ 115.53026, 39.664059 ], [ 115.571993, 39.685191 ], [ 115.608235, 39.68012 ], [ 115.626906, 39.670822 ], [ 115.645576, 39.677584 ], [ 115.651067, 39.710542 ], [ 115.644477, 39.746017 ], [ 115.624709, 39.767968 ], [ 115.58627, 39.785693 ], [ 115.547832, 39.797507 ], [ 115.540144, 39.806788 ], [ 115.537948, 39.837998 ], [ 115.557716, 39.85992 ], [ 115.563207, 39.884363 ], [ 115.557716, 39.906271 ], [ 115.536849, 39.925644 ], [ 115.514884, 39.953432 ], [ 115.485232, 39.982892 ], [ 115.446793, 39.998037 ], [ 115.408355, 39.984575 ], [ 115.380898, 39.992989 ], [ 115.352344, 40.003085 ], [ 115.324888, 39.995513 ], [ 115.308414, 39.967743 ], [ 115.288646, 39.954274 ], [ 115.266681, 39.973634 ], [ 115.245814, 40.007291 ], [ 115.244716, 40.030841 ], [ 115.286449, 40.051861 ], [ 115.320495, 40.075396 ], [ 115.353442, 40.070353 ], [ 115.395176, 40.062789 ], [ 115.436909, 40.059427 ], [ 115.455579, 40.081278 ], [ 115.46107, 40.126639 ], [ 115.469856, 40.152666 ], [ 115.506099, 40.148469 ], [ 115.545635, 40.134196 ], [ 115.581877, 40.164417 ], [ 115.608235, 40.214755 ], [ 115.588467, 40.250807 ], [ 115.551127, 40.278463 ], [ 115.498411, 40.260865 ], [ 115.46107, 40.226495 ], [ 115.410551, 40.187913 ] ] ] } },
{ "type": "Feature", "properties": { }, "geometry": { "type": "Polygon", "coordinates": [ [ [ 114.280894, 39.23321 ], [ 114.225981, 39.176192 ], [ 114.126041, 39.117423 ], [ 114.059048, 39.076511 ], [ 113.986564, 39.065427 ], [ 113.877837, 39.064574 ], [ 113.786683, 39.039841 ], [ 113.727378, 39.012539 ], [ 113.684546, 38.977543 ], [ 113.648304, 38.925444 ], [ 113.628536, 38.872452 ], [ 113.623044, 38.810863 ], [ 113.624143, 38.768918 ], [ 113.591195, 38.69524 ], [ 113.536283, 38.642076 ], [ 113.455013, 38.575137 ], [ 113.386922, 38.472891 ], [ 113.363858, 38.403212 ], [ 113.358367, 38.339495 ], [ 113.379234, 38.280896 ], [ 113.393511, 38.211032 ], [ 113.418771, 38.165282 ], [ 113.473683, 38.132463 ], [ 113.537381, 38.090121 ], [ 113.574722, 38.034781 ], [ 113.582409, 37.994979 ], [ 113.583508, 37.967278 ], [ 113.606571, 37.95862 ], [ 113.645009, 37.968144 ], [ 113.693332, 38.004499 ], [ 113.746048, 38.058133 ], [ 113.78888, 38.10395 ], [ 113.852578, 38.161828 ], [ 113.910785, 38.215347 ], [ 113.973385, 38.261927 ], [ 114.050262, 38.335188 ], [ 114.123845, 38.408375 ], [ 114.165578, 38.445371 ], [ 114.217195, 38.508135 ], [ 114.268813, 38.570843 ], [ 114.279795, 38.611189 ], [ 114.300662, 38.667805 ], [ 114.314939, 38.708096 ], [ 114.361066, 38.768918 ], [ 114.404996, 38.809151 ], [ 114.447827, 38.843375 ], [ 114.524704, 38.852784 ], [ 114.635627, 38.851073 ], [ 114.671869, 38.868177 ], [ 114.769613, 38.884422 ], [ 114.814641, 38.902372 ], [ 114.870652, 38.932279 ], [ 114.939841, 38.977543 ], [ 115.027701, 39.027045 ], [ 115.12874, 39.108902 ], [ 115.156196, 39.153201 ], [ 115.170473, 39.206834 ], [ 115.150704, 39.26978 ], [ 115.116659, 39.322475 ], [ 115.082613, 39.364941 ], [ 115.061747, 39.381921 ], [ 114.989262, 39.403139 ], [ 114.905796, 39.405685 ], [ 114.817936, 39.395501 ], [ 114.750943, 39.364941 ], [ 114.669673, 39.342012 ], [ 114.608171, 39.337766 ], [ 114.562045, 39.351355 ], [ 114.51482, 39.384467 ], [ 114.465399, 39.398048 ], [ 114.429157, 39.383619 ], [ 114.381932, 39.331819 ], [ 114.334708, 39.282532 ], [ 114.280894, 39.23321 ] ] ] } },
{ "type": "Feature", "properties": { }, "geometry": { "type": "Polygon", "coordinates": [ [ [ 113.151725, 38.462491 ], [ 113.102304, 38.483987 ], [ 113.060571, 38.468511 ], [ 113.024329, 38.464211 ], [ 113.013346, 38.44099 ], [ 113.045196, 38.412597 ], [ 113.093518, 38.403992 ], [ 113.120974, 38.408295 ], [ 113.152824, 38.426365 ], [ 113.16161, 38.44443 ], [ 113.151725, 38.462491 ] ] ] } },
{ "type": "Feature", "properties": { }, "geometry": { "type": "Polygon", "coordinates": [ [ [ 113.032017, 38.3196 ], [ 112.989185, 38.309259 ], [ 112.943059, 38.268745 ], [ 112.914504, 38.229933 ], [ 112.933174, 38.20491 ], [ 112.982596, 38.222168 ], [ 113.028722, 38.250635 ], [ 113.059473, 38.282539 ], [ 113.070455, 38.30495 ], [ 113.056178, 38.317876 ], [ 113.032017, 38.3196 ] ] ] } },
{ "type": "Feature", "properties": { }, "geometry": { "type": "Polygon", "coordinates": [ [ [ 112.402773, 38.709127 ], [ 112.336878, 38.6937 ], [ 112.260001, 38.647397 ], [ 112.180928, 38.604497 ], [ 112.119426, 38.570159 ], [ 112.086478, 38.532368 ], [ 112.064513, 38.473925 ], [ 112.082085, 38.439525 ], [ 112.15457, 38.472205 ], [ 112.281966, 38.561572 ], [ 112.363236, 38.618228 ], [ 112.413756, 38.674839 ], [ 112.402773, 38.709127 ] ] ] } },
{ "type": "Feature", "properties": { }, "geometry": { "type": "Polygon", "coordinates": [ [ [ 112.358843, 38.143004 ], [ 112.27318, 38.132638 ], [ 112.19191, 38.099804 ], [ 112.106247, 38.063497 ], [ 112.020584, 38.032361 ], [ 111.952492, 38.018519 ], [ 111.906366, 38.02025 ], [ 111.842668, 37.994289 ], [ 111.803131, 37.944073 ], [ 111.763594, 37.89729 ], [ 111.688913, 37.869552 ], [ 111.631805, 37.885156 ], [ 111.620822, 37.935412 ], [ 111.614233, 38.008136 ], [ 111.568106, 38.05139 ], [ 111.502212, 38.070414 ], [ 111.405566, 38.065226 ], [ 111.344064, 38.039282 ], [ 111.311117, 37.982172 ], [ 111.317706, 37.935412 ], [ 111.319903, 37.89729 ], [ 111.295741, 37.857414 ], [ 111.22765, 37.788012 ], [ 111.195293, 37.718989 ], [ 111.179327, 37.652492 ], [ 111.192506, 37.593341 ], [ 111.225454, 37.546335 ], [ 111.306724, 37.504527 ], [ 111.403369, 37.459209 ], [ 111.48464, 37.450491 ], [ 111.539552, 37.471413 ], [ 111.583482, 37.527176 ], [ 111.638394, 37.575935 ], [ 111.699896, 37.598562 ], [ 111.763594, 37.582898 ], [ 111.831685, 37.534144 ], [ 111.912956, 37.525434 ], [ 111.98544, 37.546335 ], [ 112.044745, 37.572453 ], [ 112.077692, 37.612483 ], [ 112.086478, 37.65597 ], [ 112.075496, 37.687264 ], [ 112.016191, 37.727232 ], [ 111.948099, 37.737655 ], [ 111.895384, 37.760233 ], [ 111.886598, 37.79322 ], [ 111.943706, 37.817516 ], [ 112.018387, 37.824456 ], [ 112.115033, 37.83313 ], [ 112.23584, 37.893823 ], [ 112.284163, 37.947538 ], [ 112.334682, 38.002944 ], [ 112.36104, 38.056579 ], [ 112.376415, 38.103261 ], [ 112.376415, 38.132638 ], [ 112.358843, 38.143004 ] ] ] } },
{ "type": "Feature", "properties": { }, "geometry": { "type": "Polygon", "coordinates": [ [ [ 113.455442, 37.500607 ], [ 113.387351, 37.547641 ], [ 113.301687, 37.570277 ], [ 113.233596, 37.559831 ], [ 113.152326, 37.53545 ], [ 113.082038, 37.547641 ], [ 113.002965, 37.55809 ], [ 112.884354, 37.538933 ], [ 112.809673, 37.512804 ], [ 112.76794, 37.474463 ], [ 112.702045, 37.388998 ], [ 112.633954, 37.333132 ], [ 112.587828, 37.264988 ], [ 112.587828, 37.212528 ], [ 112.620775, 37.123262 ], [ 112.64274, 37.053175 ], [ 112.68008, 36.951435 ], [ 112.702045, 36.898757 ], [ 112.7306, 36.846043 ], [ 112.756957, 36.839012 ], [ 112.778922, 36.863619 ], [ 112.778922, 36.904027 ], [ 112.787708, 36.954946 ], [ 112.785512, 37.030383 ], [ 112.81187, 37.091731 ], [ 112.864586, 37.133769 ], [ 112.970017, 37.137271 ], [ 113.053484, 37.123262 ], [ 113.119379, 37.114504 ], [ 113.235793, 37.144275 ], [ 113.347814, 37.210779 ], [ 113.40053, 37.27198 ], [ 113.453245, 37.350594 ], [ 113.468621, 37.439591 ], [ 113.455442, 37.500607 ] ] ] } },
{ "type": "Feature", "properties": { }, "geometry": { "type": "Polygon", "coordinates": [ [ [ 114.14514, 37.766745 ], [ 114.127568, 37.803199 ], [ 114.083638, 37.811876 ], [ 114.035316, 37.787578 ], [ 113.980403, 37.752853 ], [ 113.943063, 37.68683 ], [ 113.958438, 37.634665 ], [ 113.989189, 37.601608 ], [ 113.991386, 37.570277 ], [ 113.934277, 37.542417 ], [ 113.831042, 37.486665 ], [ 113.749772, 37.425638 ], [ 113.653126, 37.336624 ], [ 113.653126, 37.336624 ], [ 113.598969, 37.283624 ], [ 113.56053, 37.263523 ], [ 113.519895, 37.260901 ], [ 113.496832, 37.253034 ], [ 113.481457, 37.224181 ], [ 113.461688, 37.187443 ], [ 113.443018, 37.127924 ], [ 113.422151, 37.087635 ], [ 113.380418, 37.043818 ], [ 113.323309, 37.026284 ], [ 113.22886, 37.031544 ], [ 113.12892, 37.043818 ], [ 113.044355, 37.049954 ], [ 112.955397, 37.047324 ], [ 112.880716, 37.034175 ], [ 112.844474, 37.007869 ], [ 112.810428, 36.953475 ], [ 112.81592, 36.883232 ], [ 112.819214, 36.809407 ], [ 112.797249, 36.73023 ], [ 112.80643, 36.697728 ], [ 112.839377, 36.6343 ], [ 112.898683, 36.584932 ], [ 113.001918, 36.533767 ], [ 113.059027, 36.479036 ], [ 113.096367, 36.417196 ], [ 113.153476, 36.372995 ], [ 113.190816, 36.29868 ], [ 113.166655, 36.257954 ], [ 113.153476, 36.210117 ], [ 113.197406, 36.167572 ], [ 113.252318, 36.125003 ], [ 113.280872, 36.093061 ], [ 113.267693, 36.057555 ], [ 113.252318, 36.016704 ], [ 113.184227, 35.963387 ], [ 113.105153, 35.920708 ], [ 113.043651, 35.886904 ], [ 112.949202, 35.753325 ], [ 112.903076, 35.671286 ], [ 112.852556, 35.562365 ], [ 112.837181, 35.494438 ], [ 112.797644, 35.428242 ], [ 112.747125, 35.361993 ], [ 112.738339, 35.306444 ], [ 112.751518, 35.275966 ], [ 112.808627, 35.288518 ], [ 112.907469, 35.344078 ], [ 112.971284, 35.368293 ], [ 113.186423, 35.456874 ], [ 113.309427, 35.508743 ], [ 113.43243, 35.549856 ], [ 113.487342, 35.580231 ], [ 113.649883, 35.655225 ], [ 113.777279, 35.728366 ], [ 113.869532, 35.781841 ], [ 113.904676, 35.837061 ], [ 113.917855, 35.878005 ], [ 113.979357, 35.938494 ], [ 113.968374, 35.984718 ], [ 113.928837, 36.114357 ], [ 113.920051, 36.227838 ], [ 113.946409, 36.360614 ], [ 113.981553, 36.54612 ], [ 114.032072, 36.618435 ], [ 114.093574, 36.72414 ], [ 114.126522, 36.796289 ], [ 114.141897, 36.889453 ], [ 114.163862, 37.161262 ], [ 114.18363, 37.248735 ], [ 114.188023, 37.351822 ], [ 114.196809, 37.454768 ], [ 114.177041, 37.621971 ], [ 114.161665, 37.72802 ], [ 114.14514, 37.766745 ] ] ] } },
{ "type": "Feature", "properties": { }, "geometry": { "type": "Polygon", "coordinates": [ [ [ 112.185664, 37.042643 ], [ 112.073643, 37.012833 ], [ 112.001158, 36.974237 ], [ 111.946246, 36.942644 ], [ 111.908906, 36.891717 ], [ 111.891334, 36.816142 ], [ 111.891334, 36.72641 ], [ 111.889137, 36.583678 ], [ 111.930871, 36.479546 ], [ 111.959425, 36.424777 ], [ 111.9748, 36.343435 ], [ 111.948443, 36.192905 ], [ 111.89353, 36.105998 ], [ 111.862779, 36.029653 ], [ 111.847404, 35.981677 ], [ 111.807867, 35.972789 ], [ 111.788099, 35.926558 ], [ 111.816653, 35.887418 ], [ 111.867172, 35.87674 ], [ 111.904513, 35.8536 ], [ 111.919888, 35.819767 ], [ 111.972604, 35.79661 ], [ 112.02532, 35.787701 ], [ 112.095608, 35.755623 ], [ 112.159306, 35.707481 ], [ 112.214218, 35.680723 ], [ 112.242772, 35.653956 ], [ 112.266934, 35.616468 ], [ 112.317453, 35.580748 ], [ 112.376758, 35.53965 ], [ 112.425081, 35.527138 ], [ 112.462422, 35.55216 ], [ 112.48219, 35.611111 ], [ 112.510744, 35.66288 ], [ 112.543692, 35.711048 ], [ 112.556871, 35.744927 ], [ 112.585425, 35.784138 ], [ 112.622766, 35.821548 ], [ 112.638141, 35.87496 ], [ 112.64473, 35.912327 ], [ 112.693053, 35.963901 ], [ 112.706232, 35.990564 ], [ 112.697446, 36.04919 ], [ 112.726001, 36.184042 ], [ 112.730394, 36.256694 ], [ 112.730394, 36.295651 ], [ 112.752359, 36.339896 ], [ 112.767734, 36.375274 ], [ 112.767734, 36.375274 ], [ 112.734787, 36.444216 ], [ 112.64473, 36.506034 ], [ 112.578836, 36.601313 ], [ 112.508548, 36.749293 ], [ 112.477797, 36.875905 ], [ 112.43826, 36.954932 ], [ 112.378955, 37.019848 ], [ 112.339418, 37.047903 ], [ 112.253755, 37.061926 ], [ 112.185664, 37.042643 ] ] ] } },
{ "type": "Feature", "properties": { }, "geometry": { "type": "Polygon", "coordinates": [ [ [ 114.649349, 34.68711 ], [ 114.57357, 34.677175 ], [ 114.543917, 34.65369 ], [ 114.551605, 34.625679 ], [ 114.587847, 34.624775 ], [ 114.637268, 34.637427 ], [ 114.685591, 34.6564 ], [ 114.705359, 34.679885 ], [ 114.681198, 34.689819 ], [ 114.649349, 34.68711 ] ] ] } },
{ "type": "Feature", "properties": { }, "geometry": { "type": "Polygon", "coordinates": [ [ [ 114.864605, 34.450171 ], [ 114.799808, 34.432056 ], [ 114.745994, 34.393097 ], [ 114.724029, 34.345958 ], [ 114.735012, 34.304237 ], [ 114.765763, 34.295164 ], [ 114.819577, 34.320565 ], [ 114.877784, 34.369531 ], [ 114.896454, 34.390378 ], [ 114.904142, 34.419374 ], [ 114.898651, 34.44202 ], [ 114.864605, 34.450171 ] ] ] } }
]
}
