{
"type": "FeatureCollection",
"name": "japanoccupied1942",
"features": [
{ "type": "Feature", "properties": { }, "geometry": { "type": "Polygon", "coordinates": [ [ [ 119.787361, 37.180141 ], [ 119.856605, 37.145546 ], [ 119.916259, 37.13886 ], [ 119.97472, 37.150321 ], [ 119.987844, 37.179921 ], [ 119.958017, 37.220959 ], [ 119.930576, 37.231454 ], [ 119.894302, 37.25042 ], [ 119.882362, 37.2332 ], [ 119.787361, 37.180141 ] ] ] } },
{ "type": "Feature", "properties": { }, "geometry": { "type": "Polygon", "coordinates": [ [ [ 120.344881, 37.392653 ], [ 120.351186, 37.337291 ], [ 120.385867, 37.32722 ], [ 120.436311, 37.325962 ], [ 120.467839, 37.366235 ], [ 120.455228, 37.406487 ], [ 120.390596, 37.420318 ], [ 120.344881, 37.392653 ] ] ] } },
{ "type": "Feature", "properties": { }, "geometry": { "type": "Polygon", "coordinates": [ [ [ 120.787397, 37.341668 ], [ 120.779724, 37.274251 ], [ 120.808497, 37.251254 ], [ 120.862205, 37.26352 ], [ 120.883305, 37.304903 ], [ 120.869878, 37.346262 ], [ 120.823842, 37.349325 ], [ 120.787397, 37.341668 ] ] ] } },
{ "type": "Feature", "properties": { }, "geometry": { "type": "Polygon", "coordinates": [ [ [ 120.672307, 37.010129 ], [ 120.641616, 36.951651 ], [ 120.672307, 36.931635 ], [ 120.712588, 36.933175 ], [ 120.760542, 36.956269 ], [ 120.754788, 36.98859 ], [ 120.724097, 37.014744 ], [ 120.672307, 37.010129 ] ] ] } },
{ "type": "Feature", "properties": { }, "geometry": { "type": "Polygon", "coordinates": [ [ [ 120.585693, 37.759304 ], [ 120.63964, 37.710618 ], [ 120.696721, 37.693742 ], [ 120.768404, 37.685303 ], [ 120.830795, 37.703235 ], [ 120.877257, 37.723272 ], [ 120.911771, 37.742249 ], [ 120.93301, 37.759114 ], [ 120.933197, 37.777637 ], [ 120.931252, 37.79681 ], [ 120.946808, 37.807083 ], [ 120.930138, 37.822922 ], [ 120.900696, 37.818195 ], [ 120.888611, 37.825278 ], [ 120.876526, 37.832359 ], [ 120.853737, 37.828472 ], [ 120.838737, 37.811539 ], [ 120.833444, 37.811232 ], [ 120.81459, 37.810139 ], [ 120.741249, 37.832359 ], [ 120.656807, 37.782921 ], [ 120.615417, 37.780422 ], [ 120.585693, 37.759304 ] ] ] } },
{ "type": "Feature", "properties": { }, "geometry": { "type": "Polygon", "coordinates": [ [ [ 120.361252, 37.694031 ], [ 120.220413, 37.688194 ], [ 120.225418, 37.67458 ], [ 120.25264, 37.672642 ], [ 120.26458, 37.660141 ], [ 120.264862, 37.660137 ], [ 120.26458, 37.66153 ], [ 120.257637, 37.669579 ], [ 120.257637, 37.669579 ], [ 120.260406, 37.675419 ], [ 120.272636, 37.669579 ], [ 120.287636, 37.6782 ], [ 120.302635, 37.673473 ], [ 120.300407, 37.660141 ], [ 120.320694, 37.658474 ], [ 120.32402, 37.643749 ], [ 120.310143, 37.63736 ], [ 120.319313, 37.633751 ], [ 120.316528, 37.61208 ], [ 120.339409, 37.607655 ], [ 120.352304, 37.621759 ], [ 120.365199, 37.647397 ], [ 120.361252, 37.694031 ] ] ] } },
{ "type": "Feature", "properties": { }, "geometry": { "type": "Polygon", "coordinates": [ [ [ 121.235757, 37.570431 ], [ 121.214495, 37.517035 ], [ 121.191596, 37.471423 ], [ 121.206317, 37.428391 ], [ 121.227579, 37.39708 ], [ 121.291368, 37.384029 ], [ 121.350249, 37.376198 ], [ 121.407495, 37.374893 ], [ 121.472919, 37.372282 ], [ 121.520351, 37.367061 ], [ 121.561241, 37.354005 ], [ 121.611945, 37.351394 ], [ 121.66592, 37.367061 ], [ 121.703538, 37.39708 ], [ 121.728072, 37.433609 ], [ 121.73764, 37.452362 ], [ 121.687267, 37.451534 ], [ 121.670143, 37.451252 ], [ 121.670143, 37.451252 ], [ 121.669861, 37.459583 ], [ 121.667471, 37.45873 ], [ 121.66597, 37.458195 ], [ 121.66597, 37.458195 ], [ 121.668058, 37.44622 ], [ 121.673204, 37.441735 ], [ 121.677635, 37.438473 ], [ 121.677635, 37.438473 ], [ 121.672134, 37.434239 ], [ 121.666809, 37.430141 ], [ 121.650139, 37.443474 ], [ 121.635139, 37.431252 ], [ 121.634857, 37.43903 ], [ 121.635696, 37.44014 ], [ 121.635139, 37.440422 ], [ 121.612068, 37.440422 ], [ 121.593483, 37.427921 ], [ 121.58403, 37.440971 ], [ 121.559303, 37.437363 ], [ 121.556526, 37.42347 ], [ 121.552361, 37.438473 ], [ 121.536247, 37.432083 ], [ 121.540703, 37.44014 ], [ 121.525635, 37.45681 ], [ 121.508469, 37.45208 ], [ 121.456802, 37.479862 ], [ 121.442917, 37.496799 ], [ 121.45153, 37.51931 ], [ 121.43708, 37.522079 ], [ 121.43264, 37.534863 ], [ 121.384857, 37.546249 ], [ 121.391251, 37.56292 ], [ 121.375137, 37.555691 ], [ 121.382637, 37.562641 ], [ 121.382637, 37.562641 ], [ 121.382637, 37.562641 ], [ 121.369583, 37.57542 ], [ 121.383751, 37.58514 ], [ 121.373466, 37.597641 ], [ 121.422363, 37.591526 ], [ 121.430138, 37.60014 ], [ 121.343483, 37.630699 ], [ 121.369308, 37.607361 ], [ 121.356537, 37.589031 ], [ 121.270973, 37.572639 ], [ 121.235757, 37.570431 ] ] ] } },
{ "type": "Feature", "properties": { }, "geometry": { "type": "Polygon", "coordinates": [ [ [ 121.935974, 37.420696 ], [ 121.976562, 37.394023 ], [ 122.03055, 37.370524 ], [ 122.076358, 37.361384 ], [ 122.138526, 37.353548 ], [ 122.197422, 37.367913 ], [ 122.246501, 37.38358 ], [ 122.277585, 37.40838 ], [ 122.287911, 37.421867 ], [ 122.270691, 37.42931 ], [ 122.263748, 37.423752 ], [ 122.263748, 37.423752 ], [ 122.277367, 37.450142 ], [ 122.242638, 37.46236 ], [ 122.230972, 37.45319 ], [ 122.215973, 37.45903 ], [ 122.213753, 37.449581 ], [ 122.213753, 37.449581 ], [ 122.200966, 37.454861 ], [ 122.186531, 37.429306 ], [ 122.171516, 37.42765 ], [ 122.137085, 37.467083 ], [ 122.144302, 37.491249 ], [ 122.134857, 37.49514 ], [ 122.133595, 37.494813 ], [ 122.135509, 37.500678 ], [ 122.152599, 37.514553 ], [ 122.152451, 37.518239 ], [ 122.158752, 37.520416 ], [ 122.151527, 37.530422 ], [ 122.16153, 37.53904 ], [ 122.136803, 37.544582 ], [ 122.145142, 37.555141 ], [ 122.126808, 37.553516 ], [ 122.119026, 37.564861 ], [ 122.115692, 37.561249 ], [ 122.121246, 37.55069 ], [ 122.09153, 37.541531 ], [ 122.062363, 37.565979 ], [ 122.061531, 37.564583 ], [ 122.063194, 37.562637 ], [ 122.071533, 37.556252 ], [ 122.071941, 37.552678 ], [ 122.069866, 37.552054 ], [ 122.071788, 37.544501 ], [ 122.063357, 37.538479 ], [ 122.049576, 37.540699 ], [ 122.043835, 37.53393 ], [ 122.043793, 37.533922 ], [ 122.025645, 37.528022 ], [ 122.024436, 37.52666 ], [ 122.011528, 37.527363 ], [ 122.018542, 37.520014 ], [ 122.016368, 37.517564 ], [ 122.008815, 37.506843 ], [ 121.994308, 37.49847 ], [ 122.003471, 37.483196 ], [ 121.988249, 37.483603 ], [ 121.961807, 37.48431 ], [ 121.964859, 37.454861 ], [ 121.994308, 37.43264 ], [ 121.992699, 37.429811 ], [ 121.986252, 37.41848 ], [ 121.975386, 37.424868 ], [ 121.967361, 37.429585 ], [ 121.935974, 37.420696 ] ] ] } },
{ "type": "Feature", "properties": { }, "geometry": { "type": "Polygon", "coordinates": [ [ [ 119.907642, 36.824122 ], [ 119.890837, 36.771413 ], [ 119.924448, 36.738959 ], [ 119.971502, 36.741664 ], [ 120.015196, 36.772765 ], [ 120.003432, 36.805205 ], [ 119.968141, 36.825473 ], [ 119.944614, 36.830876 ], [ 119.907642, 36.824122 ] ] ] } },
{ "type": "Feature", "properties": { }, "geometry": { "type": "Polygon", "coordinates": [ [ [ 119.351933, 36.879657 ], [ 119.333422, 36.849084 ], [ 119.338564, 36.817672 ], [ 119.383812, 36.801961 ], [ 119.419805, 36.797826 ], [ 119.462997, 36.820979 ], [ 119.46094, 36.85239 ], [ 119.439344, 36.88131 ], [ 119.395125, 36.892048 ], [ 119.368387, 36.88957 ], [ 119.351933, 36.879657 ] ] ] } },
{ "type": "Feature", "properties": { }, "geometry": { "type": "Polygon", "coordinates": [ [ [ 118.500068, 36.984298 ], [ 118.465723, 37.005725 ], [ 118.419929, 37.027146 ], [ 118.362687, 37.043972 ], [ 118.307353, 37.033265 ], [ 118.29018, 36.993482 ], [ 118.292088, 36.941425 ], [ 118.334066, 36.913852 ], [ 118.393216, 36.889333 ], [ 118.475263, 36.86634 ], [ 118.524873, 36.861741 ], [ 118.578299, 36.844873 ], [ 118.614552, 36.826469 ], [ 118.685151, 36.81573 ], [ 118.748117, 36.809594 ], [ 118.799635, 36.824935 ], [ 118.811084, 36.86634 ], [ 118.772922, 36.893931 ], [ 118.709956, 36.910787 ], [ 118.652714, 36.916916 ], [ 118.585931, 36.932235 ], [ 118.534413, 36.952146 ], [ 118.500068, 36.984298 ] ] ] } },
{ "type": "Feature", "properties": { }, "geometry": { "type": "Polygon", "coordinates": [ [ [ 118.073827, 37.415696 ], [ 118.160706, 37.444868 ], [ 118.284166, 37.470384 ], [ 118.307029, 37.514106 ], [ 118.20186, 37.528674 ], [ 118.064682, 37.514106 ], [ 117.854343, 37.514106 ], [ 117.730884, 37.506821 ], [ 117.630287, 37.495892 ], [ 117.579988, 37.514106 ], [ 117.598279, 37.54688 ], [ 117.639432, 37.576 ], [ 117.65315, 37.623296 ], [ 117.627544, 37.644093 ], [ 117.559373, 37.63303 ], [ 117.510679, 37.590973 ], [ 117.467551, 37.533383 ], [ 117.431379, 37.49127 ], [ 117.385468, 37.45246 ], [ 117.317098, 37.419724 ], [ 117.248542, 37.386909 ], [ 117.201533, 37.368152 ], [ 117.154523, 37.371278 ], [ 117.117307, 37.394724 ], [ 117.074215, 37.429097 ], [ 117.038958, 37.460331 ], [ 117.003701, 37.488431 ], [ 116.944939, 37.494674 ], [ 116.899888, 37.472821 ], [ 116.847002, 37.449401 ], [ 116.794116, 37.422848 ], [ 116.749065, 37.391598 ], [ 116.692262, 37.372841 ], [ 116.635459, 37.38222 ], [ 116.568862, 37.385346 ], [ 116.519893, 37.371278 ], [ 116.504224, 37.336878 ], [ 116.502265, 37.296203 ], [ 116.545357, 37.285249 ], [ 116.613913, 37.277423 ], [ 116.674633, 37.275858 ], [ 116.723602, 37.261769 ], [ 116.757371, 37.232674 ], [ 116.768653, 37.189718 ], [ 116.745148, 37.147395 ], [ 116.690303, 37.128577 ], [ 116.623706, 37.122303 ], [ 116.57082, 37.128577 ], [ 116.492471, 37.156802 ], [ 116.443503, 37.200687 ], [ 116.414122, 37.250809 ], [ 116.396493, 37.304027 ], [ 116.380823, 37.357207 ], [ 116.374947, 37.418161 ], [ 116.386699, 37.47126 ], [ 116.418039, 37.510279 ], [ 116.474843, 37.530561 ], [ 116.557109, 37.527441 ], [ 116.629583, 37.527441 ], [ 116.700097, 37.5368 ], [ 116.71661, 37.578301 ], [ 116.706554, 37.609774 ], [ 116.691805, 37.644966 ], [ 116.679738, 37.67428 ], [ 116.671022, 37.694526 ], [ 116.663648, 37.731275 ], [ 116.656273, 37.768005 ], [ 116.657614, 37.817482 ], [ 116.675045, 37.843006 ], [ 116.696498, 37.863737 ], [ 116.709906, 37.89987 ], [ 116.709906, 37.936516 ], [ 116.709236, 37.975266 ], [ 116.71661, 38.015587 ], [ 116.722644, 38.048463 ], [ 116.733371, 38.074436 ], [ 116.745438, 38.100929 ], [ 116.767562, 38.118939 ], [ 116.787674, 38.131119 ], [ 116.821195, 38.132708 ], [ 116.858738, 38.123705 ], [ 116.909689, 38.104637 ], [ 116.951255, 38.089273 ], [ 116.972708, 38.074966 ], [ 117.001535, 38.062776 ], [ 117.038408, 38.041041 ], [ 117.084667, 38.018238 ], [ 117.130255, 38.003387 ], [ 117.166457, 38.001265 ], [ 117.208693, 38.003917 ], [ 117.241543, 38.023012 ], [ 117.242213, 38.050584 ], [ 117.228805, 38.083975 ], [ 117.201318, 38.112053 ], [ 117.164446, 38.138533 ], [ 117.120869, 38.165532 ], [ 117.087348, 38.189346 ], [ 117.049805, 38.238008 ], [ 117.042431, 38.26867 ], [ 117.042431, 38.298262 ], [ 117.063213, 38.31992 ], [ 117.086678, 38.335235 ], [ 117.116176, 38.343155 ], [ 117.148356, 38.342099 ], [ 117.191932, 38.332067 ], [ 117.244225, 38.306186 ], [ 117.281768, 38.292979 ], [ 117.307243, 38.291922 ], [ 117.35015, 38.299319 ], [ 117.384341, 38.311997 ], [ 117.401771, 38.343155 ], [ 117.398419, 38.372189 ], [ 117.368251, 38.407541 ], [ 117.324674, 38.43233 ], [ 117.248918, 38.457638 ], [ 117.196625, 38.468707 ], [ 117.134277, 38.485044 ], [ 117.102097, 38.504012 ], [ 117.067906, 38.519288 ], [ 117.047794, 38.529294 ], [ 116.998183, 38.529821 ], [ 116.966674, 38.521921 ], [ 116.929801, 38.534033 ], [ 116.903655, 38.557726 ], [ 116.888236, 38.581937 ], [ 116.882202, 38.611399 ], [ 116.880341, 38.666429 ], [ 116.891282, 38.707163 ], [ 116.941364, 38.848543 ], [ 116.950677, 38.895861 ], [ 116.969301, 38.930055 ], [ 116.984201, 38.956236 ], [ 117.013069, 38.978772 ], [ 117.039143, 38.989674 ], [ 117.068942, 38.980953 ], [ 117.115503, 38.963506 ], [ 117.134128, 38.935874 ], [ 117.154615, 38.906776 ], [ 117.171377, 38.881305 ], [ 117.193726, 38.866746 ], [ 117.229113, 38.853641 ], [ 117.262637, 38.853641 ], [ 117.309198, 38.878393 ], [ 117.338997, 38.900227 ], [ 117.369728, 38.924236 ], [ 117.399527, 38.94242 ], [ 117.445157, 38.962052 ], [ 117.497306, 38.974411 ], [ 117.549454, 38.98386 ], [ 117.589497, 38.979499 ], [ 117.631402, 38.97223 ], [ 117.716805, 38.968193 ], [ 117.782913, 38.96431 ], [ 117.718193, 38.990421 ], [ 117.789581, 38.977089 ], [ 117.758751, 39.027637 ], [ 117.759872, 39.07431 ], [ 117.729568, 39.090141 ], [ 117.846124, 39.24476 ], [ 117.897388, 39.316854 ], [ 117.962079, 39.388874 ], [ 118.019447, 39.443786 ], [ 118.086579, 39.489197 ], [ 118.142726, 39.528908 ], [ 118.237931, 39.566706 ], [ 118.325813, 39.592208 ], [ 118.411254, 39.618645 ], [ 118.512563, 39.643184 ], [ 118.574812, 39.65545 ], [ 118.639503, 39.658281 ], [ 118.698092, 39.644127 ], [ 118.744474, 39.626196 ], [ 118.770106, 39.598818 ], [ 118.75668, 39.559148 ], [ 118.706636, 39.469333 ], [ 118.69443, 39.412548 ], [ 118.677342, 39.350978 ], [ 118.6749, 39.289353 ], [ 118.677342, 39.241912 ], [ 118.678562, 39.19159 ], [ 118.681252, 39.16375 ], [ 118.688751, 39.144581 ], [ 118.69236, 39.151531 ], [ 118.711807, 39.138195 ], [ 118.745407, 39.13681 ], [ 118.79202, 39.141586 ], [ 118.810417, 39.143471 ], [ 118.837639, 39.165974 ], [ 118.837639, 39.165974 ], [ 118.887642, 39.159584 ], [ 118.887642, 39.159584 ], [ 118.887642, 39.159584 ], [ 118.938751, 39.184582 ], [ 118.944031, 39.177921 ], [ 119.008751, 39.194305 ], [ 119.000687, 39.202919 ], [ 119.00708, 39.210415 ], [ 119.030136, 39.192089 ], [ 119.020416, 39.21014 ], [ 119.097359, 39.26125 ], [ 119.18792, 39.357922 ], [ 119.207077, 39.363472 ], [ 119.201805, 39.378193 ], [ 119.273483, 39.382641 ], [ 119.252357, 39.371529 ], [ 119.216797, 39.366531 ], [ 119.23597, 39.357079 ], [ 119.281525, 39.381805 ], [ 119.307083, 39.421532 ], [ 119.30542, 39.437363 ], [ 119.296516, 39.46431 ], [ 119.257637, 39.498199 ], [ 119.282631, 39.575699 ], [ 119.272636, 39.58514 ], [ 119.245697, 39.55986 ], [ 119.248749, 39.584583 ], [ 119.273483, 39.591251 ], [ 119.284027, 39.577919 ], [ 119.290013, 39.592064 ], [ 119.344856, 39.721531 ], [ 119.365692, 39.748749 ], [ 119.46653, 39.813473 ], [ 119.53125, 39.811531 ], [ 119.530136, 39.831532 ], [ 119.507919, 39.844028 ], [ 119.529579, 39.885971 ], [ 119.559303, 39.912361 ], [ 119.609863, 39.904026 ], [ 119.625694, 39.917915 ], [ 119.617638, 39.92292 ], [ 119.62236, 39.934311 ], [ 119.623466, 39.933472 ], [ 119.621246, 39.921806 ], [ 119.627717, 39.923926 ], [ 119.637352, 39.927082 ], [ 119.645973, 39.919029 ], [ 119.660698, 39.936249 ], [ 119.67347, 39.938473 ], [ 119.669029, 39.92347 ], [ 119.710976, 39.935417 ], [ 119.70153, 39.941532 ], [ 119.780693, 39.95208 ], [ 119.803474, 39.978474 ], [ 119.810238, 40.051017 ], [ 119.771251, 40.147075 ], [ 119.740386, 40.216849 ], [ 119.685154, 40.230546 ], [ 119.631547, 40.234282 ], [ 119.599058, 40.229301 ], [ 119.576315, 40.229301 ], [ 119.535935, 40.180055 ], [ 119.296212, 40.16071 ], [ 119.186444, 40.089706 ], [ 119.142584, 40.062252 ], [ 119.110094, 40.033537 ], [ 119.075981, 39.999814 ], [ 119.025622, 39.991068 ], [ 118.972015, 39.993567 ], [ 118.944399, 40.003562 ], [ 118.900539, 40.008558 ], [ 118.845307, 39.998564 ], [ 118.777079, 39.991068 ], [ 118.738092, 39.999814 ], [ 118.694232, 40.008558 ], [ 118.655245, 40.003562 ], [ 118.648747, 39.976072 ], [ 118.66824, 39.953572 ], [ 118.707228, 39.941069 ], [ 118.725097, 39.923561 ], [ 118.699105, 39.884777 ], [ 118.660118, 39.862247 ], [ 118.621131, 39.862247 ], [ 118.593515, 39.88728 ], [ 118.591891, 39.928564 ], [ 118.600013, 39.969823 ], [ 118.616258, 40.008558 ], [ 118.626004, 40.033537 ], [ 118.62438, 40.078476 ], [ 118.608135, 40.117149 ], [ 118.559401, 40.140842 ], [ 118.496047, 40.168264 ], [ 118.440816, 40.195675 ], [ 118.38071, 40.206886 ], [ 118.328728, 40.218095 ], [ 118.283243, 40.22183 ], [ 118.234509, 40.215604 ], [ 118.215015, 40.191938 ], [ 118.23126, 40.16951 ], [ 118.268623, 40.160786 ], [ 118.320605, 40.155801 ], [ 118.372588, 40.150815 ], [ 118.450562, 40.144582 ], [ 118.499296, 40.137101 ], [ 118.53341, 40.120891 ], [ 118.567524, 40.102182 ], [ 118.572397, 40.061003 ], [ 118.56265, 40.0198 ], [ 118.530161, 39.98607 ], [ 118.520414, 39.944821 ], [ 118.522039, 39.913555 ], [ 118.520414, 39.883526 ], [ 118.487925, 39.847223 ], [ 118.435942, 39.828439 ], [ 118.361217, 39.829691 ], [ 118.283243, 39.838458 ], [ 118.213391, 39.848475 ], [ 118.128919, 39.848475 ], [ 118.060691, 39.853484 ], [ 118.018455, 39.860996 ], [ 117.998962, 39.896039 ], [ 117.997337, 39.956073 ], [ 117.964848, 40.068492 ], [ 117.953477, 40.117149 ], [ 117.956726, 40.152061 ], [ 117.985966, 40.176987 ], [ 118.041198, 40.183217 ], [ 118.102927, 40.208131 ], [ 118.143539, 40.228056 ], [ 118.167906, 40.251709 ], [ 118.166281, 40.269133 ], [ 118.135417, 40.277842 ], [ 118.080185, 40.27411 ], [ 118.015206, 40.254199 ], [ 117.937232, 40.240506 ], [ 117.880376, 40.231791 ], [ 117.828393, 40.22183 ], [ 117.795904, 40.201904 ], [ 117.79103, 40.176987 ], [ 117.800777, 40.155801 ], [ 117.851136, 40.142088 ], [ 117.883625, 40.119644 ], [ 117.907992, 40.085963 ], [ 117.906367, 40.023547 ], [ 117.904743, 39.969823 ], [ 117.89662, 39.913555 ], [ 117.878751, 39.864751 ], [ 117.847887, 39.83971 ], [ 117.807275, 39.844719 ], [ 117.769912, 39.862247 ], [ 117.737423, 39.877268 ], [ 117.68544, 39.884777 ], [ 117.622086, 39.867255 ], [ 117.581475, 39.838458 ], [ 117.568479, 39.808396 ], [ 117.560357, 39.767039 ], [ 117.571728, 39.715621 ], [ 117.602593, 39.674208 ], [ 117.628584, 39.625233 ], [ 117.651327, 39.592564 ], [ 117.677318, 39.574966 ], [ 117.714681, 39.571195 ], [ 117.752043, 39.582509 ], [ 117.792655, 39.630258 ], [ 117.810524, 39.680484 ], [ 117.820271, 39.719385 ], [ 117.83814, 39.763278 ], [ 117.869005, 39.79336 ], [ 117.898245, 39.800878 ], [ 117.951852, 39.802131 ], [ 118.002211, 39.795866 ], [ 118.031451, 39.777067 ], [ 118.042822, 39.75074 ], [ 118.024953, 39.68927 ], [ 117.977844, 39.623977 ], [ 117.932359, 39.549819 ], [ 117.899869, 39.507047 ], [ 117.860882, 39.450397 ], [ 117.828393, 39.396221 ], [ 117.786157, 39.342003 ], [ 117.748794, 39.296578 ], [ 117.716305, 39.329388 ], [ 117.706558, 39.363443 ], [ 117.722803, 39.39244 ], [ 117.730925, 39.423944 ], [ 117.721178, 39.454175 ], [ 117.706558, 39.507047 ], [ 117.661073, 39.533468 ], [ 117.604217, 39.534726 ], [ 117.553859, 39.567423 ], [ 117.508374, 39.595077 ], [ 117.436897, 39.637794 ], [ 117.425526, 39.641562 ], [ 117.358923, 39.655376 ], [ 117.300443, 39.677974 ], [ 117.237088, 39.693035 ], [ 117.152616, 39.703074 ], [ 117.107131, 39.723148 ], [ 117.094136, 39.757009 ], [ 117.084389, 39.799625 ], [ 117.090887, 39.864751 ], [ 117.120127, 39.899793 ], [ 117.123376, 39.932316 ], [ 117.11038, 39.962323 ], [ 117.087638, 39.989818 ], [ 117.03728, 39.994816 ], [ 116.980423, 39.964823 ], [ 116.980423, 39.964823 ], [ 116.939812, 39.966073 ], [ 116.908947, 39.98482 ], [ 116.891078, 40.023547 ], [ 116.897576, 40.087211 ], [ 116.897576, 40.087211 ], [ 116.897576, 40.132114 ], [ 116.868335, 40.208131 ], [ 116.830973, 40.260421 ], [ 116.77899, 40.291527 ], [ 116.707514, 40.306453 ], [ 116.647408, 40.311427 ], [ 116.56781, 40.353695 ], [ 116.50608, 40.368607 ], [ 116.441102, 40.359909 ], [ 116.405363, 40.331321 ], [ 116.346883, 40.317645 ], [ 116.275406, 40.320132 ], [ 116.202306, 40.321375 ], [ 116.054165, 40.31542 ], [ 115.97955, 40.32827 ], [ 115.9068, 40.329698 ], [ 115.843377, 40.348255 ], [ 115.835915, 40.382499 ], [ 115.852704, 40.428131 ], [ 115.903069, 40.46091 ], [ 115.960896, 40.482279 ], [ 115.975819, 40.519302 ], [ 115.957165, 40.54919 ], [ 115.921723, 40.587598 ], [ 115.867627, 40.614612 ], [ 115.807934, 40.61319 ], [ 115.738915, 40.59613 ], [ 115.660569, 40.583331 ], [ 115.61953, 40.583331 ], [ 115.587819, 40.591864 ], [ 115.585953, 40.647299 ], [ 115.585953, 40.647299 ], [ 115.6158, 40.69133 ], [ 115.654973, 40.726817 ], [ 115.7128, 40.763704 ], [ 115.76503, 40.793482 ], [ 115.81353, 40.827498 ], [ 115.850838, 40.865744 ], [ 115.869492, 40.91529 ], [ 115.850838, 40.94217 ], [ 115.798607, 40.959142 ], [ 115.733319, 40.939341 ], [ 115.666165, 40.895476 ], [ 115.604607, 40.843082 ], [ 115.565434, 40.796317 ], [ 115.526261, 40.75803 ], [ 115.502011, 40.709786 ], [ 115.447915, 40.665767 ], [ 115.395684, 40.652982 ], [ 115.350915, 40.660085 ], [ 115.281896, 40.68281 ], [ 115.196088, 40.704108 ], [ 115.147588, 40.729655 ], [ 115.115876, 40.767959 ], [ 115.104684, 40.809075 ], [ 115.104684, 40.848748 ], [ 115.071107, 40.891229 ], [ 115.028203, 40.939341 ], [ 114.987165, 40.983177 ], [ 114.955453, 41.024159 ], [ 114.918145, 41.072173 ], [ 114.878972, 41.130026 ], [ 114.847261, 41.19769 ], [ 114.824876, 41.259655 ], [ 114.817415, 41.306089 ], [ 114.809953, 41.359518 ], [ 114.823011, 41.428347 ], [ 114.869645, 41.469048 ], [ 114.908818, 41.50131 ], [ 114.961049, 41.541965 ], [ 115.009549, 41.578393 ], [ 115.078569, 41.605 ], [ 115.130799, 41.6022 ], [ 115.211011, 41.6064 ], [ 115.270703, 41.589597 ], [ 115.343453, 41.550374 ], [ 115.427396, 41.494298 ], [ 115.487088, 41.446596 ], [ 115.550511, 41.404476 ], [ 115.681088, 41.548972 ], [ 115.738915, 41.631596 ], [ 115.794877, 41.711318 ], [ 115.847107, 41.803503 ], [ 115.860165, 41.827226 ], [ 115.503876, 41.838386 ], [ 115.033799, 41.891373 ], [ 114.733472, 41.945708 ], [ 114.379049, 41.995822 ], [ 114.185049, 42.006953 ], [ 113.655279, 42.011127 ], [ 113.483664, 41.999996 ], [ 112.853164, 41.922029 ], [ 112.384952, 41.821645 ], [ 112.105144, 41.733678 ], [ 111.954048, 41.716908 ], [ 111.748855, 41.684755 ], [ 111.582836, 41.674966 ], [ 111.312355, 41.683356 ], [ 108.220326, 42.220065 ], [ 108.236951, 41.767403 ], [ 108.414905, 41.696267 ], [ 108.548852, 41.633026 ], [ 108.608384, 41.577173 ], [ 108.63815, 41.502627 ], [ 108.563735, 41.457858 ], [ 108.400022, 41.450394 ], [ 108.251192, 41.469054 ], [ 108.271036, 41.390646 ], [ 108.34049, 41.319624 ], [ 108.370256, 41.229801 ], [ 108.370256, 41.169849 ], [ 108.380178, 41.091079 ], [ 108.424827, 41.004697 ], [ 108.464788, 40.962284 ], [ 108.548324, 40.926089 ], [ 108.634844, 40.901193 ], [ 108.666773, 40.888469 ], [ 108.686968, 40.8819 ], [ 108.710049, 40.86657 ], [ 108.757653, 40.852332 ], [ 108.802372, 40.851237 ], [ 108.855746, 40.833709 ], [ 108.929316, 40.812888 ], [ 108.985576, 40.821655 ], [ 109.028852, 40.842473 ], [ 109.076456, 40.844664 ], [ 109.12406, 40.8359 ], [ 109.178877, 40.827134 ], [ 109.232251, 40.817272 ], [ 109.272642, 40.795349 ], [ 109.298608, 40.759162 ], [ 109.333229, 40.728441 ], [ 109.382276, 40.716369 ], [ 109.457288, 40.720759 ], [ 109.530858, 40.711978 ], [ 109.598658, 40.696609 ], [ 109.748683, 40.651578 ], [ 109.839563, 40.610914 ], [ 109.952082, 40.577925 ], [ 110.040077, 40.560325 ], [ 110.110762, 40.541619 ], [ 110.158366, 40.495381 ], [ 110.158366, 40.495381 ], [ 110.18289, 40.461233 ], [ 110.236264, 40.457927 ], [ 110.298293, 40.43809 ], [ 110.397829, 40.409427 ], [ 110.454088, 40.375234 ], [ 110.527658, 40.373028 ], [ 110.615654, 40.367511 ], [ 110.65893, 40.336609 ], [ 110.710862, 40.314528 ], [ 110.788759, 40.333297 ], [ 110.853674, 40.313423 ], [ 110.911376, 40.301275 ], [ 110.967635, 40.332193 ], [ 111.028222, 40.326673 ], [ 111.088809, 40.301275 ], [ 111.12343, 40.247134 ], [ 111.173919, 40.15754 ], [ 111.205655, 40.103283 ], [ 111.224408, 40.058959 ], [ 111.259029, 40.005732 ], [ 111.293651, 39.963564 ], [ 111.362893, 39.899152 ], [ 111.422037, 39.868035 ], [ 111.450888, 39.828006 ], [ 111.458101, 39.823557 ], [ 111.504262, 39.825782 ], [ 111.541769, 39.841352 ], [ 111.586488, 39.848024 ], [ 111.638419, 39.84024 ], [ 111.683138, 39.821332 ], [ 111.714874, 39.799082 ], [ 111.752381, 39.780163 ], [ 111.795657, 39.791292 ], [ 111.849031, 39.828006 ], [ 111.883652, 39.87137 ], [ 111.952895, 39.958014 ], [ 111.984631, 40.012387 ], [ 112.026464, 40.064501 ], [ 112.071183, 40.117681 ], [ 112.117345, 40.173034 ], [ 112.150523, 40.212859 ], [ 112.185145, 40.242712 ], [ 112.212553, 40.258187 ], [ 112.235634, 40.262607 ], [ 112.254387, 40.258187 ], [ 112.29045, 40.226129 ], [ 112.265927, 40.17414 ], [ 112.239961, 40.115466 ], [ 112.183702, 40.046765 ], [ 112.151775, 40.008689 ], [ 112.061086, 39.841352 ], [ 112.045218, 39.770145 ], [ 112.026464, 39.7334 ], [ 112.010596, 39.70555 ], [ 111.977418, 39.679918 ], [ 111.97309, 39.656507 ], [ 111.975975, 39.629741 ], [ 111.988958, 39.602964 ], [ 111.991843, 39.539328 ], [ 111.999056, 39.496872 ], [ 112.007711, 39.449916 ], [ 112.04089, 39.424188 ], [ 112.075511, 39.395093 ], [ 112.10869, 39.364866 ], [ 112.153409, 39.332386 ], [ 112.18803, 39.313338 ], [ 112.203898, 39.250557 ], [ 112.226978, 39.197822 ], [ 112.218323, 39.147293 ], [ 112.180817, 39.119206 ], [ 112.088494, 39.085486 ], [ 112.039447, 39.048376 ], [ 111.970205, 39.023624 ], [ 111.889422, 39.028125 ], [ 111.837491, 39.048376 ], [ 111.769691, 39.061872 ], [ 111.742283, 39.093355 ], [ 111.724972, 39.129318 ], [ 111.707662, 39.158525 ], [ 111.675926, 39.184351 ], [ 111.642747, 39.191087 ], [ 111.622551, 39.174246 ], [ 111.600913, 39.128195 ], [ 111.613896, 39.075367 ], [ 111.634092, 39.036001 ], [ 111.657172, 38.980852 ], [ 111.680253, 38.944812 ], [ 111.706219, 38.912136 ], [ 111.724972, 38.868167 ], [ 111.743725, 38.836584 ], [ 111.769691, 38.808372 ], [ 111.804312, 38.806114 ], [ 111.837491, 38.821915 ], [ 111.880767, 38.876061 ], [ 111.916831, 38.91439 ], [ 111.942797, 38.936926 ], [ 111.970205, 38.961708 ], [ 112.010596, 38.986481 ], [ 112.05243, 38.987607 ], [ 112.100034, 38.977474 ], [ 112.10869, 38.941433 ], [ 112.095707, 38.887336 ], [ 112.089936, 38.833199 ], [ 112.065413, 38.783536 ], [ 112.04089, 38.748525 ], [ 112.016367, 38.697673 ], [ 111.999056, 38.661488 ], [ 111.970205, 38.613969 ], [ 111.968763, 38.569815 ], [ 111.96155, 38.522234 ], [ 111.968763, 38.492763 ], [ 111.996171, 38.487094 ], [ 112.038005, 38.5279 ], [ 112.063971, 38.570947 ], [ 112.074068, 38.650177 ], [ 112.088494, 38.699933 ], [ 112.097149, 38.742877 ], [ 112.113017, 38.791439 ], [ 112.134655, 38.841096 ], [ 112.154851, 38.869295 ], [ 112.198127, 38.883954 ], [ 112.252944, 38.882827 ], [ 112.294778, 38.873806 ], [ 112.339497, 38.871551 ], [ 112.404412, 38.844481 ], [ 112.472211, 38.824172 ], [ 112.521258, 38.799341 ], [ 112.583288, 38.774503 ], [ 112.606368, 38.722538 ], [ 112.616466, 38.660357 ], [ 112.616466, 38.660357 ], [ 112.629449, 38.598122 ], [ 112.636662, 38.553958 ], [ 112.643874, 38.509767 ], [ 112.638104, 38.461012 ], [ 112.629449, 38.423573 ], [ 112.610696, 38.416763 ], [ 112.597713, 38.462146 ], [ 112.5905, 38.519968 ], [ 112.570305, 38.55056 ], [ 112.547224, 38.570947 ], [ 112.535683, 38.574345 ], [ 112.529913, 38.57208 ], [ 112.506833, 38.56302 ], [ 112.490965, 38.538098 ], [ 112.476539, 38.485961 ], [ 112.472211, 38.440593 ], [ 112.459228, 38.390655 ], [ 112.450573, 38.363402 ], [ 112.436148, 38.350907 ], [ 112.41451, 38.341819 ], [ 112.407297, 38.363402 ], [ 112.402969, 38.390655 ], [ 112.372676, 38.399738 ], [ 112.339497, 38.392926 ], [ 112.310646, 38.347499 ], [ 112.300548, 38.297497 ], [ 112.289008, 38.250872 ], [ 112.260157, 38.22129 ], [ 112.229864, 38.198526 ], [ 112.203898, 38.195111 ], [ 112.180817, 38.197388 ], [ 112.172162, 38.228118 ], [ 112.146196, 38.242909 ], [ 112.113017, 38.233807 ], [ 112.089936, 38.228118 ], [ 112.071183, 38.214462 ], [ 112.0582, 38.18828 ], [ 112.048103, 38.165506 ], [ 112.007711, 38.143863 ], [ 111.974533, 38.129052 ], [ 111.935584, 38.154116 ], [ 111.913946, 38.195111 ], [ 111.916831, 38.231531 ], [ 111.925486, 38.262247 ], [ 111.931256, 38.29636 ], [ 111.915388, 38.314547 ], [ 111.889422, 38.32023 ], [ 111.850474, 38.308864 ], [ 111.817295, 38.278168 ], [ 111.789887, 38.240634 ], [ 111.766806, 38.233807 ], [ 111.726415, 38.234945 ], [ 111.699006, 38.231531 ], [ 111.678811, 38.228118 ], [ 111.668713, 38.198526 ], [ 111.680253, 38.1712 ], [ 111.696121, 38.141585 ], [ 111.704776, 38.105119 ], [ 111.709104, 38.070915 ], [ 111.710547, 38.036696 ], [ 111.703334, 38.007026 ], [ 111.726415, 37.994469 ], [ 111.779789, 38.009308 ], [ 111.840376, 38.033273 ], [ 111.849031, 38.060651 ], [ 111.880767, 38.077757 ], [ 111.941354, 38.086879 ], [ 111.997613, 38.085739 ], [ 112.0582, 38.093719 ], [ 112.117345, 38.108538 ], [ 112.176489, 38.127912 ], [ 112.176489, 38.127912 ], [ 112.293336, 38.195111 ], [ 112.361135, 38.238358 ], [ 112.417395, 38.274757 ], [ 112.476539, 38.306591 ], [ 112.512603, 38.321366 ], [ 112.537126, 38.337274 ], [ 112.565977, 38.347499 ], [ 112.581845, 38.345227 ], [ 112.5905, 38.331593 ], [ 112.57896, 38.305454 ], [ 112.538569, 38.279306 ], [ 112.528471, 38.25201 ], [ 112.51693, 38.216738 ], [ 112.51693, 38.182587 ], [ 112.518373, 38.143863 ], [ 112.524143, 38.111958 ], [ 112.515488, 38.067494 ], [ 112.488079, 38.034414 ], [ 112.459228, 37.985336 ], [ 112.392871, 37.93851 ], [ 112.356808, 37.891654 ], [ 112.320744, 37.850487 ], [ 112.294778, 37.800141 ], [ 112.277468, 37.753196 ], [ 112.28468, 37.729139 ], [ 112.312089, 37.719973 ], [ 112.348152, 37.719973 ], [ 112.372676, 37.694759 ], [ 112.369791, 37.647747 ], [ 112.355365, 37.632834 ], [ 112.326514, 37.596114 ], [ 112.276025, 37.561671 ], [ 112.228421, 37.550187 ], [ 112.157736, 37.527213 ], [ 112.098592, 37.531808 ], [ 112.032235, 37.514574 ], [ 111.977418, 37.488141 ], [ 111.913946, 37.445597 ], [ 111.883652, 37.408783 ], [ 111.804312, 37.3708 ], [ 111.736513, 37.363892 ], [ 111.6615, 37.375405 ], [ 111.589373, 37.392672 ], [ 111.504262, 37.406482 ], [ 111.442233, 37.40418 ], [ 111.387416, 37.415687 ], [ 111.315289, 37.439846 ], [ 111.256144, 37.472046 ], [ 111.192672, 37.526064 ], [ 111.159494, 37.57545 ], [ 111.142183, 37.619066 ], [ 111.136413, 37.66839 ], [ 111.179689, 37.738305 ], [ 111.18546, 37.78068 ], [ 111.20854, 37.817308 ], [ 111.246047, 37.864212 ], [ 111.251817, 37.89394 ], [ 111.241719, 37.928227 ], [ 111.230179, 37.987619 ], [ 111.254702, 38.032132 ], [ 111.293651, 38.080038 ], [ 111.335484, 38.107398 ], [ 111.383089, 38.129052 ], [ 111.504262, 38.145003 ], [ 111.551867, 38.134749 ], [ 111.596585, 38.167783 ], [ 111.603798, 38.206494 ], [ 111.608126, 38.255422 ], [ 111.58793, 38.283854 ], [ 111.548981, 38.294086 ], [ 111.505705, 38.282717 ], [ 111.469641, 38.244047 ], [ 111.430693, 38.214462 ], [ 111.371548, 38.191695 ], [ 111.316731, 38.164367 ], [ 111.257587, 38.119935 ], [ 111.212868, 38.066354 ], [ 111.182575, 38.009308 ], [ 111.168149, 37.955645 ], [ 111.160936, 37.903085 ], [ 111.153724, 37.86993 ], [ 111.136413, 37.820741 ], [ 111.121988, 37.792128 ], [ 111.088809, 37.724556 ], [ 111.061401, 37.660363 ], [ 111.041205, 37.603 ], [ 111.019567, 37.568561 ], [ 110.97629, 37.545593 ], [ 110.918588, 37.516872 ], [ 110.869542, 37.488141 ], [ 110.845019, 37.465147 ], [ 110.849346, 37.444447 ], [ 110.866657, 37.434095 ], [ 110.899835, 37.445597 ], [ 110.956095, 37.472046 ], [ 111.009469, 37.485841 ], [ 111.048418, 37.482393 ], [ 111.103234, 37.453648 ], [ 111.119102, 37.417989 ], [ 111.130643, 37.378859 ], [ 111.127758, 37.331645 ], [ 111.142183, 37.302842 ], [ 111.192672, 37.302842 ], [ 111.220081, 37.338556 ], [ 111.218638, 37.386917 ], [ 111.225851, 37.416838 ], [ 111.266242, 37.414537 ], [ 111.306634, 37.399577 ], [ 111.360008, 37.375405 ], [ 111.43502, 37.365043 ], [ 111.50282, 37.361589 ], [ 111.557637, 37.345467 ], [ 111.616781, 37.332797 ], [ 111.660058, 37.30169 ], [ 111.681696, 37.263651 ], [ 111.727857, 37.238282 ], [ 111.781231, 37.212904 ], [ 111.823065, 37.201365 ], [ 111.874997, 37.193288 ], [ 111.906733, 37.175975 ], [ 111.89952, 37.150576 ], [ 111.844704, 37.121702 ], [ 111.805755, 37.093974 ], [ 111.742283, 37.053518 ], [ 111.713432, 37.014196 ], [ 111.670155, 36.959807 ], [ 111.639862, 36.900744 ], [ 111.586488, 36.792923 ], [ 111.567735, 36.731408 ], [ 111.556194, 36.67333 ], [ 111.547539, 36.611718 ], [ 111.540326, 36.557039 ], [ 111.541769, 36.487181 ], [ 111.550424, 36.437076 ], [ 111.547539, 36.371774 ], [ 111.551867, 36.312255 ], [ 111.537441, 36.236331 ], [ 111.499935, 36.170859 ], [ 111.449446, 36.108844 ], [ 111.406169, 36.076062 ], [ 111.365778, 36.062008 ], [ 111.336927, 36.001079 ], [ 111.329714, 35.949486 ], [ 111.33837, 35.893164 ], [ 111.313846, 35.82153 ], [ 111.280668, 35.774521 ], [ 111.263357, 35.73807 ], [ 111.251817, 35.678066 ], [ 111.218638, 35.658055 ], [ 111.172477, 35.641571 ], [ 111.124873, 35.639216 ], [ 111.090252, 35.612127 ], [ 111.046975, 35.614483 ], [ 111.009469, 35.630972 ], [ 110.974848, 35.647458 ], [ 110.928686, 35.629794 ], [ 110.873869, 35.595633 ], [ 110.827708, 35.600346 ], [ 110.775776, 35.59799 ], [ 110.736828, 35.608593 ], [ 110.72673, 35.635683 ], [ 110.722402, 35.674535 ], [ 110.705092, 35.696896 ], [ 110.669028, 35.695719 ], [ 110.651717, 35.681597 ], [ 110.618539, 35.653345 ], [ 110.612769, 35.613305 ], [ 110.611326, 35.566172 ], [ 110.627194, 35.5367 ], [ 110.680568, 35.541416 ], [ 110.742598, 35.553206 ], [ 110.780104, 35.544953 ], [ 110.824823, 35.553206 ], [ 110.846623, 35.538104 ], [ 110.866657, 35.490702 ], [ 110.912818, 35.508396 ], [ 110.938784, 35.539058 ], [ 110.97629, 35.552027 ], [ 111.019567, 35.555563 ], [ 111.057073, 35.580315 ], [ 111.109005, 35.58385 ], [ 111.140741, 35.574422 ], [ 111.188345, 35.587385 ], [ 111.225851, 35.589742 ], [ 111.235949, 35.572065 ], [ 111.222966, 35.523729 ], [ 111.160936, 35.439955 ], [ 111.090252, 35.333636 ], [ 111.031107, 35.266228 ], [ 110.992158, 35.223625 ], [ 110.961865, 35.146646 ], [ 110.934456, 35.079081 ], [ 110.88541, 35.048243 ], [ 110.826265, 35.015019 ], [ 110.758466, 34.97822 ], [ 110.693551, 34.973471 ], [ 110.6647, 34.972284 ], [ 110.614211, 34.944968 ], [ 110.563036, 34.940581 ], [ 110.488709, 34.911703 ], [ 110.418025, 34.891499 ], [ 110.350225, 34.883179 ], [ 110.304063, 34.868913 ], [ 110.275213, 34.839184 ], [ 110.268, 34.799926 ], [ 110.291081, 34.754696 ], [ 110.306949, 34.748743 ], [ 110.350225, 34.758268 ], [ 110.405042, 34.790406 ], [ 110.43245, 34.809445 ], [ 110.474284, 34.820152 ], [ 110.550739, 34.8261 ], [ 110.609883, 34.815394 ], [ 110.661815, 34.815394 ], [ 110.716632, 34.830858 ], [ 110.781546, 34.849888 ], [ 110.824823, 34.879612 ], [ 110.88541, 34.897442 ], [ 110.930129, 34.940217 ], [ 110.977733, 34.97822 ], [ 111.025337, 34.997215 ], [ 111.051303, 35.05536 ], [ 111.070056, 35.120575 ], [ 111.094579, 35.182184 ], [ 111.132085, 35.234278 ], [ 111.234506, 35.328907 ], [ 111.289323, 35.379725 ], [ 111.323944, 35.40335 ], [ 111.370106, 35.426968 ], [ 111.401842, 35.456481 ], [ 111.400399, 35.475363 ], [ 111.323944, 35.482443 ], [ 111.334042, 35.526087 ], [ 111.362893, 35.562636 ], [ 111.424922, 35.596811 ], [ 111.479739, 35.625083 ], [ 111.517245, 35.656877 ], [ 111.530228, 35.688658 ], [ 111.512918, 35.718074 ], [ 111.462429, 35.715721 ], [ 111.442233, 35.75571 ], [ 111.479739, 35.81918 ], [ 111.537441, 35.848547 ], [ 111.58793, 35.909595 ], [ 111.636977, 35.975286 ], [ 111.675926, 36.038579 ], [ 111.701891, 36.104162 ], [ 111.706219, 36.182555 ], [ 111.722087, 36.390438 ], [ 111.694679, 36.46388 ], [ 111.700449, 36.503487 ], [ 111.72353, 36.630323 ], [ 111.732185, 36.702374 ], [ 111.750938, 36.795244 ], [ 111.80864, 36.871775 ], [ 111.834606, 36.912329 ], [ 111.88221, 36.954019 ], [ 111.948567, 36.992214 ], [ 111.996171, 37.032703 ], [ 112.04666, 37.072014 ], [ 112.113017, 37.099751 ], [ 112.167834, 37.129788 ], [ 112.229864, 37.158658 ], [ 112.289008, 37.163276 ], [ 112.361135, 37.15404 ], [ 112.413067, 37.137873 ], [ 112.43759, 37.099751 ], [ 112.439033, 37.054674 ], [ 112.463556, 37.018824 ], [ 112.522701, 36.956334 ], [ 112.550109, 36.903062 ], [ 112.563092, 36.845114 ], [ 112.599156, 36.788282 ], [ 112.640989, 36.74418 ], [ 112.661185, 36.702374 ], [ 112.66984, 36.632648 ], [ 112.694364, 36.561694 ], [ 112.73187, 36.524447 ], [ 112.779474, 36.494169 ], [ 112.841503, 36.448731 ], [ 112.913631, 36.423087 ], [ 112.925171, 36.365941 ], [ 112.935269, 36.304082 ], [ 112.956907, 36.266709 ], [ 112.995856, 36.246848 ], [ 113.001626, 36.202433 ], [ 113.001626, 36.136933 ], [ 113.007396, 36.088942 ], [ 113.036247, 36.070206 ], [ 113.082409, 36.076062 ], [ 113.1228, 36.095967 ], [ 113.132898, 36.161502 ], [ 113.121357, 36.248016 ], [ 113.078081, 36.297076 ], [ 113.03769, 36.35194 ], [ 113.023264, 36.399767 ], [ 113.03769, 36.453393 ], [ 113.007396, 36.498828 ], [ 112.95258, 36.530268 ], [ 112.87901, 36.565186 ], [ 112.838618, 36.601251 ], [ 112.80544, 36.653573 ], [ 112.757836, 36.753467 ], [ 112.65253, 36.945914 ], [ 112.633777, 37.011883 ], [ 112.594828, 37.106684 ], [ 112.576075, 37.181746 ], [ 112.576075, 37.181746 ], [ 112.547224, 37.242895 ], [ 112.544339, 37.293622 ], [ 112.522701, 37.325885 ], [ 112.544339, 37.367346 ], [ 112.58473, 37.388068 ], [ 112.638104, 37.434095 ], [ 112.703019, 37.476645 ], [ 112.759278, 37.542147 ], [ 112.883337, 37.640865 ], [ 112.990086, 37.741741 ], [ 113.070868, 37.770374 ], [ 113.151651, 37.80243 ], [ 113.239646, 37.807008 ], [ 113.310331, 37.795562 ], [ 113.424292, 37.788694 ], [ 113.500747, 37.777245 ], [ 113.552679, 37.753196 ], [ 113.59307, 37.713097 ], [ 113.616151, 37.67183 ], [ 113.594513, 37.640865 ], [ 113.548351, 37.637423 ], [ 113.456028, 37.63857 ], [ 113.405539, 37.629393 ], [ 113.401212, 37.591522 ], [ 113.411309, 37.560523 ], [ 113.474781, 37.552484 ], [ 113.554122, 37.543295 ], [ 113.58153, 37.485841 ], [ 113.559892, 37.436395 ], [ 113.525271, 37.382312 ], [ 113.516615, 37.350074 ], [ 113.512288, 37.320125 ], [ 113.520943, 37.28786 ], [ 113.551236, 37.279791 ], [ 113.59307, 37.308603 ], [ 113.642117, 37.385765 ], [ 113.675295, 37.465147 ], [ 113.694049, 37.520319 ], [ 113.731555, 37.559374 ], [ 113.756078, 37.567413 ], [ 113.829648, 37.574302 ], [ 113.89312, 37.567413 ], [ 113.936396, 37.57545 ], [ 113.949379, 37.59267 ], [ 113.940724, 37.616771 ], [ 113.891678, 37.628245 ], [ 113.829648, 37.632834 ], [ 113.783486, 37.67183 ], [ 113.747423, 37.737159 ], [ 113.727227, 37.779535 ], [ 113.732997, 37.80243 ], [ 113.774831, 37.810442 ], [ 113.826763, 37.813875 ], [ 113.838303, 37.758923 ], [ 113.848401, 37.734868 ], [ 113.864269, 37.731431 ], [ 113.875809, 37.757777 ], [ 113.888792, 37.790983 ], [ 113.924856, 37.817308 ], [ 113.97246, 37.816164 ], [ 114.018622, 37.825318 ], [ 114.050358, 37.850487 ], [ 114.100847, 37.858494 ], [ 114.158549, 37.861925 ], [ 114.185957, 37.841336 ], [ 114.239331, 37.794417 ], [ 114.27251, 37.753196 ], [ 114.294148, 37.697052 ], [ 114.318671, 37.623656 ], [ 114.350407, 37.563968 ], [ 114.369161, 37.516872 ], [ 114.389356, 37.426042 ], [ 114.398011, 37.375405 ], [ 114.410994, 37.329341 ], [ 114.409552, 37.274027 ], [ 114.393684, 37.230208 ], [ 114.377816, 37.180592 ], [ 114.364833, 37.136718 ], [ 114.350797, 37.068704 ], [ 114.35185, 37.007255 ], [ 114.353292, 36.954019 ], [ 114.35762, 36.897269 ], [ 114.364833, 36.801044 ], [ 114.369161, 36.747662 ], [ 114.373488, 36.693081 ], [ 114.367718, 36.647761 ], [ 114.353292, 36.607066 ], [ 114.310016, 36.545401 ], [ 114.275395, 36.479026 ], [ 114.240774, 36.43591 ], [ 114.214808, 36.383439 ], [ 114.206153, 36.325096 ], [ 114.19894, 36.260868 ], [ 114.181629, 36.157992 ], [ 114.170089, 36.087772 ], [ 114.144123, 35.989356 ], [ 114.115272, 35.908422 ], [ 114.064783, 35.80743 ], [ 114.018622, 35.766292 ], [ 113.962381, 35.681086 ], [ 113.672444, 35.556097 ], [ 113.263382, 35.41144 ], [ 113.086564, 35.350552 ], [ 112.91414, 35.297685 ], [ 112.821308, 35.268594 ], [ 112.714559, 35.236645 ], [ 112.604926, 35.198763 ], [ 112.550109, 35.176262 ], [ 112.495292, 35.15257 ], [ 112.473654, 35.132426 ], [ 112.459228, 35.10398 ], [ 112.473654, 35.079081 ], [ 112.531356, 35.073151 ], [ 112.597713, 35.076709 ], [ 112.65253, 35.067221 ], [ 112.66984, 35.036379 ], [ 112.671283, 34.984157 ], [ 112.674168, 34.955658 ], [ 112.730427, 34.955658 ], [ 112.792457, 34.955658 ], [ 112.848716, 34.971096 ], [ 112.903533, 34.979408 ], [ 112.949694, 34.979408 ], [ 112.987201, 34.975846 ], [ 113.014609, 34.985344 ], [ 113.013166, 35.023326 ], [ 112.977103, 35.057732 ], [ 112.946809, 35.106351 ], [ 112.95258, 35.135981 ], [ 112.979988, 35.162047 ], [ 113.027592, 35.176262 ], [ 113.073753, 35.180999 ], [ 113.108375, 35.158493 ], [ 113.145881, 35.137166 ], [ 113.215123, 35.144276 ], [ 113.297348, 35.154939 ], [ 113.383901, 35.180999 ], [ 113.467569, 35.196394 ], [ 113.567104, 35.230727 ], [ 113.678181, 35.224809 ], [ 113.738768, 35.21889 ], [ 113.761848, 35.190474 ], [ 113.748865, 35.147831 ], [ 113.708474, 35.113463 ], [ 113.662313, 35.061291 ], [ 113.659427, 35.024513 ], [ 113.676738, 34.998403 ], [ 113.738768, 34.975846 ], [ 113.833976, 34.936653 ], [ 113.910431, 34.893876 ], [ 113.973903, 34.849888 ], [ 114.018622, 34.804686 ], [ 114.069111, 34.753506 ], [ 114.100847, 34.714206 ], [ 114.148451, 34.707059 ], [ 114.190285, 34.691571 ], [ 114.240774, 34.651049 ], [ 114.262412, 34.603352 ], [ 114.269625, 34.500708 ], [ 114.294148, 34.452924 ], [ 114.34031, 34.432607 ], [ 114.413879, 34.409894 ], [ 114.49322, 34.382391 ], [ 114.634589, 34.253124 ], [ 114.696619, 34.188416 ], [ 114.745665, 34.115259 ], [ 114.843758, 33.984377 ], [ 114.853856, 33.920663 ], [ 114.852414, 33.861716 ], [ 114.874052, 33.817177 ], [ 114.898575, 33.800318 ], [ 114.937524, 33.799114 ], [ 114.986571, 33.844866 ], [ 115.061583, 33.900217 ], [ 115.125055, 33.926676 ], [ 115.236131, 33.936296 ], [ 115.315471, 33.918258 ], [ 115.407794, 33.88939 ], [ 115.497232, 33.886984 ], [ 115.485162, 33.96021 ], [ 115.514689, 34.002027 ], [ 115.535358, 34.078228 ], [ 115.553075, 34.127353 ], [ 115.64461, 34.14454 ], [ 115.77453, 34.151905 ], [ 115.864896, 34.140602 ], [ 115.917874, 34.086959 ], [ 115.970851, 34.039035 ], [ 116.039952, 34.002594 ], [ 116.113659, 33.998757 ], [ 116.164333, 33.996838 ], [ 116.279501, 34.00643 ], [ 116.383152, 34.010267 ], [ 116.45686, 34.017939 ], [ 116.447646, 34.102289 ], [ 116.486804, 34.155922 ], [ 116.4845, 34.217175 ], [ 116.433826, 34.245872 ], [ 116.327872, 34.257348 ], [ 116.231131, 34.264998 ], [ 116.104446, 34.29559 ], [ 116.026132, 34.347189 ], [ 115.986974, 34.38348 ], [ 115.975458, 34.476999 ], [ 116.030738, 34.539922 ], [ 116.095232, 34.614223 ], [ 116.086019, 34.644687 ], [ 116.074502, 34.699873 ], [ 116.014615, 34.713188 ], [ 115.89484, 34.716992 ], [ 115.743584, 34.703473 ], [ 115.595403, 34.684653 ], [ 115.468718, 34.640879 ], [ 115.369674, 34.619936 ], [ 115.302877, 34.658011 ], [ 115.215349, 34.696068 ], [ 115.164675, 34.745516 ], [ 115.100181, 34.82533 ], [ 115.061024, 34.876598 ], [ 115.047204, 34.946801 ], [ 115.0449, 34.990411 ], [ 114.987316, 35.018839 ], [ 114.915912, 35.049152 ], [ 114.842205, 35.104065 ], [ 114.826081, 35.179745 ], [ 114.837598, 35.230789 ], [ 114.98962, 35.359201 ], [ 115.086361, 35.445952 ], [ 115.173888, 35.589072 ], [ 115.201529, 35.671814 ], [ 115.178495, 35.760101 ], [ 115.104788, 35.775119 ], [ 115.01035, 35.79201 ], [ 114.925126, 35.761978 ], [ 114.844508, 35.743202 ], [ 114.7708, 35.724422 ], [ 114.690183, 35.71503 ], [ 114.623385, 35.716909 ], [ 114.579622, 35.758223 ], [ 114.561195, 35.83141 ], [ 114.572711, 36.007529 ], [ 114.584228, 36.101047 ], [ 114.591138, 36.198188 ], [ 114.595745, 36.304529 ], [ 114.588835, 36.393967 ], [ 114.586532, 36.509337 ], [ 114.602655, 36.628247 ], [ 114.634902, 36.722871 ], [ 114.731643, 36.93026 ], [ 114.837598, 37.137082 ], [ 114.927429, 37.289985 ], [ 114.978103, 37.400323 ], [ 114.975799, 37.468283 ], [ 114.943552, 37.506827 ], [ 114.881362, 37.52334 ], [ 114.821474, 37.547185 ], [ 114.800744, 37.629667 ], [ 114.786924, 37.723036 ], [ 114.809958, 37.792527 ], [ 114.844508, 37.825421 ], [ 114.865238, 37.827248 ], [ 114.920519, 37.81994 ], [ 114.99653, 37.772418 ], [ 115.040294, 37.675451 ], [ 115.03799, 37.591187 ], [ 115.06563, 37.530678 ], [ 115.134731, 37.484804 ], [ 115.245293, 37.501322 ], [ 115.302877, 37.512332 ], [ 115.420348, 37.516001 ], [ 115.503269, 37.525174 ], [ 115.528606, 37.567356 ], [ 115.512482, 37.605849 ], [ 115.429561, 37.616843 ], [ 115.314393, 37.618675 ], [ 115.245293, 37.616843 ], [ 115.183102, 37.600351 ], [ 115.139338, 37.638826 ], [ 115.148551, 37.695587 ], [ 115.217652, 37.717547 ], [ 115.286753, 37.741329 ], [ 115.385797, 37.723036 ], [ 115.471022, 37.706567 ], [ 115.526302, 37.686435 ], [ 115.581583, 37.662634 ], [ 115.611527, 37.616843 ], [ 115.62074, 37.560022 ], [ 115.609223, 37.506827 ], [ 115.616133, 37.477462 ], [ 115.650684, 37.462775 ], [ 115.692144, 37.488475 ], [ 115.687538, 37.571023 ], [ 115.703661, 37.620507 ], [ 115.781975, 37.627835 ], [ 115.87411, 37.604016 ], [ 115.986974, 37.571023 ], [ 116.060682, 37.556354 ], [ 116.132086, 37.528843 ], [ 116.145906, 37.475626 ], [ 116.065289, 37.457267 ], [ 115.927087, 37.435229 ], [ 115.857986, 37.398485 ], [ 115.805009, 37.330461 ], [ 115.758942, 37.256852 ], [ 115.738212, 37.210809 ], [ 115.756638, 37.126017 ], [ 115.798099, 37.089121 ], [ 115.89484, 37.081739 ], [ 115.91557, 37.039282 ], [ 115.88793, 36.993105 ], [ 115.920177, 36.965386 ], [ 116.012311, 36.945052 ], [ 116.067592, 36.913616 ], [ 116.127479, 36.869213 ], [ 116.187367, 36.826636 ], [ 116.277198, 36.809969 ], [ 116.325568, 36.832191 ], [ 116.327872, 36.893268 ], [ 116.251861, 36.902518 ], [ 116.164333, 36.915465 ], [ 116.092929, 36.941354 ], [ 116.060682, 36.974627 ], [ 116.046862, 37.039282 ], [ 116.058379, 37.065128 ], [ 116.115963, 37.098346 ], [ 116.228827, 37.122328 ], [ 116.286411, 37.102036 ], [ 116.355512, 37.074357 ], [ 116.42922, 37.026355 ], [ 116.486804, 36.985715 ], [ 116.558208, 36.919164 ], [ 116.595061, 36.841448 ], [ 116.629612, 36.771065 ], [ 116.657252, 36.665368 ], [ 116.657252, 36.576246 ], [ 116.645735, 36.511196 ], [ 116.629612, 36.460977 ], [ 116.565118, 36.37348 ], [ 116.468377, 36.323171 ], [ 116.360119, 36.256041 ], [ 116.297928, 36.19072 ], [ 116.249557, 36.102917 ], [ 116.263378, 36.003785 ], [ 116.258771, 35.86704 ], [ 116.235737, 35.801393 ], [ 116.069895, 35.743202 ], [ 115.950121, 35.694364 ], [ 115.871806, 35.617289 ], [ 115.834953, 35.534491 ], [ 115.788885, 35.489292 ], [ 115.715178, 35.494943 ], [ 115.696751, 35.530725 ], [ 115.687538, 35.596598 ], [ 115.685234, 35.613527 ], [ 115.64147, 35.647376 ], [ 115.60692, 35.617289 ], [ 115.602313, 35.583428 ], [ 115.604617, 35.506244 ], [ 115.5931, 35.419559 ], [ 115.56546, 35.370522 ], [ 115.505572, 35.329005 ], [ 115.438775, 35.295021 ], [ 115.392708, 35.242128 ], [ 115.392708, 35.200545 ], [ 115.420348, 35.175963 ], [ 115.459505, 35.151373 ], [ 115.489449, 35.087027 ], [ 115.482539, 35.015049 ], [ 115.484842, 34.956284 ], [ 115.487145, 34.89368 ], [ 115.489449, 34.82533 ], [ 115.503269, 34.804434 ], [ 115.540123, 34.802534 ], [ 115.609223, 34.844322 ], [ 115.625347, 34.956284 ], [ 115.616133, 35.056728 ], [ 115.581583, 35.132453 ], [ 115.556246, 35.192982 ], [ 115.576976, 35.295021 ], [ 115.623044, 35.361088 ], [ 115.648381, 35.379955 ], [ 115.696751, 35.410132 ], [ 115.798099, 35.451606 ], [ 115.897143, 35.425216 ], [ 116.035345, 35.338443 ], [ 116.122873, 35.270468 ], [ 116.150513, 35.194873 ], [ 116.173547, 35.136237 ], [ 116.134389, 35.096493 ], [ 116.056075, 35.064304 ], [ 115.954727, 35.064304 ], [ 115.87411, 35.035891 ], [ 115.830346, 34.971453 ], [ 115.890233, 34.954387 ], [ 115.998491, 34.984724 ], [ 116.106749, 35.016944 ], [ 116.180457, 35.03968 ], [ 116.219614, 35.047258 ], [ 116.219614, 35.047258 ], [ 116.231131, 34.999888 ], [ 116.152816, 34.952491 ], [ 116.111356, 34.91645 ], [ 116.060682, 34.891782 ], [ 116.044558, 34.865207 ], [ 116.046862, 34.836725 ], [ 116.118266, 34.834826 ], [ 116.2104, 34.869004 ], [ 116.348602, 34.952491 ], [ 116.454556, 35.054834 ], [ 116.542084, 35.126776 ], [ 116.641129, 35.175963 ], [ 116.77242, 35.191091 ], [ 116.871465, 35.13813 ], [ 116.931352, 35.064304 ], [ 116.982026, 34.988515 ], [ 117.035003, 34.903168 ], [ 117.08107, 34.810133 ], [ 117.131744, 34.701775 ], [ 117.168598, 34.616128 ], [ 117.205452, 34.549451 ], [ 117.274553, 34.454106 ], [ 117.29989, 34.391118 ], [ 117.346332, 34.393029 ], [ 117.386967, 34.431083 ], [ 117.367198, 34.495373 ], [ 117.356216, 34.571371 ], [ 117.371591, 34.606631 ], [ 117.400146, 34.596688 ], [ 117.4287, 34.590359 ], [ 117.444076, 34.542427 ], [ 117.469335, 34.476363 ], [ 117.550956, 34.467461 ], [ 117.620057, 34.476999 ], [ 117.654607, 34.54564 ], [ 117.677641, 34.598987 ], [ 117.659214, 34.686555 ], [ 117.550956, 34.781632 ], [ 117.447305, 34.92973 ], [ 117.283766, 35.009364 ], [ 117.205452, 35.079453 ], [ 117.138654, 35.170289 ], [ 117.092587, 35.289356 ], [ 117.071857, 35.412017 ], [ 117.064947, 35.494943 ], [ 117.08107, 35.558963 ], [ 117.143261, 35.589072 ], [ 117.223879, 35.589072 ], [ 117.329833, 35.568373 ], [ 117.445001, 35.506244 ], [ 117.537136, 35.444067 ], [ 117.682247, 35.345992 ], [ 117.811235, 35.26669 ], [ 117.912583, 35.240238 ], [ 118.009324, 35.204326 ], [ 118.152133, 35.147589 ], [ 118.258087, 35.069985 ], [ 118.343312, 35.032102 ], [ 118.398592, 35.041575 ], [ 118.410109, 35.051046 ], [ 118.407806, 35.100279 ], [ 118.364042, 35.153265 ], [ 118.214323, 35.213778 ], [ 117.972471, 35.32523 ], [ 117.804325, 35.400702 ], [ 117.65, 35.485524 ], [ 117.514102, 35.581546 ], [ 117.426574, 35.630454 ], [ 117.34826, 35.690606 ], [ 117.316013, 35.733813 ], [ 117.32062, 35.782626 ], [ 117.35517, 35.814527 ], [ 117.417361, 35.833286 ], [ 117.481855, 35.848289 ], [ 117.573989, 35.85204 ], [ 117.677641, 35.857665 ], [ 117.728315, 35.859541 ], [ 117.739831, 35.887661 ], [ 117.726011, 35.923266 ], [ 117.677641, 35.943872 ], [ 117.580899, 35.941999 ], [ 117.481855, 35.956982 ], [ 117.403541, 35.966345 ], [ 117.345957, 35.992555 ], [ 117.34826, 36.048691 ], [ 117.398934, 36.078613 ], [ 117.424271, 36.086092 ], [ 117.495675, 36.097309 ], [ 117.61545, 36.102917 ], [ 117.700674, 36.129081 ], [ 117.732921, 36.179516 ], [ 117.693764, 36.222454 ], [ 117.603933, 36.226187 ], [ 117.424271, 36.205655 ], [ 117.288373, 36.216855 ], [ 117.157081, 36.239249 ], [ 117.094891, 36.272829 ], [ 117.030396, 36.326899 ], [ 117.009666, 36.446091 ], [ 117.04652, 36.539082 ], [ 117.207755, 36.594822 ], [ 117.371294, 36.602251 ], [ 117.516405, 36.539082 ], [ 117.65, 36.436786 ], [ 117.760562, 36.393967 ], [ 117.864213, 36.401415 ], [ 117.93101, 36.487021 ], [ 118.011628, 36.570673 ], [ 118.110672, 36.613393 ], [ 118.223537, 36.607822 ], [ 118.343312, 36.55395 ], [ 118.421626, 36.481441 ], [ 118.495333, 36.447952 ], [ 118.564434, 36.481441 ], [ 118.642748, 36.579962 ], [ 118.833927, 36.611536 ], [ 119.04123, 36.605965 ], [ 119.211678, 36.563241 ], [ 119.333756, 36.518633 ], [ 119.485778, 36.447952 ], [ 119.591733, 36.362303 ], [ 119.674654, 36.300801 ], [ 119.773698, 36.269098 ], [ 119.907293, 36.250444 ], [ 120.006337, 36.22432 ], [ 120.052405, 36.172047 ], [ 120.061618, 36.033725 ], [ 120.089258, 35.940126 ], [ 120.085693, 35.887363 ], [ 120.118469, 35.914864 ], [ 120.137085, 35.909031 ], [ 120.132362, 35.922089 ], [ 120.152359, 35.908474 ], [ 120.179588, 35.947922 ], [ 120.208473, 35.950424 ], [ 120.209297, 35.935699 ], [ 120.190414, 35.933197 ], [ 120.164581, 35.891529 ], [ 120.195137, 35.897644 ], [ 120.195969, 35.917088 ], [ 120.241531, 35.946533 ], [ 120.250694, 35.965977 ], [ 120.297638, 35.969315 ], [ 120.309303, 36.004314 ], [ 120.289581, 36.016533 ], [ 120.273193, 36.004864 ], [ 120.282913, 35.982365 ], [ 120.261528, 35.991249 ], [ 120.260696, 35.980141 ], [ 120.233192, 35.966255 ], [ 120.249306, 36.008476 ], [ 120.178467, 35.975426 ], [ 120.17292, 36.024033 ], [ 120.185143, 36.014313 ], [ 120.21125, 36.022644 ], [ 120.215698, 36.014034 ], [ 120.236252, 36.027641 ], [ 120.222359, 36.032642 ], [ 120.221527, 36.046253 ], [ 120.243752, 36.051815 ], [ 120.222641, 36.062088 ], [ 120.194031, 36.023193 ], [ 120.191528, 36.032364 ], [ 120.169861, 36.030693 ], [ 120.183472, 36.045975 ], [ 120.174858, 36.055153 ], [ 120.195137, 36.062363 ], [ 120.174583, 36.06292 ], [ 120.147087, 36.088474 ], [ 120.104576, 36.10125 ], [ 120.11097, 36.112919 ], [ 120.096802, 36.125973 ], [ 120.12986, 36.172916 ], [ 120.113197, 36.19014 ], [ 120.148193, 36.182079 ], [ 120.169586, 36.204861 ], [ 120.21875, 36.220695 ], [ 120.219864, 36.194305 ], [ 120.260139, 36.200142 ], [ 120.256531, 36.18375 ], [ 120.27375, 36.187649 ], [ 120.277641, 36.178749 ], [ 120.307083, 36.189301 ], [ 120.281525, 36.206806 ], [ 120.290413, 36.23431 ], [ 120.322083, 36.238194 ], [ 120.33847, 36.225693 ], [ 120.335983, 36.21431 ], [ 120.36042, 36.205139 ], [ 120.365135, 36.171249 ], [ 120.328751, 36.132084 ], [ 120.332077, 36.122921 ], [ 120.308197, 36.089863 ], [ 120.326805, 36.094582 ], [ 120.285973, 36.06097 ], [ 120.282356, 36.043751 ], [ 120.31514, 36.062084 ], [ 120.32402, 36.051811 ], [ 120.337357, 36.056252 ], [ 120.337082, 36.043468 ], [ 120.352081, 36.051811 ], [ 120.36042, 36.042641 ], [ 120.363747, 36.055149 ], [ 120.381531, 36.061531 ], [ 120.388466, 36.05069 ], [ 120.422638, 36.056805 ], [ 120.465706, 36.092922 ], [ 120.544861, 36.09486 ], [ 120.538193, 36.114029 ], [ 120.565697, 36.1082 ], [ 120.577637, 36.126804 ], [ 120.577637, 36.126804 ], [ 120.563751, 36.19072 ], [ 120.54993, 36.285884 ], [ 120.545324, 36.369754 ], [ 120.49465, 36.429341 ], [ 120.434762, 36.436786 ], [ 120.335718, 36.446091 ], [ 120.172179, 36.449813 ], [ 120.006337, 36.453534 ], [ 119.861226, 36.47214 ], [ 119.716114, 36.514915 ], [ 119.543362, 36.591107 ], [ 119.303813, 36.693197 ], [ 119.167914, 36.721016 ], [ 119.022803, 36.748825 ], [ 118.889208, 36.743264 ], [ 118.539097, 36.752532 ], [ 118.449266, 36.802561 ], [ 118.368649, 36.813673 ], [ 118.278818, 36.804413 ], [ 118.136009, 36.811821 ], [ 117.993201, 36.824785 ], [ 117.90337, 36.859959 ], [ 117.850393, 36.874765 ], [ 117.767472, 36.86181 ], [ 117.705281, 36.895118 ], [ 117.64309, 36.896968 ], [ 117.59472, 36.852556 ], [ 117.557866, 36.808117 ], [ 117.493372, 36.813673 ], [ 117.398934, 36.874765 ], [ 117.33444, 36.965386 ], [ 117.258429, 37.035589 ], [ 117.198542, 37.129705 ], [ 117.175508, 37.218178 ], [ 117.193935, 37.293666 ], [ 117.249216, 37.332301 ], [ 117.336743, 37.367239 ], [ 117.415058, 37.361723 ], [ 117.458821, 37.310226 ], [ 117.518709, 37.19607 ], [ 117.539439, 37.126017 ], [ 117.599326, 37.096501 ], [ 117.652304, 37.126017 ], [ 117.64309, 37.19607 ], [ 117.576293, 37.264216 ], [ 117.548652, 37.319425 ], [ 117.539439, 37.39481 ], [ 117.567079, 37.426045 ], [ 117.624663, 37.449921 ], [ 117.719101, 37.45543 ], [ 117.829662, 37.462775 ], [ 117.921797, 37.438902 ], [ 117.958651, 37.387459 ], [ 117.9241, 37.330461 ], [ 117.912583, 37.273421 ], [ 117.949437, 37.249487 ], [ 118.000111, 37.269739 ], [ 118.039268, 37.326783 ], [ 118.069212, 37.378268 ], [ 118.073827, 37.415696 ] ], [ [ 111.58664, 40.978664 ], [ 111.613343, 40.938178 ], [ 111.565278, 40.893614 ], [ 111.469147, 40.82874 ], [ 111.324952, 40.780043 ], [ 111.073945, 40.75568 ], [ 110.780213, 40.727246 ], [ 110.56659, 40.686605 ], [ 110.28888, 40.678474 ], [ 110.000489, 40.735371 ], [ 109.744141, 40.861185 ], [ 109.615968, 40.930078 ], [ 109.471772, 41.099973 ], [ 109.354279, 41.301653 ], [ 109.338258, 41.48263 ], [ 109.407685, 41.562901 ], [ 109.482453, 41.623038 ], [ 109.610627, 41.635059 ], [ 109.792207, 41.550866 ], [ 110.000489, 41.402258 ], [ 110.144685, 41.309707 ], [ 110.417054, 41.217024 ], [ 110.860322, 41.108052 ], [ 111.180756, 41.055519 ], [ 111.40506, 41.027215 ], [ 111.58664, 40.978664 ] ], [ [ 112.926066, 41.234024 ], [ 112.914523, 41.155557 ], [ 112.845269, 41.107559 ], [ 112.724074, 41.098828 ], [ 112.550938, 41.111924 ], [ 112.435514, 41.177363 ], [ 112.377802, 41.255803 ], [ 112.291235, 41.268867 ], [ 112.285463, 41.316747 ], [ 112.406658, 41.360242 ], [ 112.498997, 41.360242 ], [ 112.527853, 41.321097 ], [ 112.533625, 41.260158 ], [ 112.602879, 41.207879 ], [ 112.65482, 41.186083 ], [ 112.70676, 41.234024 ], [ 112.833727, 41.251448 ], [ 112.926066, 41.234024 ] ], [ [ 112.481684, 40.82321 ], [ 112.486724, 40.808044 ], [ 112.481575, 40.764996 ], [ 112.409493, 40.714086 ], [ 112.409493, 40.651372 ], [ 112.409493, 40.5886 ], [ 112.316816, 40.557191 ], [ 112.244733, 40.639607 ], [ 112.193246, 40.714086 ], [ 112.21899, 40.768911 ], [ 112.360489, 40.82321 ], [ 112.360489, 40.82321 ], [ 112.481684, 40.82321 ] ], [ [ 113.748166, 41.415508 ], [ 113.840843, 41.465875 ], [ 113.959264, 41.458128 ], [ 114.031346, 41.407756 ], [ 114.108577, 41.353465 ], [ 114.108577, 41.256403 ], [ 114.036495, 41.194207 ], [ 113.985008, 41.147521 ], [ 113.820248, 40.933114 ], [ 113.954115, 40.839334 ], [ 113.990156, 40.74542 ], [ 113.918074, 40.702331 ], [ 113.820248, 40.710168 ], [ 113.763612, 40.780653 ], [ 113.676083, 40.874517 ], [ 113.588555, 40.948731 ], [ 113.562811, 41.034558 ], [ 113.614298, 41.159195 ], [ 113.691529, 41.283595 ], [ 113.748166, 41.415508 ] ], [ [ 112.644778, 40.339368 ], [ 112.680593, 40.31744 ], [ 112.716407, 40.292762 ], [ 112.784454, 40.281792 ], [ 112.866828, 40.320181 ], [ 112.949201, 40.364028 ], [ 113.074551, 40.377725 ], [ 113.110366, 40.358549 ], [ 113.106784, 40.284534 ], [ 113.0459, 40.226911 ], [ 112.952782, 40.204946 ], [ 112.899061, 40.163743 ], [ 112.827432, 40.122515 ], [ 112.712826, 40.133511 ], [ 112.544498, 40.196708 ], [ 112.540916, 40.259845 ], [ 112.573149, 40.314698 ], [ 112.644778, 40.339368 ] ], [ [ 114.972716, 40.204946 ], [ 115.019275, 40.210438 ], [ 115.019275, 40.210438 ], [ 115.098066, 40.224166 ], [ 115.126718, 40.169238 ], [ 115.051508, 40.141758 ], [ 114.926157, 40.125264 ], [ 114.822295, 40.111516 ], [ 114.790062, 40.144506 ], [ 114.818714, 40.180227 ], [ 114.890343, 40.2022 ], [ 114.972716, 40.204946 ] ], [ [ 114.650815, 35.600311 ], [ 114.678406, 35.61721 ], [ 114.726689, 35.61721 ], [ 114.764626, 35.560867 ], [ 114.771524, 35.510125 ], [ 114.712894, 35.377478 ], [ 114.640468, 35.284211 ], [ 114.57839, 35.238952 ], [ 114.499066, 35.224803 ], [ 114.461129, 35.258756 ], [ 114.464578, 35.335097 ], [ 114.537004, 35.422659 ], [ 114.599083, 35.521404 ], [ 114.650815, 35.600311 ] ], [ [ 114.633179, 34.717606 ], [ 114.652224, 34.717606 ], [ 114.731125, 34.717606 ], [ 114.801864, 34.719853 ], [ 114.815467, 34.672663 ], [ 114.755611, 34.652431 ], [ 114.657665, 34.6142 ], [ 114.551557, 34.584954 ], [ 114.513467, 34.620948 ], [ 114.532512, 34.681654 ], [ 114.633179, 34.717606 ] ], [ [ 114.845395, 34.472369 ], [ 114.845395, 34.465609 ], [ 114.929738, 34.490393 ], [ 114.997756, 34.474622 ], [ 115.008639, 34.418273 ], [ 114.951503, 34.361886 ], [ 114.869882, 34.330293 ], [ 114.831792, 34.291914 ], [ 114.752891, 34.280622 ], [ 114.717521, 34.285139 ], [ 114.714801, 34.361886 ], [ 114.752891, 34.418273 ], [ 114.845395, 34.472369 ] ], [ [ 116.698517, 36.166217 ], [ 116.708888, 36.157807 ], [ 116.745187, 36.166217 ], [ 116.815192, 36.180932 ], [ 116.867047, 36.151499 ], [ 116.895568, 36.130469 ], [ 116.924088, 36.052607 ], [ 116.94483, 35.96202 ], [ 116.908532, 35.858666 ], [ 116.85149, 35.801658 ], [ 116.760743, 35.767856 ], [ 116.646661, 35.761516 ], [ 116.54295, 35.797433 ], [ 116.457388, 35.831223 ], [ 116.405533, 35.869219 ], [ 116.374419, 35.932505 ], [ 116.374419, 36.018912 ], [ 116.400347, 36.088391 ], [ 116.452203, 36.15991 ], [ 116.511837, 36.212455 ], [ 116.579249, 36.212455 ], [ 116.638883, 36.201949 ], [ 116.698517, 36.166217 ] ], [ [ 116.631692, 39.501673 ], [ 116.635845, 39.434071 ], [ 116.664918, 39.363179 ], [ 116.673225, 39.321254 ], [ 116.718911, 39.295442 ], [ 116.747984, 39.276076 ], [ 116.739677, 39.221178 ], [ 116.698144, 39.185632 ], [ 116.639998, 39.146834 ], [ 116.631692, 39.098306 ], [ 116.669071, 39.078886 ], [ 116.735524, 39.108014 ], [ 116.81859, 39.133897 ], [ 116.864276, 39.133897 ], [ 116.851816, 39.069173 ], [ 116.839356, 39.010872 ], [ 116.814436, 38.959007 ], [ 116.814436, 38.890876 ], [ 116.80613, 38.799933 ], [ 116.797823, 38.721889 ], [ 116.739677, 38.640501 ], [ 116.689838, 38.581844 ], [ 116.731371, 38.532926 ], [ 116.731371, 38.451322 ], [ 116.714757, 38.382702 ], [ 116.656612, 38.320561 ], [ 116.610925, 38.287834 ], [ 116.548626, 38.251817 ], [ 116.49048, 38.205951 ], [ 116.407415, 38.235439 ], [ 116.332656, 38.192841 ], [ 116.23713, 38.186285 ], [ 116.203904, 38.235439 ], [ 116.137451, 38.248542 ], [ 116.017006, 38.209228 ], [ 115.904867, 38.183006 ], [ 115.855028, 38.238715 ], [ 115.788576, 38.235439 ], [ 115.684743, 38.232163 ], [ 115.597525, 38.199396 ], [ 115.477079, 38.192841 ], [ 115.38986, 38.186285 ], [ 115.306795, 38.166613 ], [ 115.240342, 38.179728 ], [ 115.194656, 38.219058 ], [ 115.115744, 38.225611 ], [ 115.070058, 38.192841 ], [ 115.049291, 38.127255 ], [ 115.007758, 38.117412 ], [ 114.995299, 38.163334 ], [ 114.999452, 38.248542 ], [ 115.024372, 38.294381 ], [ 115.090824, 38.363085 ], [ 115.194656, 38.438257 ], [ 115.310948, 38.490504 ], [ 115.431393, 38.526401 ], [ 115.522765, 38.581844 ], [ 115.639057, 38.660042 ], [ 115.73043, 38.78043 ], [ 115.801035, 38.832426 ], [ 115.884101, 38.923328 ], [ 115.98378, 38.959007 ], [ 116.075152, 38.991427 ], [ 116.149911, 39.00115 ], [ 116.174831, 39.065936 ], [ 116.187291, 39.117721 ], [ 116.220517, 39.120957 ], [ 116.24959, 39.088597 ], [ 116.299429, 39.120957 ], [ 116.340962, 39.205023 ], [ 116.394955, 39.308349 ], [ 116.428181, 39.398634 ], [ 116.440641, 39.501673 ], [ 116.498787, 39.533841 ], [ 116.573546, 39.533841 ], [ 116.631692, 39.501673 ] ], [ [ 114.387159, 39.691004 ], [ 114.459964, 39.691004 ], [ 114.53277, 39.670547 ], [ 114.612193, 39.711454 ], [ 114.665143, 39.691004 ], [ 114.724711, 39.691004 ], [ 114.784279, 39.777876 ], [ 114.823991, 39.854437 ], [ 114.940016, 39.941773 ], [ 115.088737, 39.981846 ], [ 115.168161, 40.048005 ], [ 115.307153, 40.149661 ], [ 115.373339, 40.200431 ], [ 115.505713, 40.286654 ], [ 115.552043, 40.352514 ], [ 115.644704, 40.352514 ], [ 115.730747, 40.322125 ], [ 115.743984, 40.210581 ], [ 115.767061, 40.111306 ], [ 115.684416, 40.058177 ], [ 115.614903, 40.018935 ], [ 115.605913, 39.968225 ], [ 115.635881, 39.933629 ], [ 115.716794, 39.903631 ], [ 115.75875, 39.864383 ], [ 115.76774, 39.788131 ], [ 115.740769, 39.748816 ], [ 115.755753, 39.69559 ], [ 115.75875, 39.635371 ], [ 115.710801, 39.568141 ], [ 115.644871, 39.519417 ], [ 115.56096, 39.468335 ], [ 115.459069, 39.428837 ], [ 115.372162, 39.410242 ], [ 115.351184, 39.333484 ], [ 115.372162, 39.284594 ], [ 115.405126, 39.207697 ], [ 115.390142, 39.165717 ], [ 115.324213, 39.093359 ], [ 115.222321, 39.016251 ], [ 115.126423, 38.95544 ], [ 115.015541, 38.882865 ], [ 114.895669, 38.7938 ], [ 114.778794, 38.716363 ], [ 114.643937, 38.657642 ], [ 114.572014, 38.622386 ], [ 114.509081, 38.617684 ], [ 114.443151, 38.580056 ], [ 114.383215, 38.497676 ], [ 114.317285, 38.377466 ], [ 114.251355, 38.278318 ], [ 114.170442, 38.219236 ], [ 114.083534, 38.186129 ], [ 113.990633, 38.153007 ], [ 113.924703, 38.072505 ], [ 113.804831, 37.991913 ], [ 113.732908, 37.946837 ], [ 113.660984, 37.901734 ], [ 113.619029, 37.904108 ], [ 113.57108, 37.930223 ], [ 113.517138, 37.968192 ], [ 113.481176, 38.022738 ], [ 113.48717, 38.067766 ], [ 113.454205, 38.110399 ], [ 113.403259, 38.126972 ], [ 113.343323, 38.122237 ], [ 113.316352, 38.05118 ], [ 113.35531, 38.008513 ], [ 113.439221, 37.994284 ], [ 113.48717, 37.953956 ], [ 113.523131, 37.906483 ], [ 113.517138, 37.880359 ], [ 113.445214, 37.89461 ], [ 113.286383, 37.908857 ], [ 113.196479, 37.932597 ], [ 113.133546, 37.946837 ], [ 113.022664, 37.94921 ], [ 112.947744, 37.980053 ], [ 112.890805, 37.980053 ], [ 112.908786, 37.951583 ], [ 112.995693, 37.911232 ], [ 113.022664, 37.892235 ], [ 112.974715, 37.882735 ], [ 112.878818, 37.832838 ], [ 112.809891, 37.809066 ], [ 112.800901, 37.873233 ], [ 112.794907, 37.958702 ], [ 112.749955, 37.977681 ], [ 112.710996, 37.977681 ], [ 112.699009, 38.008513 ], [ 112.728977, 38.046441 ], [ 112.749955, 38.086717 ], [ 112.761942, 38.285404 ], [ 112.818881, 38.379825 ], [ 112.905789, 38.443488 ], [ 113.016671, 38.495321 ], [ 113.13954, 38.584761 ], [ 113.196479, 38.638841 ], [ 113.268403, 38.659992 ], [ 113.328339, 38.657642 ], [ 113.412249, 38.657642 ], [ 113.481176, 38.671739 ], [ 113.517138, 38.706971 ], [ 113.580071, 38.779727 ], [ 113.604045, 38.826626 ], [ 113.598051, 38.866466 ], [ 113.565087, 38.852408 ], [ 113.526128, 38.796145 ], [ 113.463195, 38.749225 ], [ 113.436224, 38.706971 ], [ 113.382281, 38.69288 ], [ 113.331336, 38.69288 ], [ 113.319348, 38.718711 ], [ 113.340326, 38.760958 ], [ 113.367297, 38.80787 ], [ 113.34632, 38.836002 ], [ 113.283387, 38.821938 ], [ 113.247425, 38.7938 ], [ 113.208466, 38.786764 ], [ 113.157521, 38.814904 ], [ 113.109572, 38.817249 ], [ 113.121559, 38.779727 ], [ 113.157521, 38.732796 ], [ 113.13954, 38.714015 ], [ 113.031655, 38.711667 ], [ 112.941751, 38.674089 ], [ 112.911782, 38.636491 ], [ 112.887808, 38.591817 ], [ 112.827872, 38.570646 ], [ 112.767936, 38.603576 ], [ 112.728977, 38.704623 ], [ 112.773929, 38.82897 ], [ 112.800901, 38.946079 ], [ 112.84885, 39.011575 ], [ 112.884811, 39.006899 ], [ 112.938754, 38.974156 ], [ 112.995693, 38.974156 ], [ 112.995693, 39.006899 ], [ 112.974715, 39.048974 ], [ 113.040645, 39.095695 ], [ 113.136543, 39.1027 ], [ 113.208466, 39.123712 ], [ 113.268403, 39.144718 ], [ 113.322345, 39.137716 ], [ 113.34632, 39.091024 ], [ 113.376288, 39.02794 ], [ 113.397265, 38.962459 ], [ 113.427233, 38.941399 ], [ 113.466192, 38.941399 ], [ 113.469189, 38.988191 ], [ 113.415246, 39.088689 ], [ 113.388275, 39.189042 ], [ 113.397265, 39.237999 ], [ 113.484173, 39.268289 ], [ 113.586064, 39.289251 ], [ 113.648997, 39.312535 ], [ 113.651994, 39.361406 ], [ 113.619029, 39.391642 ], [ 113.538115, 39.3521 ], [ 113.448211, 39.326502 ], [ 113.28938, 39.268289 ], [ 113.130549, 39.191374 ], [ 113.019668, 39.147051 ], [ 112.93276, 39.149385 ], [ 112.863834, 39.149385 ], [ 112.809891, 39.126046 ], [ 112.749955, 39.053648 ], [ 112.749955, 39.053648 ], [ 112.708, 39.023265 ], [ 112.669041, 38.985852 ], [ 112.534185, 38.960119 ], [ 112.465258, 38.978835 ], [ 112.447277, 39.055984 ], [ 112.498223, 39.100365 ], [ 112.564153, 39.116709 ], [ 112.597118, 39.212359 ], [ 112.636076, 39.256641 ], [ 112.702006, 39.249651 ], [ 112.767936, 39.237999 ], [ 112.788913, 39.207697 ], [ 112.869827, 39.221684 ], [ 112.929763, 39.277606 ], [ 112.977712, 39.310207 ], [ 113.052632, 39.333484 ], [ 113.124556, 39.326502 ], [ 113.22345, 39.380014 ], [ 113.283387, 39.435809 ], [ 113.274396, 39.496202 ], [ 113.277393, 39.561183 ], [ 113.331336, 39.591331 ], [ 113.370294, 39.591331 ], [ 113.448211, 39.575099 ], [ 113.493163, 39.533342 ], [ 113.589061, 39.459043 ], [ 113.687956, 39.484592 ], [ 113.77786, 39.512453 ], [ 113.807828, 39.452074 ], [ 113.846786, 39.396292 ], [ 113.909719, 39.366058 ], [ 113.921707, 39.312535 ], [ 113.903726, 39.221684 ], [ 113.885745, 39.163384 ], [ 113.951675, 39.175048 ], [ 114.056563, 39.235669 ], [ 114.131483, 39.26363 ], [ 114.215394, 39.268289 ], [ 114.287317, 39.282265 ], [ 114.338263, 39.312535 ], [ 114.401196, 39.373036 ], [ 114.410186, 39.424189 ], [ 114.386212, 39.475303 ], [ 114.365234, 39.531021 ], [ 114.356244, 39.595968 ], [ 114.359241, 39.640005 ], [ 114.387159, 39.691004 ] ], [ [ 115.500317, 38.092858 ], [ 115.505397, 38.060737 ], [ 115.47238, 38.042662 ], [ 115.419046, 38.040654 ], [ 115.401268, 38.000471 ], [ 115.345394, 37.982381 ], [ 115.297139, 38.038645 ], [ 115.28698, 38.096872 ], [ 115.335235, 38.126972 ], [ 115.386029, 38.11092 ], [ 115.429205, 38.096872 ], [ 115.500317, 38.092858 ] ], [ [ 115.967628, 38.11694 ], [ 116.008264, 38.1049 ], [ 116.015883, 38.090851 ], [ 116.000645, 38.064753 ], [ 115.934612, 38.060737 ], [ 115.863499, 38.066761 ], [ 115.825403, 38.072784 ], [ 115.835562, 38.112927 ], [ 115.886357, 38.11694 ], [ 115.967628, 38.11694 ] ], [ [ 116.320651, 38.159064 ], [ 116.366366, 38.155053 ], [ 116.384144, 38.141014 ], [ 116.368906, 38.108914 ], [ 116.32827, 38.090851 ], [ 116.274936, 38.080814 ], [ 116.23938, 38.096872 ], [ 116.259697, 38.134996 ], [ 116.320651, 38.159064 ] ], [ [ 116.300333, 38.014537 ], [ 116.394303, 38.020565 ], [ 116.42732, 37.978361 ], [ 116.412081, 37.946189 ], [ 116.356207, 37.936132 ], [ 116.313032, 37.920038 ], [ 116.323191, 37.86771 ], [ 116.366366, 37.839517 ], [ 116.371446, 37.793177 ], [ 116.346048, 37.744791 ], [ 116.287635, 37.742775 ], [ 116.221601, 37.748825 ], [ 116.191125, 37.799223 ], [ 116.224141, 37.865696 ], [ 116.2343, 37.909978 ], [ 116.193664, 37.92205 ], [ 116.191125, 37.960266 ], [ 116.206363, 37.978361 ], [ 116.300333, 38.014537 ] ], [ [ 115.76191, 37.895891 ], [ 115.741592, 37.877776 ], [ 115.680638, 37.845559 ], [ 115.609526, 37.815344 ], [ 115.56889, 37.809299 ], [ 115.535874, 37.827431 ], [ 115.548572, 37.861669 ], [ 115.632384, 37.932109 ], [ 115.693337, 37.936132 ], [ 115.76191, 37.895891 ] ], [ [ 116.969995, 37.37772 ], [ 116.990553, 37.372759 ], [ 117.014236, 37.372759 ], [ 117.037919, 37.364358 ], [ 117.069497, 37.337048 ], [ 117.066866, 37.301321 ], [ 117.035288, 37.271885 ], [ 116.974765, 37.261369 ], [ 116.922135, 37.257162 ], [ 116.848455, 37.246645 ], [ 116.801088, 37.250852 ], [ 116.774774, 37.295014 ], [ 116.780037, 37.313932 ], [ 116.85898, 37.343352 ], [ 116.969995, 37.37772 ] ], [ [ 116.866875, 37.113995 ], [ 116.945819, 37.1456 ], [ 117.014236, 37.158238 ], [ 117.085286, 37.147706 ], [ 117.132652, 37.116103 ], [ 117.145809, 37.054964 ], [ 117.119495, 36.987444 ], [ 117.080023, 36.91775 ], [ 117.022131, 36.858566 ], [ 116.972133, 36.812031 ], [ 116.887926, 36.812031 ], [ 116.84056, 36.843762 ], [ 116.777405, 36.896618 ], [ 116.758985, 36.940989 ], [ 116.769511, 36.997998 ], [ 116.811614, 37.052855 ], [ 116.866875, 37.113995 ] ], [ [ 116.866875, 36.398318 ], [ 116.887926, 36.385553 ], [ 116.882664, 36.349374 ], [ 116.843192, 36.340859 ], [ 116.816877, 36.357888 ], [ 116.782668, 36.387681 ], [ 116.782668, 36.415335 ], [ 116.830034, 36.421716 ], [ 116.866875, 36.398318 ] ] ] } },
{ "type": "Feature", "properties": { }, "geometry": { "type": "Polygon", "coordinates": [ [ [ 111.892489, 39.213734 ], [ 111.842145, 39.18366 ], [ 111.859975, 39.154386 ], [ 111.896684, 39.1552 ], [ 111.92815, 39.17553 ], [ 111.931296, 39.201543 ], [ 111.917661, 39.212109 ], [ 111.892489, 39.213734 ] ] ] } },
{ "type": "Feature", "properties": { }, "geometry": { "type": "Polygon", "coordinates": [ [ [ 112.070792, 39.300632 ], [ 112.047718, 39.275467 ], [ 112.052962, 39.255978 ], [ 112.084427, 39.260039 ], [ 112.102258, 39.281962 ], [ 112.093867, 39.30469 ], [ 112.070792, 39.300632 ] ] ] } },
{ "type": "Feature", "properties": { }, "geometry": { "type": "Polygon", "coordinates": [ [ [ 112.581579, 39.06975 ], [ 112.565847, 39.036356 ], [ 112.594166, 39.015986 ], [ 112.623533, 39.028208 ], [ 112.632973, 39.048575 ], [ 112.614094, 39.077893 ], [ 112.58997, 39.076264 ], [ 112.581579, 39.06975 ] ] ] } },
{ "type": "Feature", "properties": { }, "geometry": { "type": "Polygon", "coordinates": [ [ [ 112.256483, 38.784809 ], [ 112.210334, 38.743918 ], [ 112.19565, 38.704641 ], [ 112.216627, 38.683357 ], [ 112.216627, 38.683357 ], [ 112.27746, 38.721009 ], [ 112.30473, 38.761913 ], [ 112.300534, 38.796254 ], [ 112.273264, 38.797889 ], [ 112.256483, 38.784809 ] ] ] } },
{ "type": "Feature", "properties": { }, "geometry": { "type": "Polygon", "coordinates": [ [ [ 113.387137, 38.626022 ], [ 113.307424, 38.601436 ], [ 113.292741, 38.571922 ], [ 113.33889, 38.563721 ], [ 113.395527, 38.581761 ], [ 113.433286, 38.594878 ], [ 113.443774, 38.616189 ], [ 113.4207, 38.624383 ], [ 113.387137, 38.626022 ] ] ] } },
{ "type": "Feature", "properties": { }, "geometry": { "type": "Polygon", "coordinates": [ [ [ 116.493328, 39.365032 ], [ 116.461863, 39.334212 ], [ 116.493328, 39.30987 ], [ 116.533184, 39.316362 ], [ 116.552064, 39.332589 ], [ 116.526891, 39.371519 ], [ 116.493328, 39.365032 ] ] ] } },
{ "type": "Feature", "properties": { }, "geometry": { "type": "Polygon", "coordinates": [ [ [ 116.413616, 39.170149 ], [ 116.352783, 39.139243 ], [ 116.342295, 39.113206 ], [ 116.354881, 39.072505 ], [ 116.409421, 39.085532 ], [ 116.445082, 39.101812 ], [ 116.461863, 39.116461 ], [ 116.461863, 39.147378 ], [ 116.447179, 39.166897 ], [ 116.413616, 39.170149 ] ] ] } },
{ "type": "Feature", "properties": { }, "geometry": { "type": "Polygon", "coordinates": [ [ [ 116.451375, 38.938838 ], [ 116.415714, 38.901301 ], [ 116.449277, 38.868644 ], [ 116.512208, 38.88824 ], [ 116.528989, 38.920888 ], [ 116.493328, 38.945364 ], [ 116.451375, 38.938838 ] ] ] } },
{ "type": "Feature", "properties": { }, "geometry": { "type": "Polygon", "coordinates": [ [ [ 116.090572, 38.76404 ], [ 116.069595, 38.724774 ], [ 116.094768, 38.692036 ], [ 116.138819, 38.703496 ], [ 116.163991, 38.726411 ], [ 116.157698, 38.757497 ], [ 116.132526, 38.768947 ], [ 116.090572, 38.76404 ] ] ] } },
{ "type": "Feature", "properties": { }, "geometry": { "type": "Polygon", "coordinates": [ [ [ 116.545771, 38.770583 ], [ 116.526891, 38.728047 ], [ 116.543673, 38.705133 ], [ 116.585627, 38.711681 ], [ 116.612897, 38.73132 ], [ 116.621287, 38.762405 ], [ 116.583529, 38.78203 ], [ 116.545771, 38.770583 ] ] ] } },
{ "type": "Feature", "properties": { }, "geometry": { "type": "Polygon", "coordinates": [ [ [ 115.819971, 38.726411 ], [ 115.731868, 38.718228 ], [ 115.696207, 38.685487 ], [ 115.704598, 38.651092 ], [ 115.761235, 38.636347 ], [ 115.824166, 38.652731 ], [ 115.857729, 38.680574 ], [ 115.859827, 38.711681 ], [ 115.819971, 38.726411 ] ] ] } },
{ "type": "Feature", "properties": { }, "geometry": { "type": "Polygon", "coordinates": [ [ [ 117.374357, 38.60029 ], [ 117.368064, 38.544529 ], [ 117.426799, 38.508426 ], [ 117.472948, 38.528121 ], [ 117.481339, 38.578975 ], [ 117.464558, 38.608486 ], [ 117.422604, 38.611764 ], [ 117.374357, 38.60029 ] ] ] } },
{ "type": "Feature", "properties": { }, "geometry": { "type": "Polygon", "coordinates": [ [ [ 116.080084, 38.492009 ], [ 116.040228, 38.423018 ], [ 116.084279, 38.400007 ], [ 116.138819, 38.40987 ], [ 116.168187, 38.44438 ], [ 116.155601, 38.473947 ], [ 116.128331, 38.488725 ], [ 116.080084, 38.492009 ] ] ] } },
{ "type": "Feature", "properties": { }, "geometry": { "type": "Polygon", "coordinates": [ [ [ 117.405822, 37.910109 ], [ 117.363869, 37.878657 ], [ 117.397432, 37.843878 ], [ 117.430995, 37.843878 ], [ 117.464558, 37.867066 ], [ 117.466655, 37.895212 ], [ 117.447776, 37.906799 ], [ 117.405822, 37.910109 ] ] ] } },
{ "type": "Feature", "properties": { }, "geometry": { "type": "Polygon", "coordinates": [ [ [ 117.212835, 37.782562 ], [ 117.158295, 37.779246 ], [ 117.143612, 37.751055 ], [ 117.1541, 37.722854 ], [ 117.204444, 37.709579 ], [ 117.244301, 37.717876 ], [ 117.265277, 37.759348 ], [ 117.250594, 37.777588 ], [ 117.212835, 37.782562 ] ] ] } },
{ "type": "Feature", "properties": { }, "geometry": { "type": "Polygon", "coordinates": [ [ [ 117.464558, 37.714557 ], [ 117.43519, 37.70294 ], [ 117.43519, 37.678041 ], [ 117.445679, 37.659776 ], [ 117.470851, 37.656455 ], [ 117.508609, 37.67472 ], [ 117.527488, 37.692982 ], [ 117.500218, 37.712898 ], [ 117.464558, 37.714557 ] ] ] } },
{ "type": "Feature", "properties": { }, "geometry": { "type": "Polygon", "coordinates": [ [ [ 117.63447, 37.767639 ], [ 117.623982, 37.727831 ], [ 117.655447, 37.701281 ], [ 117.705792, 37.717876 ], [ 117.709987, 37.762664 ], [ 117.668033, 37.790851 ], [ 117.63447, 37.767639 ] ] ] } },
{ "type": "Feature", "properties": { }, "geometry": { "type": "Polygon", "coordinates": [ [ [ 117.848435, 37.712898 ], [ 117.850532, 37.666418 ], [ 117.844239, 37.653133 ], [ 117.900877, 37.658115 ], [ 117.917658, 37.70294 ], [ 117.900877, 37.72949 ], [ 117.848435, 37.712898 ] ] ] } },
{ "type": "Feature", "properties": { }, "geometry": { "type": "Polygon", "coordinates": [ [ [ 116.833154, 37.827311 ], [ 116.770223, 37.814055 ], [ 116.745051, 37.772614 ], [ 116.753442, 37.712898 ], [ 116.745051, 37.686342 ], [ 116.728269, 37.656455 ], [ 116.740856, 37.621572 ], [ 116.755539, 37.570047 ], [ 116.803786, 37.560071 ], [ 116.860424, 37.57171 ], [ 116.944331, 37.60994 ], [ 116.96321, 37.624895 ], [ 116.994676, 37.661437 ], [ 116.95482, 37.694641 ], [ 116.946429, 37.726172 ], [ 116.931745, 37.764323 ], [ 116.914964, 37.804111 ], [ 116.885596, 37.828968 ], [ 116.852033, 37.830625 ], [ 116.833154, 37.827311 ] ] ] } },
{ "type": "Feature", "properties": { }, "geometry": { "type": "Polygon", "coordinates": [ [ [ 118.062399, 37.139851 ], [ 118.049813, 37.094688 ], [ 118.072887, 37.064565 ], [ 118.116939, 37.07126 ], [ 118.13372, 37.114764 ], [ 118.110646, 37.134835 ], [ 118.062399, 37.139851 ] ] ] } },
{ "type": "Feature", "properties": { }, "geometry": { "type": "Polygon", "coordinates": [ [ [ 117.888291, 37.139851 ], [ 117.877802, 37.093015 ], [ 117.919756, 37.054521 ], [ 117.963807, 37.07126 ], [ 117.976394, 37.099708 ], [ 117.959612, 37.134835 ], [ 117.926049, 37.153228 ], [ 117.888291, 37.139851 ] ] ] } },
{ "type": "Feature", "properties": { }, "geometry": { "type": "Polygon", "coordinates": [ [ [ 117.542172, 37.042802 ], [ 117.529586, 36.990879 ], [ 117.592517, 36.970771 ], [ 117.632373, 36.989204 ], [ 117.615591, 37.021032 ], [ 117.592517, 37.042802 ], [ 117.542172, 37.042802 ] ] ] } },
{ "type": "Feature", "properties": { }, "geometry": { "type": "Polygon", "coordinates": [ [ [ 119.199345, 36.496693 ], [ 119.14061, 36.483201 ], [ 119.151099, 36.4444 ], [ 119.199345, 36.424148 ], [ 119.24969, 36.432587 ], [ 119.274862, 36.456211 ], [ 119.262276, 36.473081 ], [ 119.232908, 36.496693 ], [ 119.199345, 36.496693 ] ] ] } },
{ "type": "Feature", "properties": { }, "geometry": { "type": "Polygon", "coordinates": [ [ [ 119.350379, 36.023088 ], [ 119.352477, 35.984058 ], [ 119.381844, 35.961988 ], [ 119.41331, 35.973873 ], [ 119.444775, 36.009515 ], [ 119.438482, 36.026482 ], [ 119.415407, 36.053621 ], [ 119.377649, 36.057013 ], [ 119.352477, 36.055317 ], [ 119.350379, 36.023088 ] ] ] } },
{ "type": "Feature", "properties": { }, "geometry": { "type": "Polygon", "coordinates": [ [ [ 118.6057, 35.834545 ], [ 118.572137, 35.800525 ], [ 118.582625, 35.761384 ], [ 118.622481, 35.739253 ], [ 118.66863, 35.763086 ], [ 118.666533, 35.803928 ], [ 118.639263, 35.831143 ], [ 118.6057, 35.834545 ] ] ] } },
{ "type": "Feature", "properties": { }, "geometry": { "type": "Polygon", "coordinates": [ [ [ 118.798687, 35.626798 ], [ 118.775612, 35.589278 ], [ 118.794492, 35.558567 ], [ 118.815469, 35.5415 ], [ 118.853227, 35.544913 ], [ 118.88679, 35.572218 ], [ 118.88679, 35.599512 ], [ 118.861618, 35.633618 ], [ 118.846934, 35.645552 ], [ 118.798687, 35.626798 ] ] ] } },
{ "type": "Feature", "properties": { }, "geometry": { "type": "Polygon", "coordinates": [ [ [ 119.607918, 35.494862 ], [ 119.534975, 35.495401 ], [ 119.434286, 35.47832 ], [ 119.388137, 35.439022 ], [ 119.388137, 35.399704 ], [ 119.411212, 35.36892 ], [ 119.444775, 35.344969 ], [ 119.469299, 35.329861 ], [ 119.512642, 35.336811 ], [ 119.532082, 35.379311 ], [ 119.555138, 35.377361 ], [ 119.547081, 35.361252 ], [ 119.562363, 35.37542 ], [ 119.572914, 35.366528 ], [ 119.572906, 35.369041 ], [ 119.558472, 35.381805 ], [ 119.553749, 35.413193 ], [ 119.559029, 35.404026 ], [ 119.577362, 35.452919 ], [ 119.598747, 35.462082 ], [ 119.607918, 35.494862 ] ] ] } },
{ "type": "Feature", "properties": { }, "geometry": { "type": "Polygon", "coordinates": [ [ [ 110.536735, 35.400087 ], [ 110.473037, 35.389343 ], [ 110.468644, 35.342773 ], [ 110.499395, 35.319478 ], [ 110.554307, 35.323062 ], [ 110.578469, 35.348148 ], [ 110.585058, 35.371435 ], [ 110.574076, 35.391134 ], [ 110.536735, 35.400087 ] ] ] } },
{ "type": "Feature", "properties": { }, "geometry": { "type": "Polygon", "coordinates": [ [ [ 110.508181, 35.147243 ], [ 110.481823, 35.120298 ], [ 110.490609, 35.062786 ], [ 110.52136, 35.037612 ], [ 110.569683, 35.069977 ], [ 110.589451, 35.120298 ], [ 110.56529, 35.154426 ], [ 110.508181, 35.147243 ] ] ] } },
{ "type": "Feature", "properties": { }, "geometry": { "type": "Polygon", "coordinates": [ [ [ 110.714651, 35.186745 ], [ 110.708062, 35.138262 ], [ 110.736616, 35.123891 ], [ 110.789332, 35.154426 ], [ 110.798118, 35.183155 ], [ 110.793725, 35.213668 ], [ 110.758581, 35.219052 ], [ 110.714651, 35.186745 ] ] ] } },
{ "type": "Feature", "properties": { }, "geometry": { "type": "Polygon", "coordinates": [ [ [ 110.773957, 35.400087 ], [ 110.741009, 35.362479 ], [ 110.751992, 35.324854 ], [ 110.784939, 35.317685 ], [ 110.820083, 35.340981 ], [ 110.839851, 35.366062 ], [ 110.846441, 35.398296 ], [ 110.824476, 35.416199 ], [ 110.773957, 35.400087 ] ] ] } },
{ "type": "Feature", "properties": { }, "geometry": { "type": "Polygon", "coordinates": [ [ [ 111.306396, 35.839822 ], [ 111.303101, 35.857181 ], [ 111.279489, 35.867862 ], [ 111.255327, 35.861186 ], [ 111.247639, 35.846054 ], [ 111.246541, 35.831364 ], [ 111.25368, 35.813108 ], [ 111.269055, 35.80821 ], [ 111.284431, 35.810437 ], [ 111.29761, 35.824685 ], [ 111.306396, 35.839822 ] ] ] } },
{ "type": "Feature", "properties": { }, "geometry": { "type": "Polygon", "coordinates": [ [ [ 111.628392, 35.796171 ], [ 111.616311, 35.760532 ], [ 111.633883, 35.729334 ], [ 111.669027, 35.7329 ], [ 111.690992, 35.750728 ], [ 111.709662, 35.779245 ], [ 111.709662, 35.815766 ], [ 111.680009, 35.817547 ], [ 111.649259, 35.815766 ], [ 111.628392, 35.796171 ] ] ] } },
{ "type": "Feature", "properties": { }, "geometry": { "type": "Polygon", "coordinates": [ [ [ 110.728806, 34.722863 ], [ 110.701899, 34.722863 ], [ 110.685975, 34.713384 ], [ 110.670599, 34.701647 ], [ 110.652478, 34.678169 ], [ 110.652478, 34.662814 ], [ 110.66401, 34.644293 ], [ 110.702997, 34.649263 ], [ 110.72002, 34.656942 ], [ 110.743083, 34.667782 ], [ 110.764499, 34.683587 ], [ 110.771089, 34.703904 ], [ 110.754615, 34.721057 ], [ 110.728806, 34.722863 ] ] ] } },
{ "type": "Feature", "properties": { }, "geometry": { "type": "Polygon", "coordinates": [ [ [ 110.836434, 34.780162 ], [ 110.834238, 34.753548 ], [ 110.847966, 34.738207 ], [ 110.871029, 34.740914 ], [ 110.890798, 34.752194 ], [ 110.896289, 34.770239 ], [ 110.886954, 34.788731 ], [ 110.860596, 34.793692 ], [ 110.836434, 34.780162 ] ] ] } },
{ "type": "Feature", "properties": { }, "geometry": { "type": "Polygon", "coordinates": [ [ [ 111.05828, 34.878876 ], [ 111.046748, 34.857251 ], [ 111.050043, 34.838774 ], [ 111.069812, 34.813982 ], [ 111.09562, 34.81849 ], [ 111.112643, 34.831562 ], [ 111.124175, 34.850491 ], [ 111.124724, 34.86446 ], [ 111.110447, 34.876624 ], [ 111.092326, 34.885633 ], [ 111.05828, 34.878876 ] ] ] } },
{ "type": "Feature", "properties": { }, "geometry": { "type": "Polygon", "coordinates": [ [ [ 115.807342, 36.1583 ], [ 115.773296, 36.135242 ], [ 115.811735, 36.095318 ], [ 115.831503, 36.095318 ], [ 115.862254, 36.106854 ], [ 115.865549, 36.135242 ], [ 115.856763, 36.1583 ], [ 115.807342, 36.1583 ] ] ] } },
{ "type": "Feature", "properties": { }, "geometry": { "type": "Polygon", "coordinates": [ [ [ 115.596479, 36.144998 ], [ 115.554745, 36.120162 ], [ 115.562433, 36.085556 ], [ 115.60197, 36.075792 ], [ 115.646998, 36.093543 ], [ 115.652489, 36.113952 ], [ 115.644801, 36.137016 ], [ 115.596479, 36.144998 ] ] ] } },
{ "type": "Feature", "properties": { }, "geometry": { "type": "Polygon", "coordinates": [ [ [ 115.692026, 36.309781 ], [ 115.663472, 36.302701 ], [ 115.661275, 36.273488 ], [ 115.685436, 36.246921 ], [ 115.731563, 36.249578 ], [ 115.754626, 36.275259 ], [ 115.748037, 36.300931 ], [ 115.732661, 36.314206 ], [ 115.718384, 36.318631 ], [ 115.692026, 36.309781 ] ] ] } },
{ "type": "Feature", "properties": { }, "geometry": { "type": "Polygon", "coordinates": [ [ [ 115.092384, 36.326594 ], [ 115.048454, 36.311551 ], [ 115.041864, 36.282341 ], [ 115.071517, 36.260206 ], [ 115.128626, 36.271717 ], [ 115.144001, 36.289424 ], [ 115.1451, 36.309781 ], [ 115.129724, 36.327479 ], [ 115.092384, 36.326594 ] ] ] } },
{ "type": "Feature", "properties": { }, "geometry": { "type": "Polygon", "coordinates": [ [ [ 115.823897, 38.453807 ], [ 115.786557, 38.412513 ], [ 115.848058, 38.366029 ], [ 115.911757, 38.378084 ], [ 115.957883, 38.415955 ], [ 115.95349, 38.450367 ], [ 115.920543, 38.469287 ], [ 115.885399, 38.477885 ], [ 115.823897, 38.453807 ] ] ] } },
{ "type": "Feature", "properties": { }, "geometry": { "type": "Polygon", "coordinates": [ [ [ 115.66575, 38.519141 ], [ 115.61523, 38.53117 ], [ 115.538353, 38.52086 ], [ 115.468065, 38.505392 ], [ 115.402171, 38.474446 ], [ 115.336276, 38.450367 ], [ 115.261595, 38.419397 ], [ 115.20229, 38.379806 ], [ 115.230844, 38.347083 ], [ 115.312114, 38.362585 ], [ 115.380206, 38.390136 ], [ 115.450493, 38.409071 ], [ 115.536157, 38.422839 ], [ 115.606444, 38.429722 ], [ 115.672339, 38.448647 ], [ 115.689911, 38.476165 ], [ 115.692107, 38.496797 ], [ 115.66575, 38.519141 ] ] ] } },
{ "type": "Feature", "properties": { }, "geometry": { "type": "Polygon", "coordinates": [ [ [ 115.368365, 37.433007 ], [ 115.313453, 37.42603 ], [ 115.29039, 37.398116 ], [ 115.30247, 37.3763 ], [ 115.33432, 37.369318 ], [ 115.385937, 37.3763 ], [ 115.430965, 37.390263 ], [ 115.448537, 37.408585 ], [ 115.446341, 37.422541 ], [ 115.428769, 37.433879 ], [ 115.401313, 37.437367 ], [ 115.368365, 37.433007 ] ] ] } },
{ "type": "Feature", "properties": { }, "geometry": { "type": "Polygon", "coordinates": [ [ [ 115.011435, 37.254892 ], [ 114.982881, 37.227788 ], [ 114.994962, 37.198925 ], [ 115.031204, 37.185802 ], [ 115.067446, 37.195426 ], [ 115.081723, 37.215545 ], [ 115.07733, 37.235658 ], [ 115.054267, 37.257514 ], [ 115.0334, 37.266255 ], [ 115.011435, 37.254892 ] ] ] } },
{ "type": "Feature", "properties": { }, "geometry": { "type": "Polygon", "coordinates": [ [ [ 115.099295, 37.098256 ], [ 115.075134, 37.07022 ], [ 115.081723, 37.044804 ], [ 115.115769, 37.0299 ], [ 115.160797, 37.046557 ], [ 115.16519, 37.075478 ], [ 115.152011, 37.096504 ], [ 115.130046, 37.109643 ], [ 115.099295, 37.098256 ] ] ] } },
{ "type": "Feature", "properties": { }, "geometry": { "type": "Polygon", "coordinates": [ [ [ 115.262934, 37.099132 ], [ 115.237674, 37.064963 ], [ 115.26513, 37.038668 ], [ 115.306863, 37.036914 ], [ 115.325534, 37.05094 ], [ 115.32773, 37.071973 ], [ 115.316748, 37.090372 ], [ 115.296979, 37.104388 ], [ 115.280506, 37.10614 ], [ 115.262934, 37.099132 ] ] ] } },
{ "type": "Feature", "properties": { }, "geometry": { "type": "Polygon", "coordinates": [ [ [ 115.606882, 36.853472 ], [ 115.490468, 36.777859 ], [ 115.444341, 36.737385 ], [ 115.404805, 36.700411 ], [ 115.391626, 36.675752 ], [ 115.314748, 36.615832 ], [ 115.275212, 36.591146 ], [ 115.314748, 36.555866 ], [ 115.387233, 36.564688 ], [ 115.450931, 36.5982 ], [ 115.492664, 36.635223 ], [ 115.523415, 36.712737 ], [ 115.565149, 36.758504 ], [ 115.611275, 36.788414 ], [ 115.679366, 36.798968 ], [ 115.740868, 36.781378 ], [ 115.811156, 36.744425 ], [ 115.885836, 36.67399 ], [ 115.934159, 36.622884 ], [ 115.962714, 36.571744 ], [ 115.980285, 36.525866 ], [ 115.980285, 36.474662 ], [ 115.923177, 36.46583 ], [ 115.881443, 36.467596 ], [ 115.782601, 36.490556 ], [ 115.70792, 36.508213 ], [ 115.628847, 36.504682 ], [ 115.58931, 36.492322 ], [ 115.532201, 36.499385 ], [ 115.481682, 36.511744 ], [ 115.42677, 36.52057 ], [ 115.371857, 36.508213 ], [ 115.341106, 36.490556 ], [ 115.347696, 36.451697 ], [ 115.442145, 36.435795 ], [ 115.58272, 36.428726 ], [ 115.666187, 36.423424 ], [ 115.738671, 36.421656 ], [ 115.79578, 36.411051 ], [ 115.866068, 36.391604 ], [ 115.905605, 36.377457 ], [ 115.938552, 36.368615 ], [ 116.017626, 36.388067 ], [ 116.076931, 36.419889 ], [ 116.120861, 36.455231 ], [ 116.204328, 36.464063 ], [ 116.289991, 36.455231 ], [ 116.336117, 36.453464 ], [ 116.364672, 36.47996 ], [ 116.362475, 36.506447 ], [ 116.333921, 36.547044 ], [ 116.294384, 36.601727 ], [ 116.257043, 36.631698 ], [ 116.226293, 36.670466 ], [ 116.199935, 36.709216 ], [ 116.188952, 36.744425 ], [ 116.166987, 36.772581 ], [ 116.12745, 36.786655 ], [ 116.076931, 36.793691 ], [ 116.000054, 36.788414 ], [ 115.905605, 36.786655 ], [ 115.870461, 36.804244 ], [ 115.817745, 36.837652 ], [ 115.769422, 36.864017 ], [ 115.729885, 36.885102 ], [ 115.681563, 36.888616 ], [ 115.606882, 36.853472 ] ] ] } },
{ "type": "Feature", "properties": { }, "geometry": { "type": "Polygon", "coordinates": [ [ [ 114.932239, 36.763278 ], [ 114.920708, 36.747 ], [ 114.931141, 36.729838 ], [ 114.951459, 36.724556 ], [ 114.978366, 36.731598 ], [ 114.983308, 36.75052 ], [ 114.982759, 36.763718 ], [ 114.962441, 36.777794 ], [ 114.945967, 36.776914 ], [ 114.932239, 36.763278 ] ] ] } },
{ "type": "Feature", "properties": { }, "geometry": { "type": "Polygon", "coordinates": [ [ [ 114.938505, 36.515592 ], [ 114.905558, 36.489991 ], [ 114.900066, 36.459081 ], [ 114.925326, 36.433461 ], [ 114.980238, 36.436996 ], [ 115.007694, 36.453781 ], [ 115.018677, 36.482044 ], [ 115.013186, 36.49882 ], [ 114.995614, 36.511178 ], [ 114.972551, 36.513826 ], [ 114.938505, 36.515592 ] ] ] } },
{ "type": "Feature", "properties": { }, "geometry": { "type": "Polygon", "coordinates": [ [ [ 113.34593, 38.303216 ], [ 113.328358, 38.289426 ], [ 113.325064, 38.26701 ], [ 113.323966, 38.242863 ], [ 113.336046, 38.225609 ], [ 113.370092, 38.236824 ], [ 113.37778, 38.265286 ], [ 113.365699, 38.290288 ], [ 113.34593, 38.303216 ] ] ] } },
{ "type": "Feature", "properties": { }, "geometry": { "type": "Polygon", "coordinates": [ [ [ 113.194372, 38.360937 ], [ 113.163622, 38.347157 ], [ 113.15813, 38.323036 ], [ 113.178997, 38.311834 ], [ 113.20865, 38.323898 ], [ 113.219632, 38.339405 ], [ 113.22073, 38.350602 ], [ 113.194372, 38.360937 ] ] ] } },
{ "type": "Feature", "properties": { }, "geometry": { "type": "Polygon", "coordinates": [ [ [ 113.006572, 38.171235 ], [ 112.983509, 38.159147 ], [ 112.95166, 38.153101 ], [ 112.918713, 38.133235 ], [ 112.902239, 38.115092 ], [ 112.904436, 38.09608 ], [ 112.920909, 38.086572 ], [ 112.940678, 38.091759 ], [ 112.969232, 38.109044 ], [ 112.997786, 38.121141 ], [ 113.01426, 38.132372 ], [ 113.02085, 38.14101 ], [ 113.018653, 38.154829 ], [ 113.006572, 38.171235 ] ] ] } }
]
}
