{"type": "FeatureCollection", "features": [{"type": "Feature", "properties": {"fid": 1}, "geometry": {"type": "Polygon", "coordinates": [[[61.19743977035772, 29.994529355044314], [61.44888235503271, 30.333765070349788], [61.72643674238977, 30.6251971770747], [61.892969374804004, 30.847240686960344], [62.00417896014303, 30.960959837034345], [62.05108793984157, 31.043050551506788], [62.05108793984157, 31.16618662321545], [62.05695156230389, 31.26586820507484], [62.127315031851694, 31.342095297084967], [62.19181487893719, 31.394867899245824], [62.15663314416328, 31.471094991255946], [62.12145140938938, 31.582503818039974], [62.015906205067665, 31.576640195577657], [61.95140635798218, 31.371413409396553], [61.88104288843437, 31.218959225376306], [61.734452326876436, 31.172050245677767], [61.62304350009241, 31.10168677612996], [61.62304350009241, 30.97268708195898], [61.599589010243136, 30.826096520401045], [61.505771050846064, 30.720551316079334], [61.41781671391131, 30.66191509145616], [61.394362224062036, 30.51532452989823], [61.28295339727801, 30.486006417586644], [61.206726305267885, 30.53291539728518], [61.24777166250411, 30.74986942839092], [61.32986237697654, 30.81436927547641], [61.40608946898667, 31.00786881673288], [61.30054426466496, 31.125141265979224], [61.394362224062036, 31.277595449999474], [61.36504411175045, 31.506276726029846], [61.370907734212764, 31.793594226683393], [61.40022584652435, 32.07504810487462], [61.36504411175044, 32.28613851351804], [61.32399875451422, 32.38582009537743], [61.406089468986664, 32.6790012184933], [61.388498601599714, 32.860773514825134], [61.22431717265483, 33.04254581115697], [61.17154457049398, 33.19499999517722], [61.200862682805564, 33.34159055673515], [61.34745324436349, 33.41781764874528], [61.51749829577069, 33.53509009799162], [61.623043500092386, 33.64063530231333], [61.52922554069531, 33.79895310879591], [61.34158962190115, 33.93381642542921], [61.21845355019249, 34.080406986987136], [61.22431717265481, 34.18595219130885], [61.25363528496639, 34.31495188547983], [61.35918048928811, 34.35013362025373], [61.447134826222864, 34.46740606950008], [61.68754334717787, 34.572951273821786], [61.59372538778079, 34.701950967992765], [61.74031594933873, 34.89545050924924], [61.881042888434344, 35.00099571357095], [61.94554273551983, 35.159313520053516], [61.957269980444465, 35.329358571460716], [62.01590620506764, 35.45249464316938], [61.99831533768069, 35.52285811271719], [62.10972416446473, 35.6284033170389], [62.18008763401254, 35.71635765397366], [62.20940574632412, 35.862948215531596], [62.385314420193644, 35.75153938874757], [62.48499600205304, 35.61667607211427], [62.60226845129938, 35.58735795980268], [62.760586257781945, 35.56976709241573], [62.913040441802195, 35.48767637794329], [62.98340391135, 35.37626755115926], [63.10653998305867, 35.3234949489984], [63.24726692215428, 35.387994796083895], [63.329357636626725, 35.387994796083895], [63.45249370833539, 35.387994796083895], [63.54631166773246, 35.41144928593316], [63.60494789235564, 35.464221888094016], [63.780856566225154, 35.49940362286792], [63.780856566225154, 35.49940362286792], [63.85708365823528, 35.50526724533024], [63.92744712778309, 35.710494031511345], [64.02126508718014, 35.73981214382294], [64.0388559545671, 35.88053908291855], [64.22062825089895, 35.89812995030551], [64.4082641696931, 35.89812995030551], [64.60176371094957, 35.91572081769246], [64.81871774205531, 35.95090255246636], [64.93599019130166, 35.99194790970258], [64.93599019130166, 36.12094760387356], [65.07085350793496, 36.22062918573295], [65.1881259571813, 36.23235643065759], [65.31126202888997, 36.29685627774308], [65.41680723321167, 36.43171959437638], [65.39921636582473, 36.61935551317053], [65.39921636582473, 36.812855054427004], [65.39921636582473, 37.041536330457376], [65.49889794768411, 37.188126892015305], [65.59857952954351, 37.229172249251526], [65.76862458095071, 37.15880877970372], [65.90935152004633, 37.24089949417616], [66.0383512142173, 37.28194485141238], [66.19666902069987, 37.27608122895007], [66.33153233733317, 37.27608122895007], [66.39603218441866, 37.416808168045684], [66.46639565396647, 37.51648974990508], [66.54848636843892, 37.59858046437752], [66.58366810321282, 37.53408061729203], [66.7478495321577, 37.49889888251813], [66.882712848791, 37.416808168045684], [66.99412167557503, 37.364035565884826], [67.09966687989673, 37.346444698497876], [67.15243948205759, 37.40508092312105], [67.29903004361552, 37.37576281080946], [67.4983932073343, 37.399217300658734], [67.72121086090236, 37.399217300658734], [67.87952866738493, 37.24089949417616], [67.98507387170663, 37.25849036156312], [68.02611922894286, 37.29367209633702], [68.16098254557616, 37.29953571879934], [68.30757310713409, 37.31126296372397], [68.40139106653116, 37.287808473874705], [68.47761815854129, 37.22330862678921], [68.47761815854129, 37.135354289854455], [68.67111769979778, 37.059127197844326], [68.76493565919485, 37.04739995291969], [68.82943550628033, 37.18226326955299], [68.96429882291363, 37.22330862678921], [69.1226166293962, 37.24676311663848], [69.25161632356718, 37.29367209633702], [69.38647964020048, 37.31126296372397], [69.49202484452219, 37.287808473874705], [69.58584280391926, 37.26435398402543], [69.5975700488439, 37.18812689201531], [69.69138800824098, 37.176399647090676], [69.73243336547719, 37.09430893261823], [69.84970581472355, 37.12362704492982], [69.92593290673366, 37.27608122895007], [70.03147811105538, 37.41094454558336], [70.10184158060319, 37.48717163759349], [70.18393229507562, 37.48130801513117], [70.35397734648282, 37.51648974990507], [70.41261357110601, 37.61617133176446], [70.52988602035235, 37.657216689000684], [70.60611311236246, 37.70412566869922], [70.71165831668418, 37.70412566869922], [70.7468400514581, 37.78035276070934], [70.74097642899578, 37.98557954689045], [70.71752193914651, 38.02662490412667], [70.8817033680914, 38.038352149051306], [70.96379408256384, 38.07939750628753], [71.04588479703628, 38.13217010844838], [71.12797551150872, 38.214260822920814], [71.20420260351885, 38.30221515985558], [71.2862933179913, 38.40189674171497], [71.42115663462458, 38.45466934387583], [71.57361081864484, 38.44880572141351], [71.70261051281581, 38.44880572141351], [71.84333745191142, 38.44294209895119], [71.92542816638387, 38.407760364177285], [71.97820076854472, 38.29635153739326], [71.9664735236201, 38.102851996136785], [72.02510974824327, 38.102851996136785], [72.02510974824327, 37.99144316935276], [72.1013368402534, 37.94453418965422], [72.07788235040412, 37.85657985271946], [71.98992801346937, 37.7334437810108], [71.97233714608241, 37.53408061729201], [71.97233714608241, 37.43439903543262], [71.87265556422301, 37.3933536781964], [71.90783729899692, 37.31712658618627], [71.89611005407228, 37.2233086267892], [71.89611005407228, 37.11189980000517], [71.85506469683607, 37.006354595683455], [71.86092831929838, 36.93012750367333], [71.91370092145924, 36.877354901512476], [71.98406439100704, 36.842173166738576], [72.04270061563022, 36.7835369421154], [72.15345585200002, 36.70210194900009], [72.14963179600011, 36.6893378700001], [72.16461796100008, 36.67006256200007], [72.17164595600008, 36.653629456000104], [72.15417932100013, 36.64546457900009], [72.09609501100005, 36.6389016720001], [72.07087691200007, 36.63228708900002], [72.0590946860001, 36.627119446], [72.05041304500014, 36.61864451200001], [72.05217004400004, 36.610376282000075], [72.05630415900004, 36.601901347000066], [72.0549605710001, 36.592857972], [72.03883752500006, 36.580455627000035], [71.99780643800005, 36.572445780000045], [71.97703251100012, 36.56304067000009], [71.96090946500004, 36.54960479700004], [71.91347050000012, 36.527590637000074], [71.89972456900011, 36.51834055600007], [71.88763228300013, 36.50800526900007], [71.87471317600011, 36.49906524600003], [71.85859012900004, 36.494155986000074], [71.7937878820001, 36.49074534100004], [71.77322066200014, 36.48004832000004], [71.77456425000008, 36.448422343000075], [71.7915141200001, 36.421292216], [71.794408, 36.407597962000075], [71.78262577300005, 36.39653920500005], [71.76691613800011, 36.39183665000009], [71.75099979700008, 36.3911131790001], [71.73632369000012, 36.3959190880001], [71.7068681230001, 36.42144724500004], [71.64930057800005, 36.45276316300005], [71.6291467690001, 36.459532776000074], [71.61043990000007, 36.45793080600006], [71.60072473100006, 36.4493008430001], [71.58873579900012, 36.41845001300002], [71.58036421700011, 36.40232696500003], [71.57230269400002, 36.39168162000006], [71.5471879480001, 36.371631165000096], [71.54222701000008, 36.35638661800006], [71.55266565000011, 36.34098704100007], [71.55835005700004, 36.32786122700009], [71.53891971800005, 36.319282939000075], [71.51463179500007, 36.315200501000064], [71.49582157400005, 36.30961944600004], [71.4790784100001, 36.30052439400008], [71.40275232000003, 36.231381327000086], [71.38244348100004, 36.218565573000014], [71.31913985200002, 36.20058217400009], [71.31397220900004, 36.19401926700003], [71.30901127100007, 36.17272857700005], [71.30208662900002, 36.1633234670001], [71.29268151800005, 36.15789744100003], [71.26229577600003, 36.146115215000016], [71.22307336400006, 36.125392965000096], [71.2176990160001, 36.118054912], [71.21263472600002, 36.096815898000024], [71.20762211100003, 36.087617493000025], [71.17537601700008, 36.061159159000034], [71.16591923000003, 36.045707906000025], [71.16991342200004, 36.03080174600002], [71.17093184400011, 36.02700103700006], [71.18188724800007, 36.01883616200005], [71.21785404400003, 36.00271311400006], [71.23191003400005, 35.99397979800009], [71.25743819200011, 35.97155222600009], [71.28430993600011, 35.962457174], [71.31252526900005, 35.957392883000054], [71.34156742400006, 35.94726430300009], [71.35639856000004, 35.933053284000025], [71.36068770400003, 35.90029042600012], [71.37133304900004, 35.88514923100011], [71.41670495600005, 35.85884592700008], [71.43101932800003, 35.84370473300005], [71.46440230300003, 35.79471547400006], [71.47091353400009, 35.779936015000125], [71.47205041500006, 35.76996246300002], [71.47101688700013, 35.76133250000008], [71.47112024000006, 35.75228912400011], [71.47556441300003, 35.74102366100005], [71.4813521730001, 35.73409902000007], [71.49613163300005, 35.72459055600008], [71.50274621600005, 35.719061178000075], [71.51535526600007, 35.701491191], [71.51979943800006, 35.68376617500008], [71.51401167800009, 35.66557607100005], [71.49592492600009, 35.64661082000002], [71.48331587700004, 35.62656036400007], [71.49272098800002, 35.60955881800006], [71.51277144300006, 35.596277975000035], [71.56785852100012, 35.57421213800005], [71.58418827400004, 35.56418691100003], [71.5934900310001, 35.549355774000084], [71.5928699140001, 35.530183817000065], [71.58604862500005, 35.512097066000074], [71.58170780500005, 35.49313181600008], [71.58780562400005, 35.470910950000054], [71.59342197900014, 35.46419378800003], [71.60072473100006, 35.45545969600006], [71.61395389800003, 35.44321238200006], [71.62242883300007, 35.429621481000034], [71.62087854000004, 35.41013946500006], [71.61106001800005, 35.395463359000054], [71.56227746600013, 35.360581767], [71.53158166500009, 35.327922262000115], [71.52982466700006, 35.30089548800007], [71.54780806400008, 35.275625712000085], [71.60320520000003, 35.22338084000002], [71.63369429600004, 35.20312367800001], [71.6379317630001, 35.189687806000066], [71.62925012200003, 35.17010243800002], [71.60413537600009, 35.13816640200006], [71.5349923100001, 35.098582256], [71.50894738800014, 35.07202056900009], [71.50750044800003, 35.028198954000075], [71.51297815000004, 35.01812205000003], [71.51132450400006, 35.00871693900007], [71.50429650900013, 35.000603739000084], [71.4934444580001, 34.994144185000025], [71.49334110500007, 34.994144185000025], [71.49334110500007, 34.994040833], [71.48538293500013, 34.98349884100012], [71.47670129500005, 34.96029612300001], [71.46956994700014, 34.94970245400004], [71.45995813000013, 34.94267445900004], [71.4452387970001, 34.93775674800012], [71.32492761200012, 34.89756093400008], [71.2894775800001, 34.87503000900007], [71.2708223880001, 34.844282532000086], [71.2556295170001, 34.81022776300004], [71.20307458500012, 34.748164368000076], [71.18953536000004, 34.73705393500008], [71.15093306500006, 34.72031077100002], [71.08060144100006, 34.672923483000055], [71.0701628010001, 34.66124460900006], [71.06876753700003, 34.64594838500001], [71.07626062000013, 34.623624166000056], [71.07987797100003, 34.60290191600002], [71.07657067900003, 34.578510641], [71.06582198100011, 34.55846018500004], [71.04752852400013, 34.55112213200005], [71.00696252500012, 34.55634145100008], [70.98582686400009, 34.55618642200004], [70.9833559470001, 34.55525610700006], [70.96867028900003, 34.549726868000064], [70.95699141500006, 34.53200185200005], [70.95564782700006, 34.51001352999999], [70.96122888200011, 34.48761179600008], [70.97084069800012, 34.4688790900001], [70.99151127200014, 34.4430667110001], [71.01982995600012, 34.41443796900002], [71.05093916900005, 34.38978831000009], [71.12204593900009, 34.35681874600006], [71.12638675900006, 34.332220764000056], [71.09708622300013, 34.26245758100003], [71.09687951700005, 34.244344991], [71.10654301000011, 34.20938588500009], [71.1094885660001, 34.189206238], [71.1080933020001, 34.165228373], [71.10178877800006, 34.15181833900005], [71.07388350400002, 34.125256653000044], [71.06277307100008, 34.10530955000003], [71.06385827700007, 34.08892812100008], [71.0672689210001, 34.073011780000044], [71.06261804200004, 34.05425323500004], [71.04670170100013, 34.041876729000094], [70.99771244300013, 34.03332428000006], [70.97714522300004, 34.02740732800006], [70.96572473200013, 34.013816427000066], [70.95399418200003, 34.00482472700013], [70.93973148600008, 34.00092315700007], [70.92123132300014, 34.00224090600001], [70.89430790300014, 34.00937225400008], [70.88433435100012, 34.00704681500012], [70.87999353000004, 33.994256898000046], [70.86221683700012, 33.964775492000044], [70.79131677300005, 33.95356170700008], [70.65618290200013, 33.9547502650001], [70.52197920700007, 33.938704732000055], [70.49149011200005, 33.93960907000009], [70.40896285000014, 33.95441436800002], [70.3281925870001, 33.957282410000104], [70.30989912900003, 33.9616749070001], [70.27558597800004, 33.97617014600003], [70.21884525600007, 33.98069183400006], [70.18622483844399, 33.82681706236883], [70.26259242287526, 33.74381632617367], [70.5445650423138, 33.67051361165792], [70.5151928944556, 33.572679404601445], [70.29444787600005, 33.31894928000006], [70.12479414900014, 33.199034119000075], [69.9947245680001, 33.1273330690001], [69.88093306500008, 33.089247539000056], [69.77184411600011, 33.11477569599998], [69.65019779400005, 33.08185780900005], [69.51418542500004, 33.056691386000104], [69.46850345900003, 32.99429209500006], [69.48721032700011, 32.8858749390001], [69.38716475400014, 32.785338440000075], [69.38323734600004, 32.74446238300008], [69.41910079000006, 32.70045990000001], [69.34354984600009, 32.55605011000007], [69.25156579600008, 32.500549621000104], [69.22800134300007, 32.42130381300008], [69.26443322800007, 32.32236928400008], [69.25998905400007, 32.23681894900003], [69.25104903100004, 32.130649720000065], [69.1885159171878, 32.035084219556126], [69.10513840659485, 31.824446298058135], [69.00859602590826, 31.719127337309136], [68.8681707449096, 31.705962467215514], [68.72774546391094, 31.76739852765243], [68.64436795331798, 31.863940908339007], [68.47761293213208, 31.938541838869547], [68.2801398807277, 31.942930128900755], [68.13971459972903, 31.89904722858867], [67.98612444863676, 31.76739852765243], [67.87202890782534, 31.65769127687222], [67.72721533679548, 31.61819666659135], [67.59556663585923, 31.626973246653765], [67.50780083523507, 31.504101125779936], [67.63506124614011, 31.407558745093358], [67.63944953617131, 31.289074914250737], [67.56046031560957, 31.24958030396986], [67.38931700439245, 31.25396859400107], [67.17867908289446, 31.359287554750065], [66.91976997105317, 31.42072361518698], [66.70913204955518, 31.183755953501734], [66.52043557821324, 31.07404870272153], [66.26591475640316, 30.83708104103629], [66.17376066574779, 30.529900738851715], [66.19131382587263, 30.170060956292645], [66.12110118537329, 29.89359868432653], [65.9148515539065, 29.718067083078203], [65.5901180915971, 29.595194962204374], [65.02841696760245, 29.542535481829876], [64.80022588597963, 29.52937061173625], [64.71684837538668, 29.5557003519235], [64.33945543270278, 29.64346615254766], [64.18147699157927, 29.678572472797327], [63.94450932989404, 29.652242732610077], [63.64171731774067, 29.59958325223558], [62.829883661967166, 29.551312061892293], [62.737729571311796, 29.507429161580212], [62.57097455012589, 29.498652581517796], [62.43932584918964, 29.524982321705043], [61.70209312394667, 29.7707265634527], [61.19743977035772, 29.994529355044314]]]}}, {"type": "Feature", "properties": {"fid": 2}, "geometry": {"type": "Polygon", "coordinates": [[[81.01858690693004, 30.114556723040995], [81.44861793899544, 30.058643495782487], [81.92604954585407, 30.0361231369684], [82.17248325203597, 30.052059093999283], [82.61066845380232, 29.81091954882753], [82.79956465512352, 29.751549512013938], [83.2081577770223, 29.636409798232606], [83.54301130870552, 29.31547165491762], [83.73773929644422, 29.27172134875035], [83.82676782976301, 29.099276210302385], [83.94387369559627, 29.08576399501393], [84.23213428841657, 29.171341358507462], [84.21315117297479, 28.864685981642396], [84.5659262914525, 28.708276112692115], [84.76506301487083, 28.565649966923022], [85.10989597690347, 28.645689978731664], [85.18126222327986, 28.59193122679272], [85.03277716516388, 28.414497750266868], [85.03667335006875, 28.31303417570995], [85.50482311412165, 28.328312754214444], [85.60759703491173, 28.361439630394532], [85.69947223047402, 28.27932316424132], [85.80347570215778, 28.166600020914274], [85.9591906960173, 28.24265806191155], [86.1123291359531, 28.33949560481212], [86.15736985358127, 28.38904039420311], [86.22042685826071, 28.398048537728748], [86.3465408676196, 28.44083721947551], [86.40734583641763, 28.280942671895495], [86.41860601582468, 28.105283873145616], [86.45238655404582, 28.08726758609435], [86.50868745108103, 28.085015550212937], [86.55618522455612, 28.12760526165956], [86.8064631254756, 28.083982775098516], [86.97316560589306, 27.979619570070636], [87.1337916561852, 27.86435055182063], [87.3024858425454, 27.85456887505527], [87.5401198847662, 27.848551782665027], [87.71929795410598, 27.83135456376091], [87.95950345107802, 27.945073615465436], [88.00519184897928, 27.965536361153696], [88.05002318660135, 27.666660777006527], [88.06723428419183, 27.42271247047589], [88.08578718916796, 27.20816206769589], [88.05372206890338, 27.107427447078653], [88.06498224831043, 27.031984245051458], [88.13029128887128, 26.929516612447358], [88.14734265332135, 26.68631653053975], [88.12583395125084, 26.547957076075704], [87.917193254172, 26.541668141654135], [87.71974467025478, 26.602945288387065], [87.5835732330705, 26.59613671652785], [87.40655036473092, 26.54847671351335], [87.27718749940585, 26.582519572809417], [87.18867606523607, 26.657413863260775], [87.09335605920707, 26.732308153712133], [87.00484462503728, 26.671031006979206], [86.8278217566977, 26.562093857231773], [86.52143602303305, 26.58932814466863], [86.24228457680526, 26.684648150697633], [85.9290902712814, 26.745925297430563], [85.75887597480104, 26.745925297430563], [85.0848273607388, 27.05231103109521], [84.94865592355451, 27.12720532154657], [84.73078162405966, 27.12720532154657], [84.70354733662279, 27.242951043153216], [84.5605673275793, 27.454016770788854], [84.39035303109894, 27.501676773803357], [84.24056445019622, 27.55614534867707], [84.01588157884214, 27.522102489381], [83.757155848192, 27.549336776817857], [83.44396154266813, 27.590188207973142], [83.25332153061014, 27.50848534566257], [82.94012722508627, 27.59699677983236], [82.6677843507177, 27.760402504453506], [82.30012147032011, 27.76721107631272], [82.11629003012132, 27.76721107631272], [81.81671286831589, 27.835296794904863], [81.56479570952494, 28.025936806962868], [81.27883569143795, 28.332322540627516], [81.13585568239445, 28.3731739717828], [80.9247899547588, 28.3731739717828], [80.81585280501136, 28.482111121530234], [80.35286991858477, 28.78168828333567], [80.16903847838599, 28.78168828333567], [80.1349956190899, 28.856582573787026], [80.1826556221044, 28.9382854360976], [80.2235070532597, 29.115308304437175], [80.27797562813342, 29.24467116976225], [80.24393276883734, 29.41488546624261], [80.29840134371106, 29.58509976272297], [80.38691277788084, 29.748505487344115], [80.46861564019142, 29.857442637091545], [80.61159564923491, 30.00042264613505], [80.74095851455999, 30.238722661207554], [81.01858690693004, 30.114556723040995]]]}}]}