{"type": "FeatureCollection", "features": [{"type": "Feature", "properties": {"group": "Turtle Islands", "km2": 1.6792}, "geometry": {"type": "Polygon", "coordinates": [[[118.018556, 6.1086147], [118.0158861, 6.1089871], [118.0150566, 6.108881], [118.013701, 6.108304], [118.0095443, 6.1128757], [118.0100066, 6.1131843], [118.0141477, 6.114423], [118.0168441, 6.1155976], [118.0175294, 6.1160764], [118.0183281, 6.1170883], [118.0182614, 6.1184652], [118.0185352, 6.1197379], [118.0188775, 6.1202882], [118.0206698, 6.1219975], [118.0215987, 6.1221509], [118.022861, 6.1227463], [118.0232351, 6.1226213], [118.0225055, 6.1218833], [118.0226669, 6.1205283], [118.0228902, 6.119699], [118.024208, 6.118748], [118.0253813, 6.1184444], [118.0267009, 6.1185254], [118.0279206, 6.1188291], [118.0285407, 6.1193353], [118.0285351, 6.1196997], [118.0274009, 6.1200489], [118.0257328, 6.1192961], [118.0266936, 6.1213386], [118.0271588, 6.1216647], [118.0281313, 6.1216057], [118.0291649, 6.1211989], [118.0293219, 6.1207362], [118.0302209, 6.1203769], [118.0307467, 6.1196049], [118.0315578, 6.119178], [118.0319928, 6.1186924], [118.0317831, 6.1183812], [118.0313232, 6.1182941], [118.030576, 6.1186441], [118.0294422, 6.1180572], [118.0285306, 6.1172247], [118.0265098, 6.1145718], [118.0229911, 6.1107627], [118.0206976, 6.1094469], [118.0192088, 6.108903], [118.018556, 6.1086147]]]}}, {"type": "Feature", "properties": {"group": "Turtle Islands", "km2": 1.3065}, "geometry": {"type": "Polygon", "coordinates": [[[118.3177794, 6.0739661], [118.3175518, 6.0735954], [118.316381, 6.07306], [118.3131355, 6.0731227], [118.3106156, 6.0722192], [118.3095822, 6.071493], [118.3081808, 6.0723492], [118.3079159, 6.0727116], [118.3081265, 6.0742949], [118.3096869, 6.0778982], [118.3108885, 6.0790924], [118.3111493, 6.0795845], [118.3129826, 6.0804966], [118.3138235, 6.080704], [118.3145785, 6.0816638], [118.3144377, 6.0820882], [118.3145577, 6.0824416], [118.3141346, 6.0834128], [118.3140709, 6.0839322], [118.3143009, 6.0842599], [118.3140595, 6.0851061], [118.3152464, 6.0855675], [118.3161684, 6.0862602], [118.3173325, 6.0866423], [118.3197746, 6.0864689], [118.3202346, 6.0860635], [118.3207711, 6.0849087], [118.3212948, 6.0823549], [118.3209977, 6.0817015], [118.3209089, 6.0807227], [118.3202346, 6.0801052], [118.3196755, 6.0800601], [118.3189258, 6.0795466], [118.3185704, 6.0787545], [118.3179165, 6.0782062], [118.3178347, 6.0740182], [118.3177794, 6.0739661]]]}}, {"type": "Feature", "properties": {"group": "Turtle Islands", "km2": 0.7019}, "geometry": {"type": "Polygon", "coordinates": [[[118.0740097, 6.2808419], [118.0711761, 6.2811735], [118.0706799, 6.2815494], [118.0706799, 6.2820453], [118.0714148, 6.2829331], [118.0731904, 6.2843435], [118.0758351, 6.2857698], [118.0763179, 6.2868469], [118.0768007, 6.2886972], [118.0772781, 6.2894757], [118.079161, 6.2900409], [118.0810386, 6.2895503], [118.0818057, 6.2885692], [118.0824521, 6.2853699], [118.0820525, 6.2837783], [118.0811352, 6.2829544], [118.080537, 6.2827332], [118.0793381, 6.2824959], [118.0777341, 6.2827625], [118.0769134, 6.2825385], [118.0763072, 6.2822346], [118.0750948, 6.2809922], [118.0742204, 6.2808322], [118.0740097, 6.2808419]]]}}, {"type": "Feature", "properties": {"group": "Turtle Islands", "km2": 0.5059}, "geometry": {"type": "Polygon", "coordinates": [[[118.1185417, 6.183949], [118.1177044, 6.1834992], [118.1165591, 6.1839645], [118.1153695, 6.1851311], [118.1146547, 6.1855565], [118.1145568, 6.1860218], [118.1150959, 6.1868831], [118.1160106, 6.1876271], [118.1178433, 6.1886505], [118.118623, 6.1896963], [118.1196852, 6.1900403], [118.1205355, 6.1905576], [118.1212248, 6.190659], [118.1225753, 6.1903763], [118.1238574, 6.189639], [118.1240371, 6.1888364], [118.1238198, 6.1874297], [118.1231184, 6.1862058], [118.1224532, 6.1856418], [118.1219061, 6.1853098], [118.1200017, 6.1847845], [118.1186874, 6.1840058], [118.1185417, 6.183949]]]}}, {"type": "Feature", "properties": {"group": "Turtle Islands", "km2": 0.3111}, "geometry": {"type": "Polygon", "coordinates": [[[118.0696741, 6.2313471], [118.0693173, 6.2312882], [118.0668604, 6.2293524], [118.0656695, 6.2281392], [118.0650603, 6.2279385], [118.0642962, 6.2280646], [118.0643097, 6.2288085], [118.0645886, 6.2295124], [118.0668658, 6.2320161], [118.067877, 6.232864], [118.0677965, 6.2341679], [118.0685046, 6.2345865], [118.0693763, 6.2354691], [118.0705726, 6.2359517], [118.0710795, 6.2351358], [118.0718467, 6.2346958], [118.0721068, 6.2342719], [118.0719352, 6.2320215], [118.0713665, 6.2316908], [118.0710071, 6.2311789], [118.069776, 6.2312536], [118.0696741, 6.2313471]]]}}, {"type": "Feature", "properties": {"group": "Turtle Islands", "km2": 0.0896}, "geometry": {"type": "Polygon", "coordinates": [[[118.060444, 6.1727194], [118.059868, 6.1719742], [118.0595803, 6.1719443], [118.0596098, 6.1732172], [118.0593726, 6.174283], [118.0595834, 6.175249], [118.0593341, 6.1763634], [118.060066, 6.1771383], [118.0615247, 6.1758559], [118.061468, 6.1744196], [118.0604836, 6.1729879], [118.060444, 6.1727194]]]}}, {"type": "Feature", "properties": {"group": "Turtle Islands", "km2": 0.0808}, "geometry": {"type": "Polygon", "coordinates": [[[118.149723, 6.2034328], [118.148295, 6.2051652], [118.1481479, 6.2057014], [118.1485337, 6.2061278], [118.1496602, 6.2064718], [118.1501028, 6.2063838], [118.1505293, 6.2059545], [118.1509772, 6.2047466], [118.1508672, 6.2034293], [118.1504166, 6.2027974], [118.1501967, 6.2028], [118.1498668, 6.203208], [118.149723, 6.2034328]]]}}, {"type": "Feature", "properties": {"group": "Turtle Islands", "km2": 0.0682}, "geometry": {"type": "Polygon", "coordinates": [[[118.1089305, 6.1668616], [118.1092036, 6.1675323], [118.1101155, 6.1678224], [118.1112462, 6.167417], [118.1115098, 6.166752], [118.1107063, 6.1645829], [118.1099482, 6.1652663], [118.1094873, 6.1654024], [118.1089771, 6.166439], [118.1089305, 6.1668616]]]}}, {"type": "Feature", "properties": {"group": "Turtle Islands", "km2": 0.0461}, "geometry": {"type": "Polygon", "coordinates": [[[117.9644017, 6.0712177], [117.9646054, 6.0704172], [117.9644505, 6.0692534], [117.9631221, 6.0683826], [117.9629736, 6.0680292], [117.9627366, 6.0680109], [117.9628146, 6.0687736], [117.9630447, 6.0691468], [117.9631277, 6.0707985], [117.9642698, 6.071423], [117.9644017, 6.0712177]]]}}, {"type": "Feature", "properties": {"group": "Mangsee Islands", "km2": 0.4569}, "geometry": {"type": "Polygon", "coordinates": [[[117.3088092, 7.5109656], [117.3116308, 7.5130238], [117.3132455, 7.5137099], [117.3145384, 7.5130504], [117.3154396, 7.5107741], [117.3154342, 7.5103965], [117.3153591, 7.5097104], [117.3148709, 7.5084766], [117.3140019, 7.5073331], [117.3119473, 7.5068757], [117.3109549, 7.5069502], [117.3092276, 7.5074342], [117.3080581, 7.5081894], [117.3077255, 7.5089659], [117.3075968, 7.509753], [117.3080528, 7.5102901], [117.3088092, 7.5109656]]]}}, {"type": "Feature", "properties": {"group": "Mangsee Islands", "km2": 0.2668}, "geometry": {"type": "Polygon", "coordinates": [[[117.2969538, 7.5244315], [117.2978765, 7.5239529], [117.3002744, 7.523336], [117.303198, 7.5230913], [117.3059606, 7.5226233], [117.3078543, 7.5229903], [117.3079884, 7.5223255], [117.3079133, 7.5220117], [117.3075968, 7.5217884], [117.3060787, 7.5210013], [117.3038471, 7.5204429], [117.3031336, 7.5205705], [117.3027903, 7.520847], [117.3023236, 7.5207513], [117.300607, 7.5212034], [117.2984129, 7.5222085], [117.2964281, 7.5235966], [117.2959506, 7.5242773], [117.2959667, 7.5246389], [117.296353, 7.5247613], [117.2966909, 7.5245804], [117.2969538, 7.5244315]]]}}, {"type": "Feature", "properties": {"group": "Mangsee Islands", "km2": 0.0549}, "geometry": {"type": "Polygon", "coordinates": [[[117.2923136, 7.5611098], [117.2932765, 7.5610247], [117.2971389, 7.5599106], [117.2999257, 7.558879], [117.300666, 7.5589561], [117.3004246, 7.5587567], [117.299931, 7.5585599], [117.2980696, 7.5589933], [117.294057, 7.5602324], [117.2930324, 7.5603174], [117.2920132, 7.5606923], [117.2920695, 7.5609343], [117.2923136, 7.5611098]]]}}, {"type": "Feature", "properties": {"group": "Miangas", "km2": 2.0686}, "geometry": {"type": "Polygon", "coordinates": [[[126.5820664, 5.5500368], [126.5816179, 5.5496143], [126.5818062, 5.5493449], [126.5815505, 5.5495751], [126.5806746, 5.5488001], [126.5800081, 5.5472184], [126.5798458, 5.5455352], [126.5796286, 5.5454551], [126.5793872, 5.5456393], [126.5781359, 5.5492606], [126.5778228, 5.549282], [126.5780179, 5.5495596], [126.5777097, 5.5500618], [126.5772671, 5.5498288], [126.5770146, 5.5502852], [126.5773837, 5.5504861], [126.5770765, 5.5513176], [126.5766674, 5.5538658], [126.5762584, 5.554082], [126.5761618, 5.5545078], [126.5769209, 5.556793], [126.57676, 5.5577113], [126.5769598, 5.5582372], [126.5789111, 5.5600552], [126.5791807, 5.5609075], [126.5790492, 5.561027], [126.5799478, 5.5629598], [126.5820681, 5.5658068], [126.582575, 5.5659457], [126.5827768, 5.5663121], [126.5854973, 5.565636], [126.5881875, 5.5645161], [126.5889694, 5.5649032], [126.5890713, 5.5655426], [126.5897164, 5.5655332], [126.5899202, 5.5651408], [126.5897901, 5.5646162], [126.5908858, 5.5621255], [126.5899403, 5.5609869], [126.5901348, 5.5597442], [126.5897754, 5.5594586], [126.5897512, 5.5579209], [126.5889479, 5.5556678], [126.587525, 5.5539178], [126.5838906, 5.5516166], [126.5821354, 5.5501089], [126.5822617, 5.5498388], [126.5820664, 5.5500368]]]}}, {"type": "Feature", "properties": {"group": "Cocos (Keeling) Islands", "km2": 6.8254}, "geometry": {"type": "Polygon", "coordinates": [[[96.8605294, -12.1927953], [96.8621739, -12.1939368], [96.8635373, -12.1963032], [96.864125, -12.1989241], [96.8639212, -12.2001641], [96.8636454, -12.2005474], [96.8622663, -12.2017686], [96.8609982, -12.2022143], [96.8559993, -12.2037046], [96.8513387, -12.2047291], [96.8498298, -12.2057086], [96.8489923, -12.2070625], [96.8460436, -12.2073146], [96.8414907, -12.2053092], [96.8398867, -12.2043098], [96.8393495, -12.2032944], [96.8393548, -12.2027228], [96.8360929, -12.1987553], [96.8348752, -12.1967723], [96.833362, -12.1948056], [96.8317144, -12.1931735], [96.8299367, -12.1905799], [96.8273578, -12.1876888], [96.8252882, -12.1862097], [96.820276, -12.1835217], [96.8198021, -12.1830908], [96.8194808, -12.1810791], [96.8195538, -12.1805677], [96.818315, -12.1778489], [96.8181042, -12.1770002], [96.8180123, -12.1736857], [96.8182674, -12.1731589], [96.8189516, -12.172959], [96.8193821, -12.1725062], [96.82002, -12.1712815], [96.8207474, -12.1689124], [96.821257, -12.1649924], [96.8210956, -12.1611101], [96.8202087, -12.156563], [96.8176122, -12.1472445], [96.8171113, -12.1449983], [96.8168704, -12.1424937], [96.8173709, -12.1418916], [96.8187404, -12.1411805], [96.8187838, -12.140195], [96.8202058, -12.1347577], [96.8203439, -12.1345538], [96.821258, -12.1344621], [96.8217113, -12.1348953], [96.8221772, -12.1360551], [96.8234222, -12.1375436], [96.82338, -12.1381936], [96.8242544, -12.140468], [96.8243513, -12.1416002], [96.8255246, -12.1450624], [96.8268147, -12.1516636], [96.8286896, -12.1566889], [96.8288988, -12.1584404], [96.8330373, -12.1659998], [96.8332306, -12.1670537], [96.8328691, -12.171801], [96.8319927, -12.1739133], [96.8307844, -12.174498], [96.831176, -12.1740385], [96.8318488, -12.1738042], [96.8318598, -12.1729975], [96.831523, -12.1727981], [96.8305652, -12.1730787], [96.8308352, -12.1723708], [96.8305464, -12.1719838], [96.8292329, -12.1719198], [96.8284997, -12.1720875], [96.8282345, -12.171932], [96.8276979, -12.1703704], [96.8289072, -12.1686837], [96.8297368, -12.1684119], [96.8302486, -12.1680065], [96.8310345, -12.1645471], [96.8306633, -12.1643128], [96.8300205, -12.1647276], [96.8303201, -12.1637851], [96.8302358, -12.162986], [96.8297335, -12.163044], [96.8293716, -12.1628213], [96.8289504, -12.1629372], [96.828425, -12.1609336], [96.8287508, -12.1596979], [96.8281296, -12.160418], [96.8278437, -12.1603095], [96.8279377, -12.1609385], [96.8275752, -12.1617009], [96.8272537, -12.161567], [96.8259883, -12.1622427], [96.8256122, -12.1621361], [96.8257273, -12.161809], [96.8259138, -12.1618874], [96.8261126, -12.1616849], [96.8272304, -12.1591641], [96.8278098, -12.1588284], [96.8279922, -12.1574283], [96.8275577, -12.1574335], [96.827665, -12.1580313], [96.8275148, -12.1583355], [96.8269139, -12.1585977], [96.8265411, -12.1584496], [96.8268201, -12.159033], [96.8264744, -12.1597936], [96.8257338, -12.1602443], [96.8252818, -12.1636229], [96.8246782, -12.1656753], [96.8248203, -12.1666222], [96.8251449, -12.1671815], [96.8244885, -12.1699415], [96.8244005, -12.1719248], [96.8240507, -12.1723287], [96.8238564, -12.1722441], [96.823808, -12.1717454], [96.823632, -12.1717436], [96.8231484, -12.1730159], [96.8232143, -12.1735117], [96.8229902, -12.1742099], [96.8223379, -12.175511], [96.8212951, -12.1765557], [96.8214099, -12.178166], [96.8212084, -12.1792137], [96.8208877, -12.1794622], [96.8212658, -12.1796385], [96.8211886, -12.1807362], [96.8213951, -12.1809], [96.8224482, -12.1806542], [96.8236756, -12.1808443], [96.8242153, -12.1811779], [96.8244052, -12.1816046], [96.824829, -12.181623], [96.8253976, -12.1798978], [96.82558, -12.1798034], [96.8259544, -12.1800011], [96.8256578, -12.1795832], [96.8261013, -12.178999], [96.8260731, -12.1778609], [96.8264703, -12.1777861], [96.8271233, -12.1788033], [96.8275053, -12.1790177], [96.827776, -12.1789127], [96.8284808, -12.179186], [96.8286739, -12.1779642], [96.8281911, -12.1777335], [96.8282099, -12.177529], [96.8287996, -12.177253], [96.8292607, -12.1774733], [96.8301352, -12.179213], [96.8299098, -12.1801856], [96.8302135, -12.1816908], [96.832775, -12.1851625], [96.8329668, -12.1853226], [96.8332745, -12.1851859], [96.8333198, -12.1857057], [96.8336497, -12.1860605], [96.834051, -12.1861268], [96.8342064, -12.1867842], [96.8345035, -12.1868937], [96.8352661, -12.1890679], [96.8383417, -12.1942418], [96.8392247, -12.1960696], [96.8409345, -12.1984861], [96.8411111, -12.199266], [96.8420983, -12.2009952], [96.8420725, -12.2016911], [96.8417644, -12.2024077], [96.8418664, -12.2027784], [96.8424585, -12.2030094], [96.842778, -12.2025046], [96.8430796, -12.2024569], [96.8444276, -12.2037236], [96.8449964, -12.2045895], [96.8467975, -12.2053343], [96.8483905, -12.2049466], [96.8491523, -12.2051065], [96.849213, -12.2045486], [96.8485273, -12.2043777], [96.8486292, -12.2038927], [96.8492919, -12.2033443], [96.8502506, -12.2032026], [96.8511559, -12.2025164], [96.851456, -12.2021181], [96.8512906, -12.20118], [96.851797, -12.2005044], [96.8528993, -12.200488], [96.8533875, -12.201452], [96.85369, -12.2015069], [96.8539588, -12.2011846], [96.8542815, -12.2012426], [96.854514, -12.200964], [96.8545943, -12.2002426], [96.854514, -12.1991004], [96.855223, -12.198777], [96.8551282, -12.1984004], [96.8555319, -12.1968891], [96.8564814, -12.1956595], [96.8573102, -12.1955022], [96.8578601, -12.1961964], [96.8595226, -12.1973382], [96.8600689, -12.1976926], [96.8605432, -12.1976652], [96.8596063, -12.1966212], [96.8590845, -12.1964368], [96.8589348, -12.1959627], [96.8603864, -12.1959479], [96.8603692, -12.1955035], [96.8591784, -12.1949162], [96.8592266, -12.1947196], [96.8607877, -12.1946829], [96.8599884, -12.1943028], [96.8591891, -12.1943998], [96.859181, -12.1940852], [96.8600447, -12.1939095], [96.8587626, -12.193511], [96.8587658, -12.1929661], [96.8581886, -12.1925856], [96.857325, -12.1922185], [96.8565713, -12.1924073], [96.8562735, -12.1922552], [96.8566953, -12.1918561], [96.8574302, -12.191725], [96.859908, -12.1924796], [96.8605294, -12.1927953]]]}}, {"type": "Feature", "properties": {"group": "Cocos (Keeling) Islands", "km2": 3.7006}, "geometry": {"type": "Polygon", "coordinates": [[[96.9254866, -12.1764134], [96.9251325, -12.1762492], [96.9244538, -12.1765758], [96.9246148, -12.1753768], [96.9242332, -12.1750184], [96.92422, -12.1746516], [96.9236033, -12.1744146], [96.9228995, -12.1736749], [96.922177, -12.1734727], [96.9218278, -12.1730641], [96.9224938, -12.172523], [96.9221679, -12.1731195], [96.9227451, -12.173041], [96.9229909, -12.1727353], [96.9228146, -12.172513], [96.9229186, -12.1723774], [96.9225878, -12.1725324], [96.9224146, -12.1716221], [96.9219074, -12.171168], [96.9215785, -12.1705428], [96.9212548, -12.1693549], [96.9214871, -12.1685227], [96.9210031, -12.1682854], [96.9212692, -12.1690275], [96.9202134, -12.1677363], [96.9203621, -12.1671146], [96.9205349, -12.1679023], [96.9205163, -12.1675949], [96.9214718, -12.1672346], [96.9217403, -12.1668478], [96.9213521, -12.166201], [96.9202884, -12.1663439], [96.9201992, -12.1667931], [96.9199541, -12.1666763], [96.9200526, -12.1663278], [96.9197638, -12.1662408], [96.9198145, -12.1655758], [96.9199464, -12.1659714], [96.920909, -12.1652459], [96.919034, -12.1653191], [96.9185081, -12.1650687], [96.9183028, -12.1647188], [96.9183466, -12.1645454], [96.9187873, -12.1648692], [96.919036, -12.1646615], [96.9188619, -12.1644829], [96.9175465, -12.1643262], [96.9175234, -12.1640807], [96.9170047, -12.1639498], [96.9170755, -12.1637758], [96.9173239, -12.1637834], [96.9177033, -12.1638871], [96.91772, -12.1642623], [96.9185558, -12.164181], [96.9190538, -12.1638744], [96.9181795, -12.163335], [96.9184759, -12.1630094], [96.9191226, -12.1629121], [96.9194158, -12.1626594], [96.9191015, -12.1620994], [96.9184333, -12.1617559], [96.9190098, -12.1611107], [96.9188755, -12.1608311], [96.9173881, -12.1609883], [96.917812, -12.1602534], [96.9181144, -12.1602981], [96.9178891, -12.1602181], [96.9179293, -12.1599677], [96.918893, -12.1592797], [96.9196186, -12.159035], [96.9210113, -12.1596111], [96.921307, -12.1610813], [96.9218579, -12.1618397], [96.9220351, -12.1630658], [96.9224844, -12.1636747], [96.9231389, -12.166181], [96.9244217, -12.1686578], [96.925001, -12.17021], [96.9259505, -12.1716966], [96.9267239, -12.1739058], [96.9277755, -12.1753935], [96.928314, -12.1769426], [96.9294119, -12.178734], [96.929614, -12.1809908], [96.9295329, -12.1823003], [96.9289184, -12.1844917], [96.9275543, -12.1862801], [96.9243, -12.1917458], [96.922894, -12.1957477], [96.9227674, -12.1959349], [96.922828, -12.1956346], [96.9227231, -12.1958397], [96.92255, -12.1967893], [96.9195341, -12.1999346], [96.917458, -12.2012112], [96.9167392, -12.2018833], [96.9101105, -12.204409], [96.903658, -12.2072659], [96.9022088, -12.2076681], [96.90062, -12.2076663], [96.8979388, -12.2085112], [96.8943915, -12.2088237], [96.8940228, -12.2085782], [96.8934052, -12.2057108], [96.8931459, -12.2053683], [96.892532, -12.2050455], [96.886892, -12.2034219], [96.8860472, -12.2029407], [96.8850829, -12.2018279], [96.8849188, -12.201216], [96.8854834, -12.1993797], [96.8854547, -12.1975343], [96.885641, -12.1967614], [96.8861567, -12.1960305], [96.887364, -12.1951382], [96.8879472, -12.1954612], [96.888128, -12.1959989], [96.8880036, -12.1963391], [96.8877237, -12.1958355], [96.8873135, -12.1957025], [96.8874826, -12.1954897], [96.8870549, -12.1956607], [96.8870335, -12.1959951], [96.887574, -12.1959134], [96.8875429, -12.1960997], [96.8877606, -12.1961016], [96.887329, -12.1964075], [96.8878034, -12.1962992], [96.8875195, -12.1966146], [96.8879738, -12.1966474], [96.8875137, -12.1968103], [96.8873815, -12.1975324], [96.8870303, -12.1977235], [96.8867307, -12.1983738], [96.8874166, -12.1989045], [96.8873176, -12.1993627], [96.8876228, -12.2000775], [96.8888847, -12.2002441], [96.8886359, -12.2000277], [96.8887968, -12.1998302], [96.8886442, -12.1997456], [96.8891858, -12.1994083], [96.8896339, -12.2001055], [96.8898264, -12.1999915], [96.8890511, -12.201153], [96.8899706, -12.2008965], [96.8906219, -12.199308], [96.8915628, -12.1989128], [96.8912852, -12.198866], [96.8914952, -12.1986304], [96.8922977, -12.1997643], [96.8923677, -12.2001405], [96.8922959, -12.200347], [96.8922863, -12.2001871], [96.8921708, -12.2002516], [96.8921515, -12.2005794], [96.8923025, -12.2004463], [96.8921647, -12.2008538], [96.8916243, -12.2010143], [96.8914154, -12.2015558], [96.8917425, -12.2019118], [96.8922525, -12.2016391], [96.8926897, -12.2017331], [96.8920353, -12.2028026], [96.8929701, -12.2031976], [96.8931547, -12.2020636], [96.8934801, -12.2017339], [96.893192, -12.2017455], [96.8938665, -12.2015053], [96.8944901, -12.2015567], [96.8946969, -12.2019923], [96.894441, -12.2016445], [96.8940071, -12.2018548], [96.8940851, -12.201623], [96.8937647, -12.2016744], [96.8945477, -12.2024412], [96.8946037, -12.2029464], [96.8942804, -12.2036408], [96.894332, -12.2046601], [96.894458, -12.2050857], [96.8949652, -12.2056094], [96.8948792, -12.2064159], [96.8951628, -12.2066119], [96.8961054, -12.2062786], [96.8962515, -12.2059454], [96.8960052, -12.2052033], [96.8955066, -12.2048421], [96.8949995, -12.2047553], [96.8950253, -12.2040356], [96.8966125, -12.2023191], [96.8971126, -12.2022112], [96.8973501, -12.2023778], [96.8974928, -12.2019029], [96.8982947, -12.2018482], [96.8985036, -12.2014924], [96.8983992, -12.2011125], [96.8969643, -12.2016268], [96.8975474, -12.2012103], [96.8984423, -12.2009314], [96.8989651, -12.2008875], [96.8991969, -12.2012599], [96.8990838, -12.2017136], [96.8991374, -12.2013478], [96.8987937, -12.2011437], [96.8986776, -12.2019432], [96.8992677, -12.2039387], [96.8996414, -12.204597], [96.9004735, -12.2041935], [96.900395, -12.2051921], [96.9007403, -12.2050688], [96.9010836, -12.2056348], [96.9014456, -12.2056792], [96.9015614, -12.2059036], [96.9023183, -12.2053356], [96.9028146, -12.2055291], [96.9032489, -12.2051774], [96.9035922, -12.2036614], [96.9035819, -12.2032588], [96.9032531, -12.203282], [96.9035736, -12.2019884], [96.9035343, -12.2012505], [96.903646, -12.2009696], [96.904223, -12.2005673], [96.9039893, -12.1998558], [96.903646, -12.1996072], [96.9038259, -12.1989947], [96.9036439, -12.1981255], [96.9031373, -12.1978], [96.9033523, -12.1975373], [96.9039107, -12.1976464], [96.9039955, -12.1972381], [96.9035919, -12.1970367], [96.903591, -12.1967653], [96.9037673, -12.196932], [96.9043843, -12.1966216], [96.9048414, -12.1967044], [96.9051102, -12.1970966], [96.9057763, -12.1965432], [96.9059871, -12.1966883], [96.9065139, -12.1962908], [96.9071509, -12.1978749], [96.9079844, -12.1983272], [96.9084498, -12.198185], [96.9089294, -12.1985943], [96.9098829, -12.1985666], [96.9102039, -12.1990777], [96.9110636, -12.1986287], [96.9117388, -12.1986739], [96.9119033, -12.1989897], [96.912233, -12.1989924], [96.9130485, -12.1982369], [96.9130759, -12.1988029], [96.9134908, -12.1997937], [96.9138646, -12.1994951], [96.9143054, -12.1996348], [96.9144802, -12.1993837], [96.9142504, -12.1984459], [96.9138512, -12.1981507], [96.9139838, -12.1980816], [96.9146285, -12.1992568], [96.9150592, -12.1995143], [96.9153449, -12.200247], [96.9149789, -12.1997914], [96.9151952, -12.2004805], [96.9154123, -12.2004744], [96.9157056, -12.200103], [96.9155586, -12.1995524], [96.9170739, -12.1989059], [96.9172387, -12.1990473], [96.9166061, -12.1993111], [96.9168655, -12.1996916], [96.9169896, -12.1992272], [96.9173023, -12.1993507], [96.9182678, -12.1984696], [96.9186402, -12.1978673], [96.91908, -12.1977776], [96.919665, -12.1970114], [96.9205617, -12.1965797], [96.9203801, -12.1955033], [96.919705, -12.1949354], [96.9193393, -12.1941618], [96.9198124, -12.1931831], [96.9204654, -12.1929692], [96.9200321, -12.1925543], [96.9197052, -12.1926795], [96.9194663, -12.1924641], [96.9195352, -12.1919258], [96.920397, -12.190811], [96.9205891, -12.1898741], [96.9200726, -12.1887037], [96.9199914, -12.18725], [96.9201938, -12.1886774], [96.9206235, -12.1893832], [96.9207326, -12.1898246], [96.9205976, -12.1902584], [96.9207631, -12.1903888], [96.9210353, -12.1901908], [96.9209982, -12.1897381], [96.9214414, -12.1892197], [96.9208198, -12.1871812], [96.9220197, -12.1871148], [96.9230518, -12.1876275], [96.9234401, -12.187606], [96.9235505, -12.1872924], [96.922564, -12.1859809], [96.9224241, -12.1852422], [96.9217609, -12.1851174], [96.9213108, -12.1847435], [96.9216279, -12.1849084], [96.921964, -12.1847626], [96.9220305, -12.1844499], [96.9217842, -12.1841705], [96.9225822, -12.184485], [96.9230284, -12.1842442], [96.9227959, -12.183681], [96.9235024, -12.1842162], [96.923799, -12.184167], [96.9238026, -12.1838139], [96.9240375, -12.1837864], [96.9243669, -12.1841354], [96.9255467, -12.1846893], [96.9256376, -12.1843901], [96.9246688, -12.1831704], [96.9252619, -12.18363], [96.9268906, -12.1838992], [96.9273023, -12.1836431], [96.9275143, -12.1831988], [96.9276417, -12.1827754], [96.9275035, -12.1824664], [96.9277517, -12.1819638], [96.9270354, -12.1814776], [96.9269939, -12.1811568], [96.9275062, -12.179876], [96.926884, -12.1789723], [96.926676, -12.1789283], [96.9265714, -12.1785835], [96.9268115, -12.178029], [96.9262415, -12.1773001], [96.9257976, -12.1773918], [96.9260326, -12.1768059], [96.9255468, -12.1764236], [96.9254866, -12.1764134]]]}}, {"type": "Feature", "properties": {"group": "Cocos (Keeling) Islands", "km2": 1.0464}, "geometry": {"type": "Polygon", "coordinates": [[[96.845229, -12.080261], [96.8448874, -12.081068], [96.8451033, -12.0817411], [96.8439352, -12.0818526], [96.8433559, -12.0824925], [96.8421516, -12.0822617], [96.8390477, -12.0799307], [96.8372031, -12.0787822], [96.8367174, -12.0787822], [96.836157, -12.0790653], [96.8356711, -12.0790031], [96.8345366, -12.0782964], [96.8332229, -12.0768484], [96.8315827, -12.0755901], [96.8319844, -12.0746699], [96.8330085, -12.0738914], [96.8336033, -12.0739143], [96.8346716, -12.0734968], [96.8367358, -12.073238], [96.8389611, -12.0725197], [96.8413836, -12.0727308], [96.8424135, -12.0732378], [96.8440805, -12.0747952], [96.8457775, -12.0773545], [96.8468303, -12.0802686], [96.8462932, -12.0798987], [96.845972, -12.0799843], [96.8457857, -12.0798189], [96.8453384, -12.0801244], [96.845229, -12.080261]]]}}, {"type": "Feature", "properties": {"group": "Cocos (Keeling) Islands", "km2": 0.9493}, "geometry": {"type": "Polygon", "coordinates": [[[96.893467, -12.1164586], [96.8937054, -12.1164436], [96.8937203, -12.116221], [96.8936663, -12.1160466], [96.8932177, -12.1159143], [96.8929683, -12.1143437], [96.8920779, -12.1132304], [96.8909084, -12.1124907], [96.8881166, -12.1122261], [96.8888703, -12.1121659], [96.8890786, -12.1114877], [96.8891063, -12.1108389], [96.888244, -12.1072486], [96.8889481, -12.106829], [96.889264, -12.1071067], [96.8891506, -12.107973], [96.8895955, -12.1090107], [96.8901266, -12.1092871], [96.8906658, -12.1092173], [96.891403, -12.1098061], [96.8917268, -12.110617], [96.8924671, -12.1108939], [96.8930357, -12.1116649], [96.8941812, -12.1124093], [96.8961043, -12.1145547], [96.8973836, -12.1152581], [96.8994379, -12.1158674], [96.9009341, -12.1169725], [96.9019407, -12.117416], [96.9027687, -12.1186022], [96.9038129, -12.1194379], [96.9049322, -12.12153], [96.90575, -12.1222197], [96.9055521, -12.1231118], [96.9041937, -12.1237465], [96.9037847, -12.1236272], [96.9026233, -12.1225743], [96.9022142, -12.1224143], [96.9014484, -12.1208356], [96.9009763, -12.1204581], [96.8998858, -12.1204632], [96.8970317, -12.1209836], [96.8963617, -12.1212841], [96.8958702, -12.1219811], [96.8956449, -12.1219433], [96.8954102, -12.1215298], [96.8935011, -12.121406], [96.8936774, -12.1205025], [96.8935067, -12.1168164], [96.8934041, -12.1166703], [96.8919567, -12.1168004], [96.8918393, -12.1166178], [96.8919272, -12.1164246], [96.8929301, -12.1165019], [96.893467, -12.1164586]]]}}, {"type": "Feature", "properties": {"group": "Cocos (Keeling) Islands", "km2": 0.3187}, "geometry": {"type": "Polygon", "coordinates": [[[96.8831933, -12.087379], [96.8855765, -12.0884908], [96.8867673, -12.0897188], [96.8873361, -12.0909588], [96.8878376, -12.092417], [96.8878081, -12.0931802], [96.8863758, -12.0944325], [96.8861465, -12.0928091], [96.8855833, -12.091604], [96.8848334, -12.0906987], [96.8833428, -12.0898498], [96.8815845, -12.0895581], [96.8804911, -12.0896369], [96.880023, -12.0899005], [96.8788657, -12.0897313], [96.8782461, -12.0900277], [96.8782461, -12.0903805], [96.8776214, -12.090795], [96.8774173, -12.0908224], [96.8771209, -12.0905182], [96.8771906, -12.0901012], [96.8779819, -12.089473], [96.878859, -12.0879164], [96.8793733, -12.0874662], [96.8801907, -12.0871682], [96.8808566, -12.0873431], [96.8821031, -12.0870625], [96.8826342, -12.0872083], [96.8831933, -12.087379]]]}}, {"type": "Feature", "properties": {"group": "Cocos (Keeling) Islands", "km2": 0.2615}, "geometry": {"type": "Polygon", "coordinates": [[[96.9157814, -12.1482437], [96.9169085, -12.1495735], [96.9185227, -12.1502093], [96.9197253, -12.14993], [96.9199157, -12.1496444], [96.9194558, -12.1489405], [96.9188347, -12.1486713], [96.9189988, -12.1481257], [96.9188054, -12.1479883], [96.9182166, -12.1480613], [96.9187922, -12.1463916], [96.9181067, -12.1460937], [96.9176526, -12.1461038], [96.9163189, -12.1463114], [96.9152606, -12.1467081], [96.9149237, -12.1464832], [96.9142199, -12.1448343], [96.9146103, -12.1446546], [96.9151452, -12.1447687], [96.9154644, -12.1446271], [96.9156119, -12.1442888], [96.916202, -12.1442128], [96.9170201, -12.1445904], [96.9176558, -12.1452853], [96.919941, -12.1450414], [96.920507, -12.1453875], [96.9208717, -12.1459146], [96.9215772, -12.1477186], [96.9211936, -12.1497482], [96.9207698, -12.1503539], [96.9194663, -12.1507311], [96.9167415, -12.1500346], [96.9153646, -12.150089], [96.9151244, -12.1497052], [96.9160399, -12.1497883], [96.9150922, -12.1489892], [96.9150687, -12.14872], [96.9153148, -12.1486541], [96.9156195, -12.1490952], [96.9157132, -12.1489577], [96.915473, -12.1486398], [96.9157382, -12.1482718], [96.9157814, -12.1482437]]]}}, {"type": "Feature", "properties": {"group": "Cocos (Keeling) Islands", "km2": 0.2334}, "geometry": {"type": "Polygon", "coordinates": [[[96.9162067, -12.1434357], [96.9164857, -12.1432242], [96.9163464, -12.1431668], [96.9164101, -12.1429315], [96.9170009, -12.1423326], [96.9162532, -12.1419978], [96.916467, -12.141654], [96.9162607, -12.1413016], [96.9157492, -12.14105], [96.9148895, -12.1414367], [96.9147724, -12.1412635], [96.9145548, -12.1415338], [96.9143768, -12.1413008], [96.9142427, -12.1416142], [96.9148341, -12.1415604], [96.914934, -12.1417355], [96.9147362, -12.1418941], [96.9134648, -12.1414792], [96.9132905, -12.1410727], [96.913387, -12.1407777], [96.9140013, -12.1406912], [96.9136083, -12.1411147], [96.9143539, -12.141098], [96.9149354, -12.1406676], [96.9151985, -12.1401725], [96.9157229, -12.1398955], [96.914991, -12.1396217], [96.9148777, -12.1393613], [96.9142586, -12.1395144], [96.9141168, -12.1392894], [96.9138345, -12.1394468], [96.9141822, -12.138947], [96.914708, -12.1388779], [96.9142306, -12.1386406], [96.9144532, -12.1382997], [96.9141635, -12.1379772], [96.9135869, -12.1379431], [96.9135708, -12.1377884], [96.9139329, -12.1376205], [96.9138283, -12.1373557], [96.9131966, -12.1375664], [96.9127956, -12.1374921], [96.9122753, -12.1367316], [96.9114145, -12.1362633], [96.9107911, -12.1369103], [96.9107652, -12.1364863], [96.9114922, -12.1353853], [96.9121625, -12.1350538], [96.9127145, -12.1352151], [96.9145578, -12.1367808], [96.9155479, -12.1386757], [96.9166828, -12.1397497], [96.91903, -12.1426219], [96.918908, -12.1437923], [96.9183141, -12.1442899], [96.9176826, -12.1443816], [96.9167887, -12.1441556], [96.9161297, -12.1435033], [96.9162067, -12.1434357]]]}}, {"type": "Feature", "properties": {"group": "Cocos (Keeling) Islands", "km2": 0.1473}, "geometry": {"type": "Polygon", "coordinates": [[[96.9160304, -12.1536211], [96.915223, -12.153309], [96.9155382, -12.152978], [96.9155275, -12.1527426], [96.9152297, -12.1527715], [96.9153048, -12.152896], [96.9149347, -12.1531976], [96.9138497, -12.1532539], [96.9125837, -12.1530075], [96.9135278, -12.1526692], [96.9137797, -12.1522449], [96.9148394, -12.1522628], [96.9166408, -12.1527967], [96.9191852, -12.1528349], [96.920434, -12.154124], [96.9199966, -12.1550311], [96.9181676, -12.1552052], [96.9164675, -12.1546856], [96.9151425, -12.1548744], [96.9151747, -12.1544076], [96.9148207, -12.1539724], [96.9150272, -12.1538832], [96.9144559, -12.1533955], [96.9149199, -12.153524], [96.9153249, -12.1540799], [96.9155261, -12.153857], [96.9162074, -12.1540117], [96.9164779, -12.1542903], [96.9160572, -12.1537535], [96.9160304, -12.1536211]]]}}, {"type": "Feature", "properties": {"group": "Cocos (Keeling) Islands", "km2": 0.081}, "geometry": {"type": "Polygon", "coordinates": [[[96.8482807, -12.1945453], [96.8490615, -12.1948208], [96.8501082, -12.1946622], [96.8518962, -12.1948638], [96.8520173, -12.1946732], [96.8524082, -12.1948211], [96.852784, -12.1947222], [96.8533714, -12.1950513], [96.8543182, -12.1949674], [96.8552248, -12.1952689], [96.8553535, -12.1955939], [96.8535506, -12.1953336], [96.8519525, -12.19559], [96.8509216, -12.1961608], [96.8505725, -12.1960095], [96.8505484, -12.1957853], [96.8509534, -12.1959072], [96.8518157, -12.1953881], [96.8502566, -12.1950557], [96.848462, -12.1956193], [96.8453241, -12.1959407], [96.8463491, -12.1950021], [96.8476308, -12.1945748], [96.8482807, -12.1945453]]]}}, {"type": "Feature", "properties": {"group": "Cocos (Keeling) Islands", "km2": 0.0762}, "geometry": {"type": "Polygon", "coordinates": [[[96.9082169, -12.1291325], [96.9077594, -12.1289632], [96.9083975, -12.1288552], [96.9077732, -12.1288636], [96.9070789, -12.1281445], [96.9072699, -12.1273019], [96.9074003, -12.1273018], [96.9075385, -12.127981], [96.9077241, -12.1278402], [96.9075866, -12.1274545], [96.9081299, -12.1272948], [96.9081819, -12.1268894], [96.9070973, -12.1269067], [96.9069316, -12.1272559], [96.9064313, -12.1275661], [96.9058826, -12.1272713], [96.9062089, -12.126742], [96.9065612, -12.1266264], [96.9071288, -12.1259771], [96.908165, -12.1259739], [96.9087333, -12.1262684], [96.9091911, -12.1268956], [96.9091997, -12.1273909], [96.9096037, -12.1281311], [96.9090979, -12.128914], [96.9083115, -12.1290992], [96.9082169, -12.1291325]]]}}, {"type": "Feature", "properties": {"group": "Cocos (Keeling) Islands", "km2": 0.0502}, "geometry": {"type": "Polygon", "coordinates": [[[96.9098534, -12.1334341], [96.9109418, -12.1328803], [96.911711, -12.1332708], [96.9117427, -12.1340538], [96.9098507, -12.1348892], [96.9089731, -12.1348098], [96.9089111, -12.1344041], [96.9085645, -12.1343212], [96.9079037, -12.1345823], [96.9079284, -12.1342008], [96.9090717, -12.1339304], [96.9095994, -12.1335642], [96.9098534, -12.1334341]]]}}, {"type": "Feature", "properties": {"group": "Cocos (Keeling) Islands", "km2": 0.0486}, "geometry": {"type": "Polygon", "coordinates": [[[96.9199636, -12.158523], [96.9200276, -12.1588488], [96.9191627, -12.1589342], [96.9197251, -12.1586225], [96.9189954, -12.158826], [96.916659, -12.1584002], [96.9157333, -12.1584865], [96.9152262, -12.1581657], [96.9163107, -12.1580565], [96.9181312, -12.1575025], [96.9193528, -12.1574929], [96.9198325, -12.1576744], [96.920007, -12.1584556], [96.9199636, -12.158523]]]}}, {"type": "Feature", "properties": {"group": "Cocos (Keeling) Islands", "km2": 0.0297}, "geometry": {"type": "Polygon", "coordinates": [[[96.878351, -12.1963952], [96.878721, -12.1964074], [96.8789899, -12.1968965], [96.8793715, -12.1970249], [96.8800405, -12.1965805], [96.8802107, -12.1971217], [96.879928, -12.1978958], [96.8790962, -12.1980886], [96.8783477, -12.1978244], [96.8782216, -12.1966529], [96.878351, -12.1963952]]]}}, {"type": "Feature", "properties": {"group": "Cocos (Keeling) Islands", "km2": 0.0287}, "geometry": {"type": "Polygon", "coordinates": [[[96.9147151, -12.1558751], [96.914011, -12.1556421], [96.9135178, -12.1550469], [96.9144081, -12.1555056], [96.9145832, -12.1550917], [96.9148721, -12.1553732], [96.9165668, -12.1549006], [96.9174284, -12.1551666], [96.9174841, -12.1557475], [96.916827, -12.1556243], [96.9159847, -12.1558629], [96.9149333, -12.1558183], [96.9147151, -12.1558751]]]}}, {"type": "Feature", "properties": {"group": "Cocos (Keeling) Islands", "km2": 0.0247}, "geometry": {"type": "Polygon", "coordinates": [[[96.8784187, -12.1997943], [96.8787404, -12.2006293], [96.8790446, -12.2005572], [96.8794893, -12.1998786], [96.8797618, -12.1999385], [96.8798011, -12.201565], [96.8786615, -12.2016259], [96.8781556, -12.2003645], [96.8783049, -12.1998574], [96.8784187, -12.1997943]]]}}, {"type": "Feature", "properties": {"group": "Cocos (Keeling) Islands", "km2": 0.0228}, "geometry": {"type": "Polygon", "coordinates": [[[96.9092453, -12.1321793], [96.9087787, -12.1319798], [96.9091294, -12.1316187], [96.9089651, -12.1311551], [96.9094603, -12.1309009], [96.9092551, -12.1313768], [96.9097604, -12.1312744], [96.9098275, -12.1309597], [96.9093366, -12.1306477], [96.9102834, -12.1304248], [96.9108885, -12.130598], [96.9101037, -12.1317517], [96.9093581, -12.132166], [96.9092453, -12.1321793]]]}}, {"type": "Feature", "properties": {"group": "Cocos (Keeling) Islands", "km2": 0.021}, "geometry": {"type": "Polygon", "coordinates": [[[96.8652273, -12.1983223], [96.8654728, -12.1976937], [96.8657893, -12.1989206], [96.866425, -12.1994791], [96.8667468, -12.2003625], [96.8662882, -12.2005592], [96.8657947, -12.2001659], [96.8657035, -12.1997701], [96.8653411, -12.1995697], [96.8652284, -12.1987814], [96.8652273, -12.1983223]]]}}, {"type": "Feature", "properties": {"group": "Labuan", "km2": 91.0402}, "geometry": {"type": "Polygon", "coordinates": [[[115.257917, 5.3093495], [115.2583998, 5.3089116], [115.261192, 5.3049108], [115.261471, 5.3038906], [115.2633914, 5.2997563], [115.2635282, 5.2987441], [115.264577, 5.2968986], [115.2646226, 5.2965941], [115.2642444, 5.296084], [115.2648398, 5.2945403], [115.2666664, 5.2921954], [115.2676427, 5.2913835], [115.2680102, 5.2907158], [115.2691166, 5.2896875], [115.2693634, 5.2891801], [115.2690777, 5.2884242], [115.2678063, 5.2872304], [115.2663794, 5.2865253], [115.2655694, 5.2848908], [115.2646387, 5.2846184], [115.2628684, 5.2829304], [115.2619564, 5.2806923], [115.2594942, 5.2764617], [115.2561066, 5.2742315], [115.2540949, 5.2725128], [115.2495632, 5.2729494], [115.2465525, 5.2741033], [115.244321, 5.2746653], [115.2433889, 5.2751503], [115.2433111, 5.2754214], [115.2417232, 5.2761131], [115.2416655, 5.2766085], [115.2414241, 5.2766753], [115.2405603, 5.2778994], [115.2401663, 5.2780879], [115.2396587, 5.2787998], [115.2391925, 5.2789008], [115.2386641, 5.2793729], [115.2387553, 5.2795144], [115.2383932, 5.2798817], [115.2379923, 5.2808164], [115.2392596, 5.2813132], [115.2382189, 5.2823535], [115.2402413, 5.2847733], [115.2376235, 5.2862075], [115.236167, 5.2858923], [115.2357908, 5.2867256], [115.2353248, 5.2866268], [115.2353114, 5.2862636], [115.2341983, 5.2851712], [115.2335653, 5.2841456], [115.2336243, 5.2821051], [115.2352765, 5.2814882], [115.2354938, 5.2800726], [115.2352658, 5.2789188], [115.2357566, 5.2780321], [115.2349386, 5.2779466], [115.2349775, 5.2776462], [115.2352779, 5.2776555], [115.2353302, 5.2773257], [115.2349131, 5.2764697], [115.2344786, 5.2763041], [115.2351263, 5.2740232], [115.23553, 5.2735144], [115.2368664, 5.2734256], [115.2374464, 5.2719078], [115.237897, 5.2720708], [115.2397612, 5.2675837], [115.2393159, 5.2673887], [115.2387822, 5.2686574], [115.2378327, 5.2682728], [115.2376395, 5.268425], [115.2371085, 5.2678228], [115.2365486, 5.2676578], [115.2367035, 5.2670469], [115.2364969, 5.2664833], [115.2366149, 5.2659144], [115.2376261, 5.2655031], [115.2388358, 5.2602975], [115.2405605, 5.2590849], [115.2407898, 5.2585945], [115.2410091, 5.2588619], [115.2412498, 5.2586522], [115.2418479, 5.2593119], [115.2433848, 5.2590662], [115.2441922, 5.2578696], [115.2456768, 5.2576586], [115.2457706, 5.2582369], [115.2448426, 5.2587577], [115.2450196, 5.2590675], [115.2459631, 5.258536], [115.2458833, 5.2574356], [115.246354, 5.2571645], [115.2463379, 5.2532008], [115.2457291, 5.2518226], [115.2449647, 5.2513579], [115.2443343, 5.2505352], [115.2440822, 5.2494802], [115.2442069, 5.2484092], [115.2411184, 5.2416088], [115.2401342, 5.2416082], [115.2360705, 5.2489781], [115.2356775, 5.2484973], [115.2333829, 5.2494936], [115.2301535, 5.2503149], [115.2265191, 5.2542011], [115.2284825, 5.2562831], [115.2278173, 5.2572607], [115.2241257, 5.2601862], [115.2247837, 5.2621725], [115.2242553, 5.2634518], [115.2239442, 5.263759], [115.2233273, 5.2655058], [115.2229571, 5.2681847], [115.2222544, 5.2689886], [115.22138, 5.2732086], [115.2209187, 5.2738656], [115.2194542, 5.2751503], [115.2194086, 5.2757619], [115.2188252, 5.2761598], [115.2187514, 5.276479], [115.216662, 5.2762079], [115.215573, 5.2763815], [115.2153705, 5.2769063], [115.214889, 5.2772469], [115.2148837, 5.2780375], [115.2146584, 5.2785022], [115.213092, 5.279453], [115.2123731, 5.27968], [115.2116275, 5.2791165], [115.2108483, 5.2792634], [115.2109864, 5.2786237], [115.2106726, 5.2785342], [115.2106458, 5.2781683], [115.2102864, 5.2779814], [115.2098519, 5.278179], [115.2094227, 5.2793248], [115.2085993, 5.2797788], [115.2047798, 5.2790898], [115.2011052, 5.2769451], [115.1993108, 5.277311], [115.1989219, 5.2779974], [115.1986429, 5.2781496], [115.1978382, 5.2780722], [115.1976331, 5.2778011], [115.1968566, 5.2776602], [115.1964609, 5.2785516], [115.1962262, 5.2779092], [115.1954028, 5.2775126], [115.1951641, 5.2770185], [115.1945083, 5.2774018], [115.1944493, 5.2778051], [115.1937063, 5.2775714], [115.1921225, 5.2765177], [115.1919629, 5.2756591], [115.1921412, 5.274552], [115.1914546, 5.2731204], [115.1915351, 5.2725969], [115.1895958, 5.2709544], [115.1892793, 5.2704415], [115.1891801, 5.2687923], [115.1894014, 5.2684157], [115.1822231, 5.2606748], [115.1808304, 5.2618627], [115.1791272, 5.261876], [115.1778129, 5.2614834], [115.175254, 5.2602534], [115.1749375, 5.2596859], [115.1738003, 5.2589327], [115.1732853, 5.257704], [115.1734731, 5.2572927], [115.1742992, 5.2566196], [115.1744936, 5.2560027], [115.1730895, 5.2553122], [115.1720434, 5.2543988], [115.1719321, 5.2538619], [115.1724525, 5.2534826], [115.1720434, 5.2526934], [115.1707171, 5.2516918], [115.1690662, 5.251032], [115.1682454, 5.250156], [115.1657188, 5.2494028], [115.1652306, 5.2485988], [115.164772, 5.248337], [115.16375, 5.2486789], [115.160518, 5.2505179], [115.1591903, 5.2504337], [115.1581416, 5.2507796], [115.1573087, 5.2507235], [115.1571212, 5.2512854], [115.1577473, 5.2531127], [115.1573744, 5.2558104], [115.1593485, 5.2577307], [115.1598662, 5.2595256], [115.1609659, 5.2604284], [115.1616713, 5.2623835], [115.1628891, 5.2644107], [115.163691, 5.2654043], [115.1651341, 5.266494], [115.166553, 5.2679576], [115.1669338, 5.2689592], [115.1671457, 5.2716381], [115.1690179, 5.2765151], [115.1710403, 5.2791939], [115.1718289, 5.2799391], [115.1723492, 5.28097], [115.1729983, 5.2837851], [115.172832, 5.2853582], [115.1723653, 5.2864879], [115.1720005, 5.2924064], [115.1724672, 5.2946445], [115.1736581, 5.2976357], [115.1739384, 5.2989992], [115.175018, 5.3006056], [115.1757878, 5.3023362], [115.1761472, 5.3038185], [115.1784915, 5.3077738], [115.1819032, 5.3112564], [115.1829654, 5.3132808], [115.184631, 5.3157912], [115.1849985, 5.3160356], [115.1848966, 5.3163354], [115.1841442, 5.3166846], [115.1854143, 5.3183337], [115.1859936, 5.3200456], [115.186007, 5.3233011], [115.1882762, 5.3263029], [115.1889119, 5.3279507], [115.1909906, 5.3311528], [115.1939812, 5.3345471], [115.1947939, 5.3381871], [115.1986429, 5.3435923], [115.1988575, 5.3443481], [115.1994234, 5.3450638], [115.1996326, 5.3459598], [115.1994221, 5.3463296], [115.1988816, 5.3463857], [115.1984484, 5.3468784], [115.197596, 5.3464746], [115.1974815, 5.3467956], [115.2008396, 5.348856], [115.2057883, 5.3514998], [115.2061638, 5.3520659], [115.2069068, 5.3542157], [115.2080159, 5.3558701], [115.2076934, 5.356503], [115.2082399, 5.3569943], [115.2094147, 5.3589131], [115.2111527, 5.3604513], [115.2116355, 5.3612925], [115.2142413, 5.3636078], [115.2143446, 5.3640377], [115.2155596, 5.3649671], [115.2187353, 5.3682384], [115.2196634, 5.3694935], [115.2199236, 5.3701704], [115.2205136, 5.3707018], [115.220869, 5.3716685], [115.2233621, 5.3731079], [115.2240729, 5.3739985], [115.2253228, 5.3745886], [115.2268437, 5.3761295], [115.2278924, 5.3768718], [115.2282096, 5.3781403], [115.2285918, 5.3781904], [115.2287467, 5.3784901], [115.229314, 5.3810791], [115.2298477, 5.3818041], [115.2304861, 5.383433], [115.2305035, 5.3840759], [115.2320525, 5.3845759], [115.2342895, 5.385807], [115.2358559, 5.3873397], [115.2367732, 5.3876829], [115.2368684, 5.3886662], [115.2399275, 5.3872169], [115.241742, 5.3869445], [115.2422369, 5.3871261], [115.2433312, 5.3881035], [115.2448989, 5.3884613], [115.2473652, 5.3900595], [115.2487104, 5.3912438], [115.2497014, 5.3916096], [115.2507448, 5.3925242], [115.2518687, 5.3931371], [115.2516407, 5.3910168], [115.2520122, 5.3898646], [115.252955, 5.3880073], [115.2540332, 5.3864211], [115.2551249, 5.3853083], [115.256993, 5.3841473], [115.2562923, 5.3839577], [115.2559905, 5.3836173], [115.255833, 5.3816278], [115.2555567, 5.381254], [115.2532339, 5.3809576], [115.2513, 5.3810083], [115.2508561, 5.3807012], [115.2501869, 5.3800576], [115.2495258, 5.3780735], [115.248591, 5.3778839], [115.248135, 5.3770401], [115.2476656, 5.3766822], [115.2470098, 5.3757089], [115.2470595, 5.3733375], [115.2468476, 5.3728155], [115.2469602, 5.3711558], [115.2467751, 5.3702278], [115.2459785, 5.3689968], [115.2443987, 5.3679366], [115.2441305, 5.3671248], [115.2437791, 5.3643502], [115.2437603, 5.3589264], [115.2440715, 5.3509817], [115.2448279, 5.3483406], [115.2448788, 5.3470266], [115.246291, 5.3442973], [115.2462119, 5.3440517], [115.2465136, 5.3432759], [115.2463058, 5.3428205], [115.2462709, 5.3417496], [115.2467886, 5.3407375], [115.2467912, 5.3395304], [115.2493313, 5.3355165], [115.249688, 5.3343922], [115.2497685, 5.3315801], [115.250777, 5.3278038], [115.2502191, 5.3257261], [115.2501976, 5.3250317], [115.2510559, 5.3208228], [115.2516943, 5.3190922], [115.2541593, 5.3159675], [115.2553394, 5.3136587], [115.2553073, 5.3127947], [115.2554816, 5.3123888], [115.2569354, 5.3102923], [115.2577051, 5.3095231], [115.257917, 5.3093495]]]}}, {"type": "Feature", "properties": {"group": "Labuan", "km2": 2.8047}, "geometry": {"type": "Polygon", "coordinates": [[[115.3241562, 5.2646448], [115.3216339, 5.2661425], [115.320263, 5.2666859], [115.3166094, 5.26766], [115.3140938, 5.2675938], [115.3124966, 5.2672492], [115.3071393, 5.2676335], [115.3063739, 5.2687535], [115.3063473, 5.270609], [115.306913, 5.2713314], [115.3085302, 5.2725838], [115.3089827, 5.2733062], [115.3091158, 5.2746117], [115.3105333, 5.2774744], [115.3106731, 5.2780974], [115.3124034, 5.2797077], [115.313029, 5.2811457], [115.3134349, 5.2814903], [115.3146661, 5.2818481], [115.3156644, 5.2818084], [115.3167292, 5.2813975], [115.3175145, 5.2807613], [115.3189187, 5.2805493], [115.3194178, 5.280271], [115.3202963, 5.2791709], [115.3229317, 5.2780576], [115.3261993, 5.2776004], [115.3288879, 5.2774479], [115.3293338, 5.2770503], [115.3267184, 5.274108], [115.3264189, 5.2741345], [115.3255804, 5.2750623], [115.3251078, 5.2748436], [115.3251478, 5.2753605], [115.3247152, 5.2762551], [115.3240697, 5.2760696], [115.3239698, 5.2755063], [115.3229849, 5.2744725], [115.3226189, 5.2761093], [115.3228451, 5.2770901], [115.322732, 5.2773883], [115.3210283, 5.2779648], [115.3210616, 5.2773684], [115.3221131, 5.27489], [115.3223327, 5.2734321], [115.3231646, 5.2729881], [115.3239432, 5.2727164], [115.3246553, 5.2727826], [115.3251345, 5.2735248], [115.3248882, 5.2741146], [115.3250746, 5.2744725], [115.3255005, 5.27434], [115.3258931, 5.2739026], [115.3259198, 5.2732399], [115.3262858, 5.272564], [115.3265853, 5.2722923], [115.3269846, 5.2722591], [115.3273639, 5.2724977], [115.3274571, 5.2729218], [115.3268981, 5.2736309], [115.3274105, 5.2742207], [115.3274371, 5.2746845], [115.3277765, 5.2744327], [115.3281292, 5.2729152], [115.3263657, 5.2702379], [115.3257334, 5.267216], [115.3265653, 5.2644062], [115.3264455, 5.2639755], [115.3267184, 5.2634453], [115.3263523, 5.2639026], [115.3255737, 5.2640351], [115.3241562, 5.2646448]]]}}, {"type": "Feature", "properties": {"group": "Labuan", "km2": 1.5976}, "geometry": {"type": "Polygon", "coordinates": [[[115.1354554, 5.2290377], [115.1358403, 5.2282577], [115.1367402, 5.2274497], [115.1387385, 5.2264641], [115.1375771, 5.2243807], [115.1375529, 5.2239987], [115.1381376, 5.2227407], [115.1391891, 5.2212956], [115.139468, 5.2199921], [115.1406911, 5.2190492], [115.1439661, 5.2176015], [115.1453823, 5.2168402], [115.1463667, 5.2160442], [115.1430702, 5.2178793], [115.1413643, 5.2185524], [115.1369789, 5.2190305], [115.1341458, 5.2187247], [115.1325908, 5.2182345], [115.1321563, 5.217914], [115.1317298, 5.2171554], [115.1313195, 5.2169765], [115.1300508, 5.2187634], [115.1291415, 5.2196849], [115.1282108, 5.2213223], [115.1272076, 5.2243941], [115.1259094, 5.2270277], [115.124453, 5.2285582], [115.123525, 5.2286651], [115.1223528, 5.2283446], [115.1214114, 5.2289749], [115.1209661, 5.2305108], [115.1211619, 5.2314109], [115.1222925, 5.2335571], [115.1229134, 5.2339551], [115.1231213, 5.2333781], [115.122959, 5.2318703], [115.1232044, 5.2315618], [115.1247715, 5.2305442], [115.1261723, 5.2301208], [115.1279452, 5.2291752], [115.1312792, 5.2283499], [115.1329556, 5.2285769], [115.1345676, 5.2291338], [115.1353548, 5.2290778], [115.1354554, 5.2290377]]]}}, {"type": "Feature", "properties": {"group": "Labuan", "km2": 0.1701}, "geometry": {"type": "Polygon", "coordinates": [[[115.3518594, 5.2858629], [115.3505252, 5.2870385], [115.3500212, 5.288542], [115.3501082, 5.2900982], [115.3514224, 5.2902906], [115.352667, 5.2895749], [115.3535388, 5.287779], [115.3533525, 5.2866656], [115.3535987, 5.2860758], [115.3536513, 5.2848389], [115.3534095, 5.2848882], [115.3532881, 5.2852267], [115.3534364, 5.2856442], [115.3518445, 5.2860505], [115.3533073, 5.2844967], [115.3545263, 5.2835852], [115.3547883, 5.2835476], [115.3553264, 5.2844329], [115.3552912, 5.284774], [115.3555059, 5.2848685], [115.3557274, 5.2834045], [115.3554048, 5.2830896], [115.355022, 5.2832226], [115.354721, 5.2830438], [115.3524014, 5.2852242], [115.3518594, 5.2858629]]]}}, {"type": "Feature", "properties": {"group": "Labuan", "km2": 0.131}, "geometry": {"type": "Polygon", "coordinates": [[[115.2689953, 5.252121], [115.2682959, 5.2518974], [115.2680142, 5.2524343], [115.2692287, 5.2547192], [115.2694589, 5.2548448], [115.2723742, 5.2549557], [115.2735798, 5.2543801], [115.2736267, 5.2539327], [115.2731574, 5.2528883], [115.2717733, 5.2530566], [115.2701814, 5.2528229], [115.2691805, 5.2521875], [115.2689953, 5.252121]]]}}]}