{"type": "FeatureCollection", "features": [{"type": "Feature", "properties": {"group": "Singapore", "km2": 657.6097}, "geometry": {"type": "LineString", "coordinates": [[103.8013355, 1.4681001], [103.8015975, 1.4684412], [103.8030522, 1.4690433], [103.8049065, 1.4695403], [103.8076479, 1.4656682], [103.8078188, 1.4657696], [103.805387, 1.4694191], [103.8053927, 1.4697255], [103.80869, 1.4705372], [103.8103583, 1.4699687], [103.8142386, 1.4705941], [103.8178091, 1.4707374], [103.8181627, 1.4705453], [103.8182771, 1.471563], [103.8182646, 1.4705251], [103.8199395, 1.4700987], [103.8223514, 1.4689723], [103.8223514, 1.4685004], [103.8220604, 1.4681848], [103.8209568, 1.4676281], [103.8192272, 1.4662438], [103.8180255, 1.4644762], [103.8184541, 1.4639199], [103.8188665, 1.4638595], [103.8192105, 1.4641906], [103.8203359, 1.4657403], [103.8220573, 1.466618], [103.8225745, 1.4659092], [103.8231324, 1.4660293], [103.8241553, 1.4654385], [103.8233659, 1.4640054], [103.824558, 1.463325], [103.8275713, 1.4685888], [103.8343429, 1.4647294], [103.8319868, 1.4605244], [103.832939, 1.4599834], [103.8352614, 1.464157], [103.8359855, 1.4642441], [103.8370894, 1.4639128], [103.8396032, 1.4625015], [103.8416342, 1.4604441], [103.8423763, 1.4605752], [103.8444212, 1.4592697], [103.8445593, 1.4594666], [103.8449369, 1.4584886], [103.8464052, 1.4575538], [103.8500919, 1.4558227], [103.8514035, 1.4542949], [103.8519126, 1.4529741], [103.8520917, 1.4512969], [103.8519115, 1.4514685], [103.8508214, 1.4511854], [103.8508643, 1.4507821], [103.8494911, 1.4502673], [103.8490619, 1.4496323], [103.8480491, 1.4491261], [103.8472766, 1.4495894], [103.8469236, 1.4501399], [103.8467948, 1.4513403], [103.8463749, 1.4523176], [103.8467077, 1.4523095], [103.8470358, 1.4533185], [103.8462686, 1.4541449], [103.8458937, 1.4540789], [103.8455911, 1.4534839], [103.8460353, 1.4504149], [103.8456864, 1.4497394], [103.845523, 1.4481751], [103.8459548, 1.4475988], [103.8464707, 1.4473801], [103.8471994, 1.4461058], [103.8476029, 1.4459637], [103.8476934, 1.4463636], [103.8464426, 1.4481606], [103.8486671, 1.4476932], [103.8512248, 1.4483539], [103.8522895, 1.4490496], [103.8532812, 1.4489908], [103.8548383, 1.4483195], [103.855388, 1.4474551], [103.8563861, 1.4436443], [103.8573417, 1.4416513], [103.8583083, 1.4407016], [103.8594879, 1.438596], [103.8610533, 1.4375066], [103.8622889, 1.4357528], [103.8625991, 1.434821], [103.8625348, 1.4333942], [103.8622574, 1.4333314], [103.8619127, 1.4320544], [103.8612565, 1.4317103], [103.8607058, 1.4307397], [103.8599206, 1.4305454], [103.8598888, 1.4288204], [103.8586758, 1.4279495], [103.8582242, 1.4280548], [103.8573767, 1.4253583], [103.8577526, 1.4251803], [103.8578642, 1.425413], [103.8581267, 1.4253153], [103.8585088, 1.4248975], [103.863166, 1.4227138], [103.8636564, 1.4227084], [103.8640205, 1.4230715], [103.8640014, 1.4234759], [103.8636222, 1.4235079], [103.8639737, 1.4238589], [103.8650027, 1.4240863], [103.8652071, 1.4237871], [103.8656742, 1.4236875], [103.867222, 1.424811], [103.8691816, 1.4266361], [103.8691097, 1.4275931], [103.8693164, 1.428038], [103.8705974, 1.429341], [103.8744358, 1.4315607], [103.8770922, 1.432001], [103.8802205, 1.4310709], [103.8864831, 1.426748], [103.8950369, 1.4218932], [103.8969491, 1.420606], [103.8977467, 1.4193187], [103.8979293, 1.4183101], [103.8998362, 1.417597], [103.9026353, 1.419586], [103.9045087, 1.4203636], [103.9066823, 1.4206395], [103.9082006, 1.4213245], [103.9106552, 1.4216577], [103.9126798, 1.421149], [103.9131429, 1.4205574], [103.9139439, 1.4185014], [103.9140967, 1.4163367], [103.9150359, 1.4164239], [103.9151523, 1.4169987], [103.9155547, 1.4173462], [103.9163703, 1.4172481], [103.9176169, 1.4158892], [103.9175105, 1.4156506], [103.9193816, 1.4138182], [103.9233367, 1.4111841], [103.9261963, 1.4082316], [103.9309806, 1.403902], [103.9312676, 1.4031566], [103.9311536, 1.4024527], [103.930797, 1.4019215], [103.9299344, 1.4015293], [103.9302513, 1.3997379], [103.9344408, 1.4011698], [103.9384828, 1.3974156], [103.9386841, 1.3970443], [103.9385858, 1.396594], [103.9366243, 1.3947667], [103.9360272, 1.3932999], [103.9369061, 1.3921151], [103.9371753, 1.3911524], [103.9379219, 1.3899151], [103.9407279, 1.3885175], [103.9432935, 1.3866799], [103.94439, 1.3861608], [103.9443395, 1.3859518], [103.9452485, 1.3851519], [103.9490378, 1.383088], [103.9538837, 1.3818086], [103.954451, 1.3817557], [103.9547018, 1.3819788], [103.954785, 1.381715], [103.9555904, 1.3814658], [103.9603741, 1.3811571], [103.9606795, 1.3814285], [103.96235, 1.3815633], [103.9644751, 1.382129], [103.9660241, 1.3814104], [103.9667447, 1.3818887], [103.9669518, 1.3817213], [103.9668976, 1.3811683], [103.9671295, 1.3810682], [103.9675589, 1.3812064], [103.9672423, 1.3832696], [103.9693261, 1.3846323], [103.9715909, 1.3868572], [103.9728687, 1.387487], [103.9727694, 1.3888191], [103.9731529, 1.3889465], [103.9731422, 1.3891717], [103.9734807, 1.3891064], [103.974103, 1.3905084], [103.9762886, 1.392127], [103.9793167, 1.3926427], [103.9814036, 1.3925776], [103.9816617, 1.39299], [103.9844044, 1.3924376], [103.9852582, 1.3926753], [103.9854151, 1.3921808], [103.9869612, 1.3917688], [103.9880179, 1.3908195], [103.9901005, 1.390055], [103.9901346, 1.3908811], [103.9884305, 1.3910959], [103.98754, 1.3924028], [103.9865413, 1.3926827], [103.9866452, 1.3932963], [103.9871885, 1.3933583], [103.9936241, 1.3906489], [103.9940015, 1.3907881], [103.9952181, 1.3901363], [103.9974462, 1.3896807], [103.9990392, 1.389038], [104.0002856, 1.387223], [104.0009852, 1.385158], [104.0019901, 1.384162], [104.0020348, 1.3837836], [104.0023427, 1.383812], [104.0025146, 1.3824528], [104.003403, 1.3801183], [104.0057428, 1.375174], [104.0063979, 1.3743244], [104.0073832, 1.3736639], [104.0088241, 1.3735765], [104.0087932, 1.3726546], [104.0065479, 1.3724714], [104.0059718, 1.3707509], [104.0062057, 1.3699826], [104.0089863, 1.36887], [104.0101775, 1.3687146], [104.0112707, 1.3689729], [104.0126401, 1.3700387], [104.0137145, 1.3701687], [104.0146138, 1.3697657], [104.0146166, 1.3695718], [104.0143587, 1.3696443], [104.0143083, 1.3692124], [104.0155066, 1.3683283], [104.0164092, 1.3679534], [104.016865, 1.3687274], [104.0165305, 1.3679116], [104.0168397, 1.367785], [104.0171685, 1.3685919], [104.0169346, 1.3677568], [104.0186722, 1.3669641], [104.0197166, 1.3668777], [104.019926, 1.3674867], [104.0209269, 1.367059], [104.0215854, 1.3664761], [104.0279791, 1.3637394], [104.032143, 1.3610105], [104.0327968, 1.3609769], [104.0371571, 1.3581474], [104.041388, 1.3548362], [104.0428028, 1.3529771], [104.0435056, 1.3508427], [104.0436265, 1.3494156], [104.0432083, 1.3487477], [104.0422786, 1.3486177], [104.0417628, 1.3493373], [104.0426175, 1.3508036], [104.0426802, 1.351485], [104.0423084, 1.352797], [104.0413844, 1.3541597], [104.0379002, 1.3570077], [104.0368169, 1.3571038], [104.034781, 1.3584462], [104.0344095, 1.3583391], [104.0331814, 1.3588141], [104.032582, 1.3585471], [104.0320901, 1.3576169], [104.0322813, 1.3564175], [104.031809, 1.3549178], [104.0322532, 1.3537019], [104.0321785, 1.3533242], [104.0306812, 1.3507193], [104.0305364, 1.3495974], [104.0292483, 1.3479562], [104.0282036, 1.3461187], [104.0257504, 1.3401093], [104.0246007, 1.3362684], [104.0240732, 1.3355936], [104.023766, 1.3346495], [104.0230855, 1.3346481], [104.0222966, 1.3332111], [104.0218937, 1.3304341], [104.0212558, 1.329377], [104.020994, 1.3277983], [104.0216109, 1.3264268], [104.0224363, 1.3255581], [104.0235735, 1.3248466], [104.0242141, 1.3247615], [104.0323397, 1.3249192], [104.0326033, 1.3242582], [104.0327678, 1.3179945], [104.0335984, 1.3174026], [104.0327311, 1.3161314], [104.0324691, 1.3161277], [104.0324743, 1.3159048], [104.0288982, 1.3158118], [104.0287502, 1.3201058], [104.0229163, 1.3199628], [104.0230129, 1.3157211], [104.0224127, 1.3156975], [104.0223475, 1.3154315], [104.022205, 1.3156894], [104.0221539, 1.3154231], [104.0221485, 1.3156871], [104.0193805, 1.3155765], [104.0193703, 1.3158149], [104.0153942, 1.3157012], [104.0150812, 1.312266], [104.0145421, 1.3109789], [104.0131983, 1.3098044], [104.0116292, 1.3093995], [104.0099931, 1.3097534], [104.0065116, 1.3112819], [104.0056776, 1.3114456], [104.0021591, 1.3104685], [104.0006331, 1.3103307], [103.9983962, 1.3107016], [103.9981484, 1.3103246], [103.9976516, 1.3107381], [103.9977907, 1.3113888], [103.9972405, 1.3118722], [103.9959061, 1.3122951], [103.9957509, 1.3125459], [103.9906944, 1.3140089], [103.9839632, 1.3120555], [103.9849624, 1.3126622], [103.9852381, 1.3133709], [103.9843444, 1.3165944], [103.9836263, 1.3168037], [103.9827923, 1.3164509], [103.9797979, 1.3168628], [103.9768069, 1.3156989], [103.9767675, 1.3151917], [103.9766152, 1.3163582], [103.9757511, 1.3163696], [103.9750859, 1.3160449], [103.9748177, 1.3163027], [103.974025, 1.316033], [103.9720383, 1.3161128], [103.9710642, 1.3155508], [103.9708016, 1.3159351], [103.9704033, 1.3159948], [103.96875, 1.3151738], [103.9685603, 1.3154633], [103.9680625, 1.3153762], [103.9664125, 1.3146301], [103.9661364, 1.3148675], [103.965393, 1.3146546], [103.9638628, 1.3139334], [103.9634684, 1.3148074], [103.9631328, 1.3146561], [103.9634305, 1.3137396], [103.9630477, 1.3145882], [103.9624684, 1.3147688], [103.9611294, 1.3135224], [103.9589319, 1.3129516], [103.9583246, 1.3122684], [103.9581175, 1.312379], [103.9563427, 1.3117832], [103.9557581, 1.3112303], [103.9557369, 1.3115983], [103.9551986, 1.3117068], [103.9538231, 1.3113176], [103.953346, 1.3109213], [103.9533348, 1.3112006], [103.9528654, 1.311226], [103.9512568, 1.3105843], [103.9512413, 1.3109006], [103.9507538, 1.3109243], [103.9494797, 1.3105895], [103.9490423, 1.3102311], [103.9490146, 1.3105293], [103.9484733, 1.3105599], [103.9428056, 1.3085382], [103.9425729, 1.3086791], [103.942018, 1.3084012], [103.942098, 1.3081509], [103.941975, 1.3083842], [103.9397502, 1.3073698], [103.9370621, 1.306578], [103.9368669, 1.3062889], [103.9337105, 1.3052104], [103.9335464, 1.3048712], [103.933629, 1.3051206], [103.9322286, 1.3055465], [103.931474, 1.3050634], [103.9300032, 1.3046624], [103.9297697, 1.3043669], [103.9296148, 1.3045226], [103.9285375, 1.3041645], [103.9281613, 1.3039213], [103.9282951, 1.3037182], [103.9275914, 1.3039694], [103.9270636, 1.3037402], [103.9272159, 1.3034796], [103.9269324, 1.3034605], [103.9268711, 1.3037879], [103.9261628, 1.3036615], [103.9261383, 1.303248], [103.9258548, 1.3032288], [103.9258258, 1.3035995], [103.9254014, 1.3036325], [103.9240508, 1.3033146], [103.9238565, 1.3030586], [103.9239972, 1.3029181], [103.923747, 1.3028717], [103.9238105, 1.3030738], [103.9234555, 1.3032003], [103.9224851, 1.3030128], [103.9216847, 1.3025858], [103.9197169, 1.3020922], [103.9198278, 1.3015546], [103.9192715, 1.3017824], [103.9178443, 1.3016807], [103.917472, 1.3013939], [103.9171641, 1.301567], [103.9155711, 1.3009665], [103.9149628, 1.3003951], [103.9146196, 1.3005727], [103.9131341, 1.3000263], [103.9127519, 1.2997178], [103.9128639, 1.2994934], [103.9124329, 1.2992512], [103.9122149, 1.299439], [103.9057065, 1.2974945], [103.9046, 1.2970233], [103.9047292, 1.2963853], [103.9044496, 1.2972063], [103.9033622, 1.2968287], [103.9030484, 1.2969185], [103.8977072, 1.2946957], [103.8965842, 1.2937382], [103.8968126, 1.2934476], [103.8963751, 1.293177], [103.8959518, 1.293963], [103.8949717, 1.2937798], [103.8943806, 1.2933873], [103.8941236, 1.2936204], [103.8936756, 1.2935206], [103.8905372, 1.2911843], [103.8896991, 1.290127], [103.8896033, 1.2905553], [103.888922, 1.2904695], [103.8863252, 1.2884203], [103.8856583, 1.2874658], [103.8860834, 1.2867607], [103.8864745, 1.2867473], [103.8864595, 1.2865053], [103.8858402, 1.2861037], [103.8858754, 1.2866259], [103.88541, 1.2873335], [103.8850051, 1.2870273], [103.8845843, 1.2872195], [103.8830024, 1.2861138], [103.8821383, 1.2848874], [103.8810889, 1.2850165], [103.8802922, 1.2839692], [103.8758917, 1.2807729], [103.8770222, 1.2806149], [103.8776304, 1.2809342], [103.877689, 1.280735], [103.8768012, 1.2805156], [103.8757276, 1.280717], [103.8737332, 1.2822075], [103.8714396, 1.2805089], [103.8713825, 1.2801242], [103.8719247, 1.2792573], [103.872107, 1.2782819], [103.8716769, 1.2768781], [103.8630622, 1.2704344], [103.8632418, 1.2701822], [103.8599603, 1.2677976], [103.8617123, 1.2653498], [103.8608496, 1.2647333], [103.8578882, 1.2684635], [103.8579205, 1.2689536], [103.8584803, 1.2693501], [103.8566136, 1.2701383], [103.8567208, 1.2703364], [103.8528177, 1.2726988], [103.8515837, 1.2728896], [103.8515877, 1.2635682], [103.8512267, 1.2635644], [103.850677, 1.2630527], [103.8520924, 1.261483], [103.8512672, 1.2607513], [103.8457078, 1.2668381], [103.8442944, 1.2655398], [103.8467367, 1.2624697], [103.8459326, 1.2615662], [103.839443, 1.2676396], [103.8321284, 1.2674099], [103.8243814, 1.2630569], [103.8198678, 1.2630629], [103.8198264, 1.2619207], [103.8176038, 1.2619421], [103.817606, 1.2621607], [103.8197343, 1.262246], [103.8195978, 1.263218], [103.8157376, 1.2638305], [103.8129895, 1.2662256], [103.8111911, 1.2663919], [103.8100826, 1.2646476], [103.8098863, 1.2652287], [103.8097039, 1.2650134], [103.8094955, 1.2651682], [103.8084546, 1.2650171], [103.8066972, 1.2662112], [103.8069026, 1.26556], [103.8062524, 1.2649627], [103.8064707, 1.2646725], [103.8054661, 1.2635417], [103.8052087, 1.2637021], [103.8054425, 1.262903], [103.8051087, 1.2622595], [103.8009866, 1.2658958], [103.8012572, 1.2664489], [103.799017, 1.2682774], [103.798755, 1.2681845], [103.7984248, 1.2684164], [103.7983985, 1.2688813], [103.7976224, 1.268478], [103.7975845, 1.2689702], [103.7972307, 1.2692069], [103.7973034, 1.2700277], [103.7962125, 1.2696566], [103.7955337, 1.2700688], [103.7954102, 1.2704871], [103.7951769, 1.2704617], [103.7955388, 1.271207], [103.7952699, 1.2715543], [103.7854677, 1.2550021], [103.7785256, 1.2591831], [103.7865584, 1.2727904], [103.7768424, 1.2786755], [103.770638, 1.2682079], [103.750146, 1.280484], [103.7529838, 1.2852976], [103.7564385, 1.2858114], [103.7690958, 1.2783512], [103.7722997, 1.2836751], [103.7606878, 1.2905786], [103.7608335, 1.2908232], [103.7601473, 1.2912318], [103.7602464, 1.2913981], [103.7609368, 1.2909869], [103.7630119, 1.294433], [103.7629741, 1.2947408], [103.7624769, 1.2952063], [103.7621178, 1.2947811], [103.7618995, 1.2948884], [103.7622002, 1.2952151], [103.7618965, 1.2958599], [103.7614588, 1.2960326], [103.7601708, 1.2973363], [103.7586767, 1.2991799], [103.7553429, 1.2971268], [103.7530022, 1.296833], [103.7529181, 1.2973472], [103.7527497, 1.2973151], [103.75284, 1.2967442], [103.7519879, 1.2968813], [103.7516934, 1.2965047], [103.7506088, 1.29639], [103.7498576, 1.296574], [103.7498576, 1.2963445], [103.7491621, 1.2962809], [103.7489624, 1.2965328], [103.7441707, 1.2980184], [103.7438051, 1.2984317], [103.7437491, 1.2989607], [103.7447228, 1.3008007], [103.7439819, 1.3008611], [103.7433896, 1.2997932], [103.7436543, 1.3006955], [103.7431731, 1.3011299], [103.7408135, 1.2987836], [103.7360153, 1.3000842], [103.7320321, 1.3008099], [103.7297772, 1.3015932], [103.7279367, 1.3001075], [103.7225008, 1.302847], [103.7158417, 1.3084267], [103.7127265, 1.3084825], [103.7127174, 1.3088684], [103.7121644, 1.3088043], [103.7121609, 1.3078172], [103.7125573, 1.3065835], [103.7142559, 1.3062775], [103.7146266, 1.3065352], [103.7209392, 1.3011737], [103.7207002, 1.3008978], [103.7208746, 1.3005457], [103.7204116, 1.2997624], [103.7219378, 1.2997201], [103.7219279, 1.2994621], [103.7118883, 1.2995865], [103.711853, 1.2971587], [103.7113395, 1.2971629], [103.7114482, 1.3066774], [103.7112425, 1.30778], [103.7108258, 1.3084149], [103.7098233, 1.3079544], [103.7098236, 1.3077406], [103.7083835, 1.3076134], [103.7086886, 1.302048], [103.7023992, 1.3018237], [103.7023421, 1.3039438], [103.701611, 1.3043182], [103.7012992, 1.3041215], [103.699973, 1.3049219], [103.6994275, 1.3048883], [103.6978993, 1.3067027], [103.6975186, 1.3079392], [103.695124, 1.3078075], [103.6938485, 1.3063977], [103.6936115, 1.3051766], [103.6938521, 1.3028241], [103.6937283, 1.3009067], [103.690956, 1.2998942], [103.6877933, 1.2999337], [103.6877652, 1.2997686], [103.6838606, 1.2990801], [103.6835025, 1.3008297], [103.6832007, 1.3050803], [103.6830085, 1.3051607], [103.6830723, 1.3056311], [103.6835178, 1.3056311], [103.6835121, 1.3058058], [103.6829926, 1.3058818], [103.6829103, 1.3061431], [103.6833715, 1.3062009], [103.6833687, 1.3063955], [103.6828491, 1.3064449], [103.6828896, 1.3075531], [103.6826831, 1.307667], [103.6825949, 1.3084705], [103.6830352, 1.3084948], [103.6830343, 1.3087891], [103.6825487, 1.3087835], [103.6813899, 1.3100089], [103.681241, 1.3098435], [103.6814154, 1.3092933], [103.6806826, 1.3086768], [103.6808719, 1.3074054], [103.6800623, 1.3077602], [103.6799362, 1.3074632], [103.6809271, 1.3070165], [103.6811306, 1.3050551], [103.6809981, 1.3043912], [103.6813372, 1.3039156], [103.6815497, 1.302475], [103.6818445, 1.2996257], [103.6816146, 1.2992734], [103.681904, 1.2979865], [103.6801249, 1.2971736], [103.6778311, 1.2996652], [103.6774325, 1.2992847], [103.6793691, 1.2971788], [103.6784339, 1.2965888], [103.6732136, 1.3022238], [103.6728648, 1.3039906], [103.6727046, 1.306794], [103.6687381, 1.3062925], [103.669502, 1.3004336], [103.6705174, 1.2995877], [103.6743803, 1.2952635], [103.6727579, 1.2936083], [103.6722564, 1.2934135], [103.664496, 1.2869247], [103.6643489, 1.2871079], [103.6664408, 1.288846], [103.6652019, 1.2903589], [103.6654889, 1.2906139], [103.6647575, 1.2918636], [103.658785, 1.2953365], [103.6591928, 1.2961112], [103.6582254, 1.2972388], [103.6566389, 1.2958482], [103.656075, 1.2965876], [103.6549011, 1.2956166], [103.654784, 1.2957579], [103.6573391, 1.2979103], [103.656511, 1.2989202], [103.656099, 1.2990832], [103.6558334, 1.2988959], [103.6551805, 1.299631], [103.6530519, 1.2978329], [103.6529387, 1.2979672], [103.6549282, 1.2996593], [103.653751, 1.3010146], [103.6517678, 1.2993374], [103.6516658, 1.2994613], [103.6538227, 1.3013019], [103.6535304, 1.3016577], [103.651357, 1.2998337], [103.651225, 1.2999916], [103.6537425, 1.3021455], [103.653356, 1.3025933], [103.6508446, 1.3004613], [103.649821, 1.3016827], [103.6535165, 1.3059708], [103.6539114, 1.3059415], [103.6537672, 1.3062204], [103.6545638, 1.3054903], [103.654798, 1.3057262], [103.6540041, 1.3064885], [103.6574369, 1.3099816], [103.6570286, 1.3111274], [103.6562169, 1.3114669], [103.6558376, 1.3110652], [103.6559485, 1.3108622], [103.6555659, 1.3111385], [103.6554301, 1.3104954], [103.6547072, 1.3100162], [103.6546041, 1.3097071], [103.6540343, 1.3102113], [103.6537673, 1.3099288], [103.6542997, 1.3094121], [103.6538859, 1.3089751], [103.6535253, 1.309331], [103.6535612, 1.3090266], [103.6528468, 1.3080148], [103.6526056, 1.3080229], [103.6513508, 1.3066987], [103.6509302, 1.3059266], [103.6489539, 1.3038054], [103.6488416, 1.3039198], [103.6497721, 1.3048942], [103.6496157, 1.3050548], [103.649789, 1.3052323], [103.6494529, 1.305264], [103.6470817, 1.3075309], [103.6464222, 1.3082651], [103.6461727, 1.3089633], [103.6468921, 1.3099975], [103.6472334, 1.3103263], [103.6474537, 1.3101185], [103.6489088, 1.3119259], [103.6514991, 1.3144883], [103.6520127, 1.3152246], [103.6517879, 1.3156879], [103.6506948, 1.3168183], [103.6501898, 1.3165918], [103.6503802, 1.3168767], [103.6500171, 1.3167616], [103.6502747, 1.3170506], [103.6496585, 1.3173514], [103.6463112, 1.3138842], [103.6456729, 1.3144684], [103.6455471, 1.3143274], [103.6461014, 1.3136691], [103.6432811, 1.3113296], [103.6424911, 1.311696], [103.6415238, 1.3126226], [103.6411852, 1.3122619], [103.6414384, 1.3127051], [103.6410042, 1.3124353], [103.6412882, 1.3128445], [103.6404806, 1.3133562], [103.6396284, 1.3124489], [103.6403472, 1.313388], [103.639829, 1.3135494], [103.6401457, 1.3139256], [103.6399558, 1.3141103], [103.6396169, 1.3137434], [103.6398531, 1.3143038], [103.638949, 1.3151635], [103.6386401, 1.3151949], [103.6376362, 1.3164053], [103.6361542, 1.3143854], [103.6349531, 1.311947], [103.6351888, 1.3109266], [103.6381346, 1.307501], [103.6392268, 1.3050217], [103.641125, 1.3018534], [103.6417319, 1.3003993], [103.6415953, 1.3003142], [103.6417761, 1.3003338], [103.6425874, 1.2989257], [103.6427412, 1.2980115], [103.6431673, 1.2978363], [103.6499455, 1.2854273], [103.6502142, 1.2844116], [103.6502577, 1.2835014], [103.6497587, 1.2815863], [103.6486384, 1.2801435], [103.647855, 1.2795914], [103.6462029, 1.2789789], [103.6412657, 1.2792665], [103.6411959, 1.2786645], [103.6406472, 1.2787019], [103.6406722, 1.2790552], [103.6404044, 1.2790737], [103.6397618, 1.26987], [103.6433805, 1.2697413], [103.6433615, 1.2608616], [103.6173641, 1.2608642], [103.6173833, 1.2539959], [103.6443543, 1.2539721], [103.644321, 1.2479939], [103.6377435, 1.2450213], [103.6173517, 1.2450108], [103.6173766, 1.2381028], [103.6498592, 1.238064], [103.6498525, 1.2292158], [103.6190563, 1.2291768], [103.6188969, 1.2209675], [103.6231756, 1.2205489], [103.6380457, 1.2204416], [103.638668, 1.2211066], [103.6396582, 1.2211168], [103.6442313, 1.2117801], [103.6432969, 1.2104177], [103.6422446, 1.2101324], [103.6090152, 1.2186828], [103.6077535, 1.2192416], [103.6065438, 1.2203722], [103.6056666, 1.2227282], [103.6064494, 1.2221041], [103.6066639, 1.2228443], [103.6066425, 1.2236595], [103.6059987, 1.2245819], [103.6060793, 1.235822], [103.6057265, 1.2436668], [103.6124535, 1.2436641], [103.6124575, 1.2463765], [103.6060202, 1.2463953], [103.6060162, 1.2466246], [103.6088741, 1.2466125], [103.6088587, 1.2495911], [103.6060024, 1.2495864], [103.6059974, 1.249814], [103.6088563, 1.2498136], [103.6088781, 1.252693], [103.6060256, 1.2526715], [103.6060202, 1.2528968], [103.6120105, 1.2529636], [103.611983, 1.2556697], [103.6057123, 1.2556902], [103.6057107, 1.2559112], [103.6097565, 1.2559028], [103.6097612, 1.2573207], [103.6097646, 1.2602094], [103.6057252, 1.2602067], [103.6057198, 1.2611211], [103.6098424, 1.2611453], [103.6098452, 1.2646604], [103.6067389, 1.2646605], [103.6104399, 1.2745802], [103.6092427, 1.2750187], [103.609432, 1.275651], [103.6092466, 1.2757076], [103.609973, 1.2774743], [103.6097861, 1.2775314], [103.6103279, 1.2786412], [103.6105905, 1.2785611], [103.6094007, 1.275085], [103.6104835, 1.27469], [103.6115161, 1.2771327], [103.6139294, 1.277904], [103.6162475, 1.2790929], [103.6180311, 1.2808332], [103.6181558, 1.2822537], [103.6188063, 1.283504], [103.6192515, 1.2837212], [103.6196595, 1.2835351], [103.6197228, 1.2837063], [103.6189941, 1.2840966], [103.6188385, 1.2849198], [103.6192301, 1.2856546], [103.6193669, 1.2888429], [103.6198658, 1.2896126], [103.6186835, 1.2915926], [103.6181715, 1.2934491], [103.6175289, 1.2935588], [103.6181533, 1.2970599], [103.6187669, 1.2969486], [103.6266004, 1.3184628], [103.624483, 1.3192269], [103.6225074, 1.3141228], [103.6207957, 1.3147878], [103.6213506, 1.3196786], [103.6290877, 1.3318692], [103.6289218, 1.332054], [103.6291717, 1.3324851], [103.6323472, 1.3372058], [103.6332798, 1.3374407], [103.6333526, 1.3376415], [103.6335721, 1.3374058], [103.6337281, 1.3377517], [103.6345504, 1.3403602], [103.6344211, 1.3413909], [103.6337932, 1.3419464], [103.6344912, 1.3413647], [103.6343968, 1.3415598], [103.6348011, 1.3419895], [103.6345877, 1.3421813], [103.6341656, 1.3417927], [103.6331867, 1.3427146], [103.6339748, 1.3444514], [103.6340962, 1.344227], [103.6332882, 1.3427307], [103.6341661, 1.3419075], [103.6355865, 1.3434299], [103.6343676, 1.3446189], [103.6356485, 1.3435165], [103.6364706, 1.3456102], [103.6363908, 1.3458658], [103.6360232, 1.3454452], [103.6355683, 1.3453851], [103.6351134, 1.3456597], [103.634381, 1.3468025], [103.6341069, 1.3482082], [103.6345876, 1.3499753], [103.6359221, 1.3512859], [103.6368028, 1.3516427], [103.6375951, 1.3514764], [103.6379271, 1.3510519], [103.6379718, 1.3504761], [103.6382731, 1.3503658], [103.6404304, 1.3565378], [103.6402961, 1.3569744], [103.6405957, 1.357845], [103.6408562, 1.3574577], [103.6411034, 1.3578756], [103.6427764, 1.3588719], [103.6437619, 1.3602143], [103.6497304, 1.3713759], [103.6493014, 1.3722583], [103.6496522, 1.3725699], [103.6512697, 1.3728335], [103.6513852, 1.3735832], [103.6508953, 1.3742236], [103.6511133, 1.374464], [103.6514049, 1.3744999], [103.6519137, 1.373906], [103.6520011, 1.3727855], [103.6521966, 1.3726147], [103.65298, 1.3731525], [103.6531586, 1.3737854], [103.6527495, 1.3745426], [103.6534787, 1.3745097], [103.6573217, 1.3824058], [103.65744, 1.3827295], [103.6569487, 1.3831399], [103.6570108, 1.3834727], [103.6575337, 1.3833353], [103.6579175, 1.3835244], [103.6574265, 1.3843114], [103.657686, 1.3847753], [103.6585132, 1.3850617], [103.6589269, 1.3856737], [103.6600247, 1.3860411], [103.6599416, 1.3867575], [103.6605132, 1.387992], [103.6612627, 1.3883083], [103.6615174, 1.3887099], [103.6615292, 1.3897814], [103.6627194, 1.3927043], [103.6624489, 1.3948345], [103.6628449, 1.3962781], [103.6629521, 1.3979271], [103.6623389, 1.3990296], [103.662958, 1.4002667], [103.6630217, 1.4012953], [103.6636304, 1.402281], [103.6624333, 1.4056023], [103.6641654, 1.4060955], [103.6650129, 1.4070751], [103.6652285, 1.4080748], [103.6649717, 1.4086895], [103.6653997, 1.4090807], [103.6667267, 1.409409], [103.6673586, 1.4091087], [103.6676411, 1.4086936], [103.6685763, 1.4097522], [103.6694408, 1.4098629], [103.6699954, 1.4106562], [103.6710756, 1.4115459], [103.6703483, 1.4122944], [103.6703619, 1.4127616], [103.6708347, 1.4134335], [103.6726212, 1.4136528], [103.6730173, 1.4139789], [103.6720721, 1.4142954], [103.6716769, 1.4153383], [103.6721269, 1.4174691], [103.6719933, 1.4177882], [103.6728627, 1.4184866], [103.6721742, 1.4191257], [103.6731689, 1.4197715], [103.6736416, 1.4205802], [103.6735893, 1.4213306], [103.6733694, 1.4208091], [103.673172, 1.4207515], [103.6731486, 1.420942], [103.6739862, 1.4230485], [103.6743687, 1.4250127], [103.674855, 1.4254285], [103.6760321, 1.4258296], [103.6762218, 1.4262158], [103.6765989, 1.4261838], [103.676364, 1.4267383], [103.678003, 1.4290148], [103.6790659, 1.4286672], [103.6804816, 1.4287252], [103.6809906, 1.4293092], [103.6818559, 1.4296475], [103.6831155, 1.4310961], [103.6857365, 1.4303318], [103.6858127, 1.431377], [103.6861716, 1.4319289], [103.6871635, 1.4324196], [103.6881677, 1.4323756], [103.6882809, 1.4329826], [103.6892508, 1.4329918], [103.6895544, 1.4333071], [103.6910344, 1.4330701], [103.6914556, 1.4335334], [103.6930005, 1.4335538], [103.6956326, 1.4348973], [103.6962996, 1.4353611], [103.6981373, 1.4374483], [103.6980943, 1.4376663], [103.6986484, 1.4378764], [103.6994266, 1.4387256], [103.6996753, 1.4387095], [103.7003096, 1.4399272], [103.7023617, 1.4407492], [103.7045333, 1.4433833], [103.7067309, 1.4451319], [103.70641, 1.4457358], [103.7066255, 1.4459478], [103.7070244, 1.4453382], [103.7073453, 1.445455], [103.7072697, 1.4459512], [103.7075424, 1.4455881], [103.7095876, 1.4468703], [103.7097389, 1.4472385], [103.7111571, 1.4483237], [103.7130219, 1.4494067], [103.7193476, 1.4510112], [103.7213442, 1.4512338], [103.7226475, 1.4506971], [103.7229105, 1.450242], [103.7226158, 1.4489948], [103.7229097, 1.448042], [103.7242591, 1.4480624], [103.7281149, 1.4499284], [103.7286991, 1.4495633], [103.7292168, 1.4496827], [103.7302619, 1.4493738], [103.731088, 1.4484623], [103.7312811, 1.4480024], [103.731016, 1.4479322], [103.7320623, 1.4473568], [103.7320482, 1.4467906], [103.7328172, 1.4463242], [103.733623, 1.4448245], [103.7343961, 1.4448898], [103.734829, 1.4446469], [103.7362517, 1.4432235], [103.737216, 1.44274], [103.7373744, 1.4419991], [103.736273, 1.4404162], [103.7365907, 1.4387268], [103.7370563, 1.4387283], [103.737188, 1.4399818], [103.7378214, 1.4405635], [103.7383591, 1.4388991], [103.7423361, 1.4388733], [103.7432375, 1.4400513], [103.7440225, 1.440292], [103.7462731, 1.4391435], [103.746751, 1.4385167], [103.7478365, 1.4381038], [103.7497033, 1.436769], [103.7507351, 1.4373976], [103.7520769, 1.43737], [103.7530239, 1.4380044], [103.7543489, 1.4383869], [103.7559242, 1.4385073], [103.7567668, 1.4382472], [103.7604839, 1.4381679], [103.7610423, 1.4382025], [103.7615718, 1.438574], [103.7619006, 1.4380054], [103.7622992, 1.4380259], [103.7623582, 1.4382419], [103.7627032, 1.4379288], [103.7624571, 1.438512], [103.7626704, 1.4395947], [103.7629561, 1.439935], [103.7633107, 1.4393165], [103.7632041, 1.4399817], [103.7634389, 1.4406353], [103.7644735, 1.4418281], [103.7645, 1.4425495], [103.7654074, 1.4437076], [103.7667954, 1.4440391], [103.7669981, 1.444448], [103.7668655, 1.4451704], [103.7674427, 1.4465045], [103.768975, 1.4477389], [103.7696056, 1.448692], [103.7698119, 1.4497817], [103.7688386, 1.4529877], [103.768291, 1.4536118], [103.768488, 1.4541515], [103.7689269, 1.4542722], [103.7708349, 1.448469], [103.7724975, 1.4497377], [103.7743081, 1.4506773], [103.7771231, 1.4512433], [103.7773362, 1.4518281], [103.7784519, 1.4527726], [103.7824058, 1.4550551], [103.7856873, 1.4579684], [103.7969444, 1.4653162], [103.7967996, 1.4655574], [103.7980012, 1.4662266], [103.7978038, 1.4665183], [103.7983663, 1.4665784], [103.799038, 1.4670268], [103.7995009, 1.4667971], [103.7995921, 1.4669839], [103.7997685, 1.4667534], [103.8011438, 1.4678902], [103.8013355, 1.4681001]]}}, {"type": "Feature", "properties": {"group": "Singapore", "km2": 54.4478}, "geometry": {"type": "LineString", "coordinates": [[104.030311, 1.380824], [104.0233823, 1.386634], [104.0205502, 1.3898454], [104.0185101, 1.3929676], [104.0170526, 1.3960754], [104.0153928, 1.4009958], [104.0156082, 1.4016237], [104.0161763, 1.4018951], [104.0172827, 1.401717], [104.0188875, 1.4018464], [104.0208742, 1.4015449], [104.021893, 1.4017954], [104.0219036, 1.402081], [104.0221825, 1.402101], [104.0225138, 1.4020735], [104.0224935, 1.4017279], [104.0230648, 1.4016313], [104.0237755, 1.4018133], [104.0237367, 1.4020217], [104.0243729, 1.4020092], [104.0243787, 1.4017482], [104.0257649, 1.4018651], [104.0258854, 1.4016906], [104.0288269, 1.4029269], [104.0301364, 1.4044494], [104.0293021, 1.4051454], [104.0290124, 1.4063038], [104.0282805, 1.4071771], [104.0283153, 1.4079147], [104.0293123, 1.4096442], [104.0293067, 1.4102705], [104.0296116, 1.4102922], [104.0303336, 1.4117532], [104.0286063, 1.4121701], [104.0270627, 1.411847], [104.0264109, 1.41141], [104.0255848, 1.410088], [104.0248391, 1.4093855], [104.0231949, 1.4086454], [104.0148407, 1.4088325], [104.0138718, 1.4090272], [104.0129033, 1.4095973], [104.0120005, 1.4108201], [104.0112933, 1.412882], [104.0114978, 1.4130521], [104.0113365, 1.4134674], [104.0110926, 1.413457], [104.009531, 1.4180162], [104.0097798, 1.4181939], [104.0096444, 1.4186135], [104.0093324, 1.4185946], [104.0089828, 1.4203923], [104.0090786, 1.4222433], [104.0096541, 1.4240035], [104.0103372, 1.4250694], [104.0145589, 1.429165], [104.0156962, 1.4295105], [104.0163155, 1.4300512], [104.0168689, 1.4312629], [104.0212476, 1.4352367], [104.0228328, 1.4363441], [104.0244891, 1.4371257], [104.0377455, 1.4406786], [104.0400752, 1.4407519], [104.0426716, 1.4402472], [104.0442559, 1.4390199], [104.0458885, 1.4359383], [104.0468155, 1.4350154], [104.0476849, 1.4346427], [104.053553, 1.4337791], [104.0546798, 1.4330567], [104.0544095, 1.4327502], [104.0551275, 1.4315521], [104.056109, 1.431977], [104.0585096, 1.4317381], [104.063118, 1.4298232], [104.0636021, 1.4293652], [104.0637914, 1.4293092], [104.0635485, 1.4297513], [104.0662968, 1.4284258], [104.0683121, 1.4277778], [104.068355, 1.427456], [104.0694923, 1.4273488], [104.0724534, 1.4253324], [104.0775711, 1.4210958], [104.0804893, 1.4191545], [104.0811484, 1.4182131], [104.0815944, 1.4180712], [104.0815407, 1.4176314], [104.0828497, 1.4155292], [104.0837616, 1.4132125], [104.0856392, 1.4100485], [104.0854031, 1.4092119], [104.0836962, 1.4070749], [104.0848179, 1.4070254], [104.0860386, 1.4066129], [104.0876336, 1.4052748], [104.0883987, 1.4032041], [104.0884735, 1.3999567], [104.088229, 1.3981047], [104.0873366, 1.3953062], [104.0847855, 1.3904252], [104.0815231, 1.3853015], [104.0802387, 1.3828775], [104.0774162, 1.37548], [104.0755149, 1.3689862], [104.0745771, 1.3615437], [104.0754939, 1.3550027], [104.0794066, 1.347674], [104.0840207, 1.3407889], [104.0842375, 1.3395965], [104.0835407, 1.3381343], [104.0822054, 1.3375072], [104.0813477, 1.3375853], [104.0803605, 1.3381498], [104.0305131, 1.3806556], [104.030311, 1.380824]]}}, {"type": "Feature", "properties": {"group": "Singapore", "km2": 32.5319}, "geometry": {"type": "LineString", "coordinates": [[103.6560246, 1.2745273], [103.6584859, 1.2765047], [103.660451, 1.2737483], [103.6758065, 1.2845554], [103.6839124, 1.2894494], [103.6877922, 1.2905557], [103.6955119, 1.2906441], [103.6957243, 1.2902193], [103.6915778, 1.2854684], [103.6907662, 1.2829109], [103.6866179, 1.2786243], [103.6840829, 1.2763658], [103.6884616, 1.2723096], [103.6909967, 1.2759048], [103.6922496, 1.2770209], [103.693361, 1.2760638], [103.6944878, 1.2768974], [103.6951824, 1.2770363], [103.6953677, 1.2776846], [103.6961704, 1.2778236], [103.6949046, 1.2795833], [103.6949663, 1.279784], [103.6959909, 1.2799335], [103.6961356, 1.2811877], [103.6967627, 1.282273], [103.6993193, 1.2837684], [103.7006633, 1.2852139], [103.7000667, 1.2860599], [103.7041976, 1.290966], [103.7051611, 1.2909], [103.7051391, 1.2915356], [103.7053982, 1.2919185], [103.706455, 1.2924988], [103.7082778, 1.2923711], [103.7087772, 1.2927235], [103.7090009, 1.2921325], [103.7100523, 1.2917036], [103.71127, 1.2917036], [103.7113394, 1.2966262], [103.7118553, 1.2966245], [103.7118613, 1.2927618], [103.7124935, 1.2916799], [103.7133578, 1.2916758], [103.7134117, 1.2914948], [103.7174625, 1.2906332], [103.7180121, 1.2919348], [103.7199365, 1.2913215], [103.7189082, 1.2898277], [103.7202324, 1.2910454], [103.7207624, 1.2912551], [103.7216481, 1.2911896], [103.7247042, 1.2894169], [103.7259241, 1.2873706], [103.7264616, 1.2841474], [103.7286925, 1.2818415], [103.729194, 1.2809212], [103.7295981, 1.280657], [103.7298633, 1.2809269], [103.7319629, 1.2789278], [103.7318046, 1.2787735], [103.7327471, 1.2785981], [103.7343799, 1.2787972], [103.7351823, 1.2782072], [103.7357015, 1.27816], [103.7401867, 1.2736803], [103.7401808, 1.2730367], [103.7383459, 1.2713267], [103.7368814, 1.2705375], [103.7348384, 1.2701195], [103.7328278, 1.2691965], [103.7318871, 1.2701364], [103.7309057, 1.2700068], [103.7302593, 1.2704382], [103.7286501, 1.270757], [103.7263483, 1.2716416], [103.7259616, 1.2713171], [103.7319839, 1.2692731], [103.7324924, 1.26877], [103.7337207, 1.2663819], [103.7328703, 1.2655041], [103.732524, 1.2655366], [103.7302621, 1.2672276], [103.724836, 1.2694097], [103.7237324, 1.2691989], [103.7251522, 1.268936], [103.7300595, 1.2669199], [103.7320363, 1.2655165], [103.7321586, 1.2651403], [103.7292358, 1.2625414], [103.7234861, 1.2598401], [103.7227557, 1.2599277], [103.7215709, 1.2607485], [103.720695, 1.2608544], [103.720568, 1.261066], [103.7204626, 1.2608728], [103.7192141, 1.2615588], [103.7177627, 1.2629296], [103.7106154, 1.2668796], [103.7106154, 1.2684608], [103.7100255, 1.2695463], [103.7090343, 1.2676348], [103.7066272, 1.2687675], [103.7060844, 1.2684136], [103.7048543, 1.2655439], [103.7138385, 1.2602225], [103.7141969, 1.2596359], [103.7141163, 1.2590508], [103.7117943, 1.2575233], [103.7067126, 1.2547737], [103.6964001, 1.2509091], [103.693624, 1.2605314], [103.6897161, 1.2642386], [103.6890959, 1.2645067], [103.6886518, 1.2653219], [103.6882782, 1.2653841], [103.684963, 1.26839], [103.680145, 1.2630694], [103.6859149, 1.2577423], [103.6904771, 1.2417187], [103.6904409, 1.2400858], [103.6896457, 1.2385534], [103.688243, 1.2370898], [103.6877096, 1.2369118], [103.6870366, 1.237587], [103.6825818, 1.2330723], [103.6829773, 1.2321293], [103.6829111, 1.231708], [103.6741961, 1.2229573], [103.6733045, 1.2226097], [103.6724886, 1.2226752], [103.6715981, 1.2232104], [103.6696685, 1.2272451], [103.6696304, 1.2283746], [103.6699383, 1.2283913], [103.6701127, 1.2271293], [103.6719049, 1.2235569], [103.6723185, 1.2235832], [103.6759465, 1.2272972], [103.6766937, 1.2287411], [103.6758623, 1.230275], [103.6755806, 1.2301355], [103.6753499, 1.2306718], [103.675594, 1.2308542], [103.6749262, 1.2322486], [103.6731505, 1.2328573], [103.6733276, 1.2330987], [103.6738506, 1.2327769], [103.6730843, 1.2343241], [103.6725508, 1.2345871], [103.669077, 1.2346614], [103.6687358, 1.2348759], [103.665061, 1.2426035], [103.6631217, 1.2450421], [103.6537453, 1.2681819], [103.6538729, 1.2728714], [103.655606, 1.2742622], [103.6560246, 1.2745273]]}}, {"type": "Feature", "properties": {"group": "Singapore", "km2": 10.1232}, "geometry": {"type": "LineString", "coordinates": [[103.9581645, 1.3993755], [103.9582162, 1.3997323], [103.9577955, 1.4003098], [103.9573418, 1.4018083], [103.9570578, 1.4018738], [103.9567379, 1.4025841], [103.9557776, 1.4027679], [103.9554789, 1.4030388], [103.9552785, 1.4037797], [103.9546521, 1.4043873], [103.9546561, 1.4047685], [103.9543998, 1.4048392], [103.954226, 1.4052956], [103.9533863, 1.4055818], [103.9531889, 1.4060185], [103.952592, 1.4062569], [103.9522067, 1.4059013], [103.9507941, 1.4057751], [103.9500539, 1.4070246], [103.9488719, 1.4081514], [103.9489241, 1.4087997], [103.9485392, 1.4095064], [103.9486, 1.4098409], [103.9472717, 1.4098678], [103.9460396, 1.4105014], [103.9450603, 1.411386], [103.9446972, 1.4112264], [103.9436763, 1.4113841], [103.9413418, 1.4126803], [103.9407791, 1.4126004], [103.9405357, 1.4136723], [103.9390356, 1.4149261], [103.9367813, 1.4153432], [103.9362585, 1.4152442], [103.9342492, 1.4157588], [103.9339713, 1.4161225], [103.934423, 1.4174772], [103.9341981, 1.4178389], [103.9333908, 1.4178675], [103.9314448, 1.4172831], [103.9307089, 1.4172997], [103.9294784, 1.4189131], [103.9289872, 1.4186533], [103.9283554, 1.4190909], [103.927138, 1.4215709], [103.9265836, 1.4222268], [103.9262291, 1.4223085], [103.9265322, 1.4228645], [103.9264553, 1.4238528], [103.9279265, 1.4237877], [103.9292926, 1.4243579], [103.9299254, 1.4250925], [103.9303841, 1.4263455], [103.9319024, 1.4261442], [103.9325797, 1.4262816], [103.9330129, 1.4267067], [103.9330372, 1.427164], [103.9336949, 1.4276782], [103.9342966, 1.4276505], [103.9378743, 1.4265682], [103.9440827, 1.4239983], [103.9455579, 1.4238479], [103.9480517, 1.4224652], [103.9489322, 1.4215867], [103.9485906, 1.4208907], [103.9487276, 1.4203904], [103.9483697, 1.4200054], [103.948571, 1.420199], [103.9491149, 1.4198684], [103.9497547, 1.4200071], [103.9518463, 1.419219], [103.952664, 1.4185934], [103.9531517, 1.4186611], [103.9535553, 1.4191705], [103.9544386, 1.4192855], [103.9553897, 1.4190717], [103.9557987, 1.4180474], [103.9564788, 1.4180519], [103.9563752, 1.4176017], [103.9566566, 1.4174509], [103.9565823, 1.4172753], [103.956794, 1.4174981], [103.9576835, 1.4172555], [103.9587873, 1.4173864], [103.9591032, 1.4168965], [103.9590472, 1.4165605], [103.959417, 1.4166245], [103.9596547, 1.4173227], [103.9616514, 1.4175036], [103.9643477, 1.4185879], [103.9660654, 1.4190161], [103.9678168, 1.4190868], [103.9681512, 1.4193045], [103.9690444, 1.4191853], [103.9697473, 1.4195916], [103.9705537, 1.4196324], [103.9736674, 1.4188714], [103.9736549, 1.4183123], [103.9741176, 1.4182188], [103.9744978, 1.4176332], [103.9745866, 1.4180755], [103.9747226, 1.4178511], [103.9750963, 1.4178923], [103.975541, 1.41852], [103.9793108, 1.417077], [103.9802702, 1.4176836], [103.9816894, 1.4181297], [103.9816916, 1.4179059], [103.9821904, 1.417698], [103.9838141, 1.4178688], [103.9842788, 1.4183694], [103.9852765, 1.4185324], [103.9857025, 1.4191236], [103.9867298, 1.4181052], [103.9879957, 1.4184724], [103.9896761, 1.418112], [103.9912346, 1.4167277], [103.9915085, 1.4154747], [103.9918896, 1.4149416], [103.9917063, 1.4141916], [103.991239, 1.4137629], [103.9907496, 1.4112346], [103.9905314, 1.4111023], [103.9908033, 1.4102297], [103.9904483, 1.4099942], [103.9907297, 1.4094361], [103.9915698, 1.4092005], [103.9923793, 1.4083236], [103.9922612, 1.4079849], [103.9917313, 1.4076867], [103.9910442, 1.4081216], [103.990482, 1.407834], [103.9901318, 1.4081812], [103.989315, 1.4079968], [103.9890843, 1.4082354], [103.9883218, 1.4076744], [103.9885705, 1.4072911], [103.988303, 1.4072847], [103.988145, 1.4076482], [103.9863886, 1.4076615], [103.9841158, 1.4068838], [103.9833008, 1.4075844], [103.9824741, 1.4075819], [103.9812603, 1.4071038], [103.9796173, 1.4080475], [103.9789056, 1.4078831], [103.9785241, 1.4080405], [103.9768303, 1.4068783], [103.9761901, 1.4073174], [103.9762602, 1.4069115], [103.9755478, 1.406448], [103.9741965, 1.4059127], [103.973518, 1.4060345], [103.9733781, 1.4058675], [103.9741255, 1.4053579], [103.9743025, 1.4045737], [103.9740223, 1.4040136], [103.9732579, 1.4030987], [103.9728211, 1.4032814], [103.9719044, 1.4025077], [103.9712955, 1.4024144], [103.9706674, 1.4019552], [103.9703749, 1.4019054], [103.9705029, 1.4021496], [103.970247, 1.4025467], [103.9693678, 1.4025251], [103.9682569, 1.4012047], [103.9673298, 1.4009347], [103.9658582, 1.4008883], [103.9647582, 1.4011187], [103.9620347, 1.4000477], [103.9608914, 1.4000193], [103.9595563, 1.3996064], [103.9588377, 1.3998592], [103.9582519, 1.3993627], [103.9581645, 1.3993755]]}}, {"type": "Feature", "properties": {"group": "Singapore", "km2": 8.524}, "geometry": {"type": "LineString", "coordinates": [[104.040213, 1.4660685], [104.0442042, 1.4675667], [104.0474698, 1.4708312], [104.0488738, 1.4740799], [104.0499465, 1.4746634], [104.0504829, 1.4746003], [104.052234, 1.4753888], [104.0516188, 1.4779279], [104.0534961, 1.4803565], [104.0551841, 1.4811924], [104.0554049, 1.4822805], [104.0569825, 1.4846776], [104.0566354, 1.4856081], [104.0568405, 1.4857658], [104.0578344, 1.4855134], [104.0594751, 1.4858446], [104.0602007, 1.4864439], [104.0613997, 1.4883048], [104.0627789, 1.4892442], [104.063884, 1.4890887], [104.0643239, 1.488791], [104.0651581, 1.4855728], [104.0660211, 1.4853415], [104.066762, 1.4853898], [104.0674178, 1.4862371], [104.0674567, 1.4891865], [104.0680642, 1.4899453], [104.0695032, 1.4897442], [104.0717, 1.4885698], [104.0722767, 1.4879545], [104.0722901, 1.4875121], [104.0702583, 1.4860226], [104.0698653, 1.4842234], [104.0702623, 1.4832488], [104.0711595, 1.4826723], [104.0725824, 1.4826401], [104.0745431, 1.4835759], [104.0749803, 1.4834338], [104.0751868, 1.483053], [104.0752284, 1.4819658], [104.0749776, 1.4813075], [104.072748, 1.4799642], [104.0720527, 1.4790257], [104.0716048, 1.4778339], [104.0721546, 1.4750078], [104.0733965, 1.4727501], [104.0737438, 1.4715274], [104.0733569, 1.4713122], [104.0727393, 1.4715462], [104.0710965, 1.4733185], [104.0698278, 1.473962], [104.0686128, 1.4741162], [104.068079, 1.4739446], [104.0676311, 1.4733229], [104.0674245, 1.4721508], [104.0681407, 1.4694534], [104.0688616, 1.4683079], [104.0714049, 1.4662572], [104.0715685, 1.4658095], [104.0675908, 1.4643629], [104.0657455, 1.4616025], [104.0645948, 1.4579263], [104.0633073, 1.4559931], [104.0624088, 1.4552289], [104.0614513, 1.4547918], [104.0595066, 1.4552183], [104.0545607, 1.4530731], [104.0489842, 1.4550449], [104.0458291, 1.4567166], [104.0449457, 1.4574578], [104.0438256, 1.4587194], [104.0422322, 1.4612427], [104.0416959, 1.4613216], [104.0414119, 1.4616685], [104.0416643, 1.462599], [104.0400867, 1.4655638], [104.040213, 1.4660685]]}}, {"type": "Feature", "properties": {"group": "Singapore", "km2": 4.9223}, "geometry": {"type": "LineString", "coordinates": [[103.8229823, 1.2584082], [103.8231655, 1.2588902], [103.8235124, 1.2588871], [103.8233216, 1.2574768], [103.8238756, 1.2564181], [103.825189, 1.255287], [103.8271716, 1.2546277], [103.8294073, 1.2545033], [103.8308644, 1.2547623], [103.8321565, 1.2546977], [103.832979, 1.2544479], [103.8344292, 1.2533869], [103.8360276, 1.2531861], [103.8371176, 1.2531861], [103.8382866, 1.2540926], [103.8391386, 1.2540207], [103.8404002, 1.2535201], [103.8413765, 1.2537377], [103.841765, 1.2535744], [103.8417886, 1.2522449], [103.842049, 1.2520679], [103.8446653, 1.2526198], [103.8455514, 1.2531701], [103.8464376, 1.2532354], [103.8484137, 1.2520961], [103.84809, 1.25086], [103.8442759, 1.2451697], [103.8397613, 1.2404646], [103.8372803, 1.2387399], [103.8364006, 1.2385919], [103.8370615, 1.2390982], [103.8371251, 1.2395894], [103.8367339, 1.2395894], [103.8364778, 1.2391411], [103.8351046, 1.2390553], [103.8338943, 1.2380942], [103.8329043, 1.2377975], [103.8316472, 1.2384072], [103.8303386, 1.2396782], [103.8298058, 1.239609], [103.8297608, 1.2401047], [103.830322, 1.2399414], [103.8304044, 1.2405823], [103.8298552, 1.2412359], [103.8290559, 1.241366], [103.8285443, 1.2426022], [103.8279408, 1.2428489], [103.8274594, 1.2427443], [103.8272536, 1.2424069], [103.8275257, 1.2422132], [103.8271395, 1.2418785], [103.8261438, 1.2431914], [103.823498, 1.2458377], [103.8233492, 1.2465701], [103.8237712, 1.2461354], [103.8240298, 1.2466347], [103.8236479, 1.2476865], [103.8223779, 1.2480069], [103.8215354, 1.2493516], [103.821006, 1.2497251], [103.8203381, 1.2496078], [103.8204858, 1.2491904], [103.8198502, 1.2487724], [103.8180563, 1.2498279], [103.8171723, 1.2504543], [103.8171338, 1.2508893], [103.8160697, 1.2513349], [103.816291, 1.251595], [103.8159241, 1.2522666], [103.8154619, 1.2524788], [103.8147836, 1.2524058], [103.8144051, 1.2535216], [103.8134354, 1.2537562], [103.8129318, 1.2547757], [103.8118757, 1.2550257], [103.8115747, 1.25564], [103.810671, 1.2562434], [103.8100077, 1.2560251], [103.8102255, 1.2555568], [103.8098423, 1.2556029], [103.8090183, 1.2565382], [103.8087952, 1.2572075], [103.8066237, 1.2593185], [103.8065464, 1.2598247], [103.8067267, 1.2599449], [103.8074133, 1.2600993], [103.8080485, 1.2598505], [103.8087609, 1.2601251], [103.8122775, 1.2590673], [103.8145996, 1.2589044], [103.8164032, 1.2598371], [103.8178393, 1.260043], [103.819487, 1.2593466], [103.8196935, 1.2588377], [103.8199143, 1.2589279], [103.8198204, 1.2592872], [103.8199568, 1.2589487], [103.8200997, 1.2592193], [103.8211974, 1.258345], [103.8218284, 1.2581631], [103.8218479, 1.2584739], [103.8229823, 1.2584082]]}}, {"type": "Feature", "properties": {"group": "Singapore", "km2": 4.649}, "geometry": {"type": "LineString", "coordinates": [[103.7676138, 1.2086863], [103.7686501, 1.2081654], [103.7696499, 1.2081131], [103.7724363, 1.209617], [103.7748938, 1.2103444], [103.7748947, 1.2107176], [103.7771773, 1.2107249], [103.7767509, 1.2109901], [103.7794234, 1.2109813], [103.7789507, 1.2107238], [103.7801101, 1.2107239], [103.7801181, 1.2102727], [103.7807538, 1.2092432], [103.7811028, 1.2071825], [103.7813056, 1.2019916], [103.7806358, 1.1999177], [103.7794527, 1.1989926], [103.7762095, 1.1975247], [103.7756148, 1.1969914], [103.7753339, 1.1963534], [103.774952, 1.193188], [103.7728404, 1.1910601], [103.7706898, 1.1896616], [103.7690861, 1.1891241], [103.7675344, 1.1891395], [103.7661667, 1.1895865], [103.7650931, 1.1903085], [103.7603973, 1.1950895], [103.7598751, 1.1960435], [103.7600641, 1.1975484], [103.7627481, 1.2006128], [103.7632618, 1.2021302], [103.762967, 1.2022495], [103.7626719, 1.2008993], [103.7605718, 1.1985314], [103.760385, 1.1984301], [103.7601895, 1.1987095], [103.7601625, 1.199295], [103.759969, 1.1991962], [103.7596895, 1.2001199], [103.7607729, 1.2013454], [103.7618136, 1.2014423], [103.7622884, 1.2017507], [103.7629965, 1.2028931], [103.7629263, 1.2031498], [103.7626626, 1.2030929], [103.7622656, 1.202157], [103.761591, 1.2019116], [103.7610529, 1.2022411], [103.7606286, 1.2020931], [103.759997, 1.201327], [103.7592237, 1.2014841], [103.7584534, 1.2030459], [103.758475, 1.2038283], [103.7579154, 1.2053423], [103.7577792, 1.2064793], [103.7581911, 1.209308], [103.7589652, 1.2107042], [103.759221, 1.2129724], [103.7591918, 1.2141425], [103.7588348, 1.2152049], [103.7588981, 1.2172813], [103.7596197, 1.2147522], [103.7599508, 1.2144155], [103.7602019, 1.2144956], [103.7604114, 1.2136207], [103.7614066, 1.2131402], [103.7612791, 1.2115799], [103.7613848, 1.2114377], [103.761773, 1.2117039], [103.7619039, 1.2110484], [103.761645, 1.2106248], [103.7624403, 1.2104757], [103.7628108, 1.2107298], [103.7640224, 1.210679], [103.7656685, 1.2094245], [103.7655702, 1.2091178], [103.7634675, 1.208251], [103.7634618, 1.2080504], [103.7654847, 1.2088628], [103.7673854, 1.2088061], [103.7676138, 1.2086863]]}}, {"type": "Feature", "properties": {"group": "Singapore", "km2": 2.9712}, "geometry": {"type": "LineString", "coordinates": [[104.0416259, 1.327038], [104.0405977, 1.3272189], [104.0342575, 1.3271115], [104.0337295, 1.3273267], [104.0329446, 1.3281338], [104.0336221, 1.3287079], [104.0336088, 1.3320055], [104.03085, 1.331994], [104.030861, 1.327725], [104.025882, 1.327757], [104.024005, 1.328519], [104.0280782, 1.338449], [104.029104, 1.3385393], [104.0318013, 1.3447018], [104.0326674, 1.3438907], [104.0349127, 1.3389632], [104.0357112, 1.3391259], [104.0367192, 1.3373045], [104.0384128, 1.3379939], [104.044851, 1.33799], [104.047018, 1.335855], [104.047265, 1.3343], [104.045742, 1.329677], [104.046021, 1.326802], [104.045774, 1.325987], [104.044679, 1.325], [104.042856, 1.3247], [104.042072, 1.324829], [104.041514, 1.325247], [104.041429, 1.325708], [104.0417558, 1.3265932], [104.0416259, 1.327038]]}}, {"type": "Feature", "properties": {"group": "Singapore", "km2": 2.5128}, "geometry": {"type": "LineString", "coordinates": [[103.5790232, 1.3406375], [103.5791665, 1.3407699], [103.5815501, 1.3400981], [103.58324, 1.3387522], [103.5839987, 1.3396041], [103.5832482, 1.3416152], [103.5835152, 1.3426276], [103.58381, 1.342328], [103.5863018, 1.3422728], [103.5868271, 1.3440276], [103.5881258, 1.3446326], [103.5886905, 1.3446387], [103.5895792, 1.344219], [103.5923834, 1.3442113], [103.5929954, 1.3444423], [103.5945849, 1.3442293], [103.5947066, 1.3445262], [103.5955837, 1.3447421], [103.5957274, 1.3439928], [103.5955324, 1.3439727], [103.5962417, 1.3436396], [103.5983524, 1.3440785], [103.5996588, 1.3436417], [103.601864, 1.3438817], [103.6022123, 1.3436984], [103.6023127, 1.3434174], [103.6019493, 1.3438047], [103.602407, 1.3428515], [103.6012688, 1.3412561], [103.602126, 1.3417919], [103.6025154, 1.3423297], [103.6027965, 1.3434656], [103.6025951, 1.3440006], [103.6028602, 1.3434791], [103.6023953, 1.3419655], [103.6002471, 1.3405728], [103.5962368, 1.3365964], [103.5960932, 1.3361316], [103.5960792, 1.3364386], [103.5959437, 1.3363202], [103.5958524, 1.3356399], [103.5960832, 1.3360633], [103.5961553, 1.3357202], [103.5955244, 1.334908], [103.5924724, 1.3328353], [103.5916179, 1.3319767], [103.591377, 1.3312238], [103.590767, 1.331225], [103.589799, 1.3316569], [103.5859903, 1.3337583], [103.5855689, 1.334065], [103.5859425, 1.3339385], [103.5861013, 1.3343239], [103.5857241, 1.3345029], [103.5848086, 1.3344349], [103.584731, 1.3334361], [103.584435, 1.3329898], [103.5847489, 1.3333681], [103.5850008, 1.3332595], [103.5847024, 1.3329504], [103.5831045, 1.3329067], [103.5804305, 1.3345017], [103.5789099, 1.3372617], [103.5781925, 1.3374467], [103.5764869, 1.3372534], [103.5760142, 1.3375159], [103.57531, 1.3386555], [103.5760023, 1.3376245], [103.5756788, 1.3424322], [103.5759497, 1.3421076], [103.5779478, 1.3419465], [103.5785327, 1.3415348], [103.579022, 1.3407151], [103.5790232, 1.3406375]]}}, {"type": "Feature", "properties": {"group": "Singapore", "km2": 2.49}, "geometry": {"type": "LineString", "coordinates": [[103.7178159, 1.2025194], [103.715933, 1.202615], [103.7076972, 1.2040954], [103.7071836, 1.2044931], [103.7070977, 1.2051581], [103.7074947, 1.2057588], [103.7114751, 1.2084619], [103.7136853, 1.2111756], [103.7173652, 1.2122161], [103.7176721, 1.2120835], [103.7191801, 1.2123353], [103.7211029, 1.2131103], [103.7215121, 1.213545], [103.7249692, 1.2126089], [103.7235679, 1.2129678], [103.7234225, 1.2122353], [103.7238509, 1.2110634], [103.7250955, 1.2102398], [103.7257133, 1.2101418], [103.7280066, 1.2105366], [103.7286349, 1.2111112], [103.7286393, 1.211357], [103.7280571, 1.2116625], [103.7292099, 1.2111542], [103.7297249, 1.2105213], [103.7306401, 1.2078811], [103.72994, 1.2094472], [103.7293708, 1.2096419], [103.7282117, 1.2091276], [103.7277104, 1.2085417], [103.7280119, 1.2078194], [103.735517, 1.207849], [103.736998, 1.205918], [103.738414, 1.205768], [103.738495, 1.205387], [103.738178, 1.20514], [103.737196, 1.205097], [103.7371, 1.204003], [103.7365089, 1.2033265], [103.7348157, 1.2031331], [103.7309304, 1.2032046], [103.7268388, 1.2024443], [103.7231374, 1.2032381], [103.7209272, 1.2031952], [103.7182665, 1.2025945], [103.7178159, 1.2025194]]}}, {"type": "Feature", "properties": {"group": "Singapore", "km2": 2.1884}, "geometry": {"type": "LineString", "coordinates": [[103.8849069, 1.1506171], [103.8840848, 1.1515571], [103.8849257, 1.1528376], [103.8845783, 1.1542133], [103.8850316, 1.1541435], [103.8859146, 1.1558495], [103.886649, 1.1583189], [103.8871425, 1.1586702], [103.8876481, 1.1579488], [103.8890925, 1.1567877], [103.8924989, 1.154948], [103.892566, 1.1545659], [103.8941355, 1.15327], [103.8952083, 1.1505802], [103.8936764, 1.1494613], [103.893313, 1.1477062], [103.8927309, 1.1477866], [103.8925177, 1.147436], [103.8921918, 1.1479247], [103.8912155, 1.1475171], [103.8912262, 1.1473401], [103.8920349, 1.1472972], [103.8920805, 1.1463667], [103.8906214, 1.144999], [103.8909781, 1.143927], [103.8887579, 1.1431279], [103.8880538, 1.1433317], [103.8876414, 1.1430298], [103.8868462, 1.1433096], [103.8857773, 1.1428483], [103.8850142, 1.1429288], [103.8837442, 1.1426231], [103.8827786, 1.1428778], [103.8815756, 1.1439116], [103.8805497, 1.1421377], [103.8789082, 1.1408424], [103.8776502, 1.1411984], [103.8763735, 1.1425922], [103.8746434, 1.1434785], [103.8745335, 1.1440953], [103.8752094, 1.1455273], [103.8768817, 1.1465048], [103.8761857, 1.148091], [103.8761616, 1.1489022], [103.8758102, 1.1497791], [103.8764673, 1.149987], [103.8768844, 1.1494721], [103.8786386, 1.1498542], [103.8800293, 1.1493326], [103.8806784, 1.1493729], [103.8810056, 1.1496142], [103.8811371, 1.1505501], [103.8814656, 1.1509658], [103.8819726, 1.1506895], [103.8822395, 1.1501251], [103.8831715, 1.1496236], [103.8838649, 1.1496933], [103.8846669, 1.150408], [103.8849069, 1.1506171]]}}, {"type": "Feature", "properties": {"group": "Singapore", "km2": 2.1215}, "geometry": {"type": "LineString", "coordinates": [[103.7398257, 1.2334279], [103.7395353, 1.2343377], [103.7398679, 1.234933], [103.7413539, 1.2355605], [103.7433172, 1.2368531], [103.7457256, 1.2373518], [103.7472384, 1.2374484], [103.7494968, 1.2370461], [103.7500869, 1.2367565], [103.7509112, 1.2356943], [103.7544389, 1.2342599], [103.7549499, 1.2353133], [103.7565096, 1.2364547], [103.7574249, 1.2365875], [103.7578648, 1.2361944], [103.7584728, 1.2342023], [103.7586538, 1.2342144], [103.7584868, 1.2341354], [103.7591081, 1.2323082], [103.7590487, 1.2318833], [103.7599577, 1.2309795], [103.7636247, 1.2298066], [103.7648264, 1.2301681], [103.7671545, 1.229883], [103.7671904, 1.2300631], [103.7699084, 1.2285991], [103.7707981, 1.2274011], [103.7688745, 1.2249745], [103.7676385, 1.224911], [103.7630283, 1.2253863], [103.7589918, 1.2262447], [103.757066, 1.2272047], [103.7564705, 1.2271564], [103.7540941, 1.2287654], [103.7528013, 1.2294412], [103.7526618, 1.2292213], [103.7523346, 1.2293929], [103.7524311, 1.229602], [103.7519805, 1.2298327], [103.7456022, 1.2312325], [103.7436767, 1.2311252], [103.7422926, 1.2313665], [103.740635, 1.2322032], [103.7399859, 1.2330506], [103.7398257, 1.2334279]]}}, {"type": "Feature", "properties": {"group": "Singapore", "km2": 1.5049}, "geometry": {"type": "LineString", "coordinates": [[103.760673, 1.2324175], [103.759592, 1.2375173], [103.7598506, 1.2395345], [103.7600265, 1.2399121], [103.7611023, 1.2404241], [103.7618729, 1.2404862], [103.7637091, 1.2400672], [103.7638073, 1.2406517], [103.7642004, 1.2404758], [103.763916, 1.2399638], [103.7648366, 1.2395604], [103.7650021, 1.2398707], [103.7653745, 1.2395966], [103.7650383, 1.2393638], [103.7656125, 1.2386604], [103.7663831, 1.2380449], [103.7666469, 1.238438], [103.7668538, 1.2382776], [103.7666262, 1.2377346], [103.7678934, 1.2369846], [103.7680382, 1.2365967], [103.7683124, 1.2371449], [103.7687158, 1.2368139], [103.7682658, 1.2364725], [103.7697968, 1.235195], [103.7701485, 1.235614], [103.7703554, 1.235464], [103.7699623, 1.2350295], [103.7704071, 1.2342381], [103.7710226, 1.233814], [103.7716795, 1.234233], [103.772057, 1.2338813], [103.771876, 1.2337002], [103.7729105, 1.2327744], [103.7730863, 1.2329347], [103.7733449, 1.2326865], [103.7731846, 1.232521], [103.7740897, 1.2316313], [103.7742708, 1.2317865], [103.7771103, 1.2288073], [103.7783051, 1.2272815], [103.7770379, 1.228347], [103.7767534, 1.227597], [103.7776637, 1.2271729], [103.7790654, 1.2245402], [103.7790706, 1.2241368], [103.7789154, 1.2240127], [103.7763396, 1.2247161], [103.7732518, 1.2248868], [103.772626, 1.2275143], [103.7706812, 1.2293918], [103.7672469, 1.23069], [103.7649504, 1.2312176], [103.7633936, 1.2311814], [103.760673, 1.2324175]]}}, {"type": "Feature", "properties": {"group": "Singapore", "km2": 1.2143}, "geometry": {"type": "LineString", "coordinates": [[103.8241852, 1.260097], [103.8304659, 1.2636365], [103.8361342, 1.2638392], [103.8424912, 1.2578976], [103.8405216, 1.2568359], [103.8399093, 1.256986], [103.8366514, 1.2554704], [103.8363807, 1.2547801], [103.8312563, 1.2564682], [103.8317115, 1.2566513], [103.8314326, 1.2567692], [103.8318623, 1.2571934], [103.8310842, 1.2574432], [103.8304276, 1.2566551], [103.8292955, 1.2566048], [103.8286952, 1.2568604], [103.8287729, 1.2570692], [103.8283045, 1.2573527], [103.8267051, 1.2576967], [103.825941, 1.2581049], [103.8243801, 1.2596516], [103.8241852, 1.260097]]}}, {"type": "Feature", "properties": {"group": "Singapore", "km2": 0.8348}, "geometry": {"type": "LineString", "coordinates": [[103.7397173, 1.1676361], [103.7396477, 1.1671464], [103.7381589, 1.1663796], [103.7366299, 1.166678], [103.7352715, 1.1675618], [103.7337823, 1.1672598], [103.7331122, 1.1684988], [103.7327195, 1.1689556], [103.7323658, 1.1690093], [103.7317616, 1.1711749], [103.7309583, 1.1724062], [103.7299156, 1.1730558], [103.7285044, 1.1729129], [103.7292653, 1.1743812], [103.73296, 1.1762281], [103.733168, 1.1757969], [103.7357232, 1.1743634], [103.7389757, 1.1746292], [103.7414524, 1.1738893], [103.7416411, 1.1733835], [103.7412216, 1.1726616], [103.7402076, 1.1727181], [103.739563, 1.1724663], [103.7392179, 1.1696488], [103.7396301, 1.1689272], [103.7397173, 1.1676361]]}}, {"type": "Feature", "properties": {"group": "Singapore", "km2": 0.7843}, "geometry": {"type": "LineString", "coordinates": [[103.8550887, 1.2319027], [103.8579103, 1.2323225], [103.8583271, 1.2319156], [103.8583488, 1.2311321], [103.8573186, 1.2294176], [103.8548549, 1.2285139], [103.8552631, 1.2286728], [103.8549251, 1.2291948], [103.8540587, 1.2291662], [103.8535794, 1.2287496], [103.8532754, 1.2277108], [103.8534595, 1.2264591], [103.8540784, 1.2255278], [103.8546218, 1.2253073], [103.8551342, 1.2254274], [103.8555365, 1.2259454], [103.8551055, 1.2261297], [103.855823, 1.2259049], [103.85619, 1.2235593], [103.8572779, 1.2227223], [103.8582645, 1.2215096], [103.8582589, 1.2208212], [103.8575887, 1.2201885], [103.8572967, 1.2195454], [103.8576564, 1.2191435], [103.8576863, 1.2182109], [103.8580451, 1.2179503], [103.8584159, 1.2182431], [103.8579331, 1.2177926], [103.857017, 1.2176462], [103.8573215, 1.2177333], [103.8572089, 1.2180336], [103.8561199, 1.2185485], [103.85568, 1.2193798], [103.8538883, 1.2208654], [103.8526023, 1.2226764], [103.852005, 1.2219233], [103.8518617, 1.2220647], [103.8522907, 1.2227616], [103.8521355, 1.224485], [103.8519656, 1.2247684], [103.8516866, 1.2245663], [103.8502724, 1.2257929], [103.8506951, 1.2264484], [103.8510613, 1.2265397], [103.8516674, 1.2260516], [103.8519678, 1.2259873], [103.8522575, 1.22625], [103.8521877, 1.2279084], [103.8502364, 1.2278321], [103.8502631, 1.2290403], [103.8500151, 1.2291276], [103.8496559, 1.2283226], [103.8491302, 1.2281432], [103.8481107, 1.2266947], [103.846976, 1.2264067], [103.84679, 1.2271494], [103.848953, 1.2280843], [103.8490391, 1.2288934], [103.8494236, 1.2295601], [103.8482008, 1.2308489], [103.8478429, 1.2303521], [103.8480923, 1.2301779], [103.8474124, 1.2302774], [103.8455312, 1.2321246], [103.8458942, 1.2324801], [103.8485984, 1.2316121], [103.8485622, 1.2307373], [103.8494995, 1.2296714], [103.8501107, 1.2303017], [103.8511619, 1.2302517], [103.8517156, 1.2306119], [103.8510868, 1.2311871], [103.8513256, 1.231529], [103.8516178, 1.2313709], [103.854021, 1.2318783], [103.8550887, 1.2319027]]}}, {"type": "Feature", "properties": {"group": "Singapore", "km2": 0.7771}, "geometry": {"type": "LineString", "coordinates": [[103.7188566, 1.1846169], [103.7185669, 1.1856144], [103.7171705, 1.1864548], [103.7171692, 1.1869735], [103.7173757, 1.1872173], [103.7186607, 1.186419], [103.7184363, 1.1871431], [103.7189391, 1.1871417], [103.7200434, 1.186431], [103.7212556, 1.1865429], [103.721291, 1.1869087], [103.7219644, 1.1873012], [103.7221526, 1.1870938], [103.7225044, 1.1873092], [103.7228477, 1.1879421], [103.7232554, 1.1903126], [103.7241888, 1.1912673], [103.7247145, 1.1912458], [103.7251544, 1.1906773], [103.7268281, 1.1902376], [103.7302398, 1.1896905], [103.7309479, 1.1890898], [103.7307656, 1.1876417], [103.7304759, 1.1874165], [103.7284696, 1.1872556], [103.7277195, 1.1857005], [103.7278044, 1.1842307], [103.7273182, 1.1844066], [103.7245214, 1.1840483], [103.7239098, 1.1837587], [103.7221288, 1.1822356], [103.7212062, 1.1821605], [103.7193665, 1.1800243], [103.7187063, 1.1840698], [103.7188566, 1.1846169]]}}, {"type": "Feature", "properties": {"group": "Singapore", "km2": 0.6185}, "geometry": {"type": "LineString", "coordinates": [[103.8748121, 1.1515328], [103.8750672, 1.1487453], [103.8764271, 1.1468574], [103.8763037, 1.1466295], [103.8751826, 1.146305], [103.8741767, 1.1446799], [103.8734043, 1.1443823], [103.8717064, 1.1449695], [103.8710278, 1.146128], [103.8699871, 1.1470318], [103.8700435, 1.1476888], [103.8696599, 1.149212], [103.8697994, 1.1503329], [103.8692039, 1.1523441], [103.8693434, 1.1531486], [103.8707274, 1.1538995], [103.8708991, 1.1546718], [103.8733238, 1.1553583], [103.8740694, 1.1548917], [103.8741392, 1.1533042], [103.8747883, 1.1517488], [103.8748121, 1.1515328]]}}, {"type": "Feature", "properties": {"group": "Singapore", "km2": 0.61}, "geometry": {"type": "LineString", "coordinates": [[103.8955754, 1.1663853], [103.8963251, 1.166396], [103.8972786, 1.1654977], [103.8980712, 1.1655634], [103.8985044, 1.1652027], [103.9004919, 1.1617796], [103.9019403, 1.1604656], [103.9039734, 1.1575962], [103.9049712, 1.1567354], [103.9051844, 1.1561347], [103.9046051, 1.1553851], [103.9014481, 1.1554468], [103.8999139, 1.1560341], [103.89833, 1.1570625], [103.8958061, 1.1630815], [103.8957256, 1.1640657], [103.8951167, 1.1654065], [103.8951758, 1.1660984], [103.8954641, 1.166325], [103.8955754, 1.1663853]]}}, {"type": "Feature", "properties": {"group": "Singapore", "km2": 0.5312}, "geometry": {"type": "LineString", "coordinates": [[104.069581, 1.4686249], [104.0686664, 1.4700621], [104.0680334, 1.4722956], [104.0681621, 1.4731], [104.0686637, 1.473592], [104.0696293, 1.4734781], [104.0705922, 1.472982], [104.0725931, 1.4709737], [104.0736017, 1.470786], [104.0744117, 1.4714161], [104.0748194, 1.4714295], [104.0765628, 1.4703838], [104.0770054, 1.4696357], [104.0770121, 1.4676663], [104.0764153, 1.4661178], [104.0755798, 1.4653872], [104.0726334, 1.4657384], [104.0721157, 1.4669034], [104.0698895, 1.4683406], [104.069581, 1.4686249]]}}, {"type": "Feature", "properties": {"group": "Singapore", "km2": 0.4862}, "geometry": {"type": "LineString", "coordinates": [[103.8821616, 1.1581975], [103.8791576, 1.1553556], [103.8770569, 1.154949], [103.8763439, 1.1552604], [103.8751933, 1.1571483], [103.8753784, 1.1581003], [103.8751504, 1.1589088], [103.8779131, 1.1609496], [103.8780793, 1.1627359], [103.8783315, 1.1633738], [103.8788363, 1.163641], [103.8793588, 1.1636567], [103.881001, 1.1617277], [103.8823816, 1.1609603], [103.8825372, 1.1592065], [103.8821616, 1.1581975]]}}, {"type": "Feature", "properties": {"group": "Singapore", "km2": 0.4749}, "geometry": {"type": "LineString", "coordinates": [[103.6535401, 1.1492867], [103.6514649, 1.1517837], [103.6519799, 1.1530199], [103.6528194, 1.1533578], [103.6562768, 1.1529395], [103.656714, 1.1512312], [103.6587954, 1.1470613], [103.6597395, 1.146364], [103.6596993, 1.1459913], [103.6592191, 1.1458299], [103.659263, 1.1450294], [103.6600587, 1.1448408], [103.6608043, 1.1428483], [103.6605361, 1.1424541], [103.6607668, 1.14147], [103.6605199, 1.1409802], [103.6601499, 1.1409068], [103.6593719, 1.141487], [103.6578296, 1.1419241], [103.6570891, 1.1437772], [103.657214, 1.1441047], [103.6575997, 1.1442645], [103.6574414, 1.1446285], [103.6568971, 1.1444379], [103.6560622, 1.1464364], [103.6565937, 1.1466111], [103.6569443, 1.1471595], [103.6563143, 1.1488607], [103.6555521, 1.1494269], [103.6542007, 1.1495552], [103.6535401, 1.1492867]]}}, {"type": "Feature", "properties": {"group": "Singapore", "km2": 0.4718}, "geometry": {"type": "LineString", "coordinates": [[103.7937214, 1.2043589], [103.7930025, 1.2053193], [103.7917667, 1.2078374], [103.7919572, 1.2080744], [103.7918133, 1.2106265], [103.7924481, 1.2108042], [103.7930618, 1.2105418], [103.7965491, 1.2075454], [103.7982716, 1.2049299], [103.8015262, 1.2014129], [103.8013485, 1.2006892], [103.8007602, 1.2007104], [103.7984621, 1.2014553], [103.7958127, 1.2030635], [103.7937214, 1.2043589]]}}, {"type": "Feature", "properties": {"group": "Singapore", "km2": 0.4255}, "geometry": {"type": "LineString", "coordinates": [[103.8515876, 1.2198806], [103.8505102, 1.2198297], [103.8509302, 1.2172719], [103.851406, 1.2172968], [103.8516007, 1.2178203], [103.8516781, 1.216279], [103.8512062, 1.2164513], [103.8509004, 1.2155235], [103.8511042, 1.2147834], [103.8515763, 1.2143758], [103.8520162, 1.214306], [103.8519196, 1.2150784], [103.8520806, 1.2149175], [103.8519277, 1.2134667], [103.8516441, 1.2133721], [103.8507824, 1.2143382], [103.8506, 1.2140164], [103.8504981, 1.2144669], [103.8493267, 1.2149853], [103.8487887, 1.2155613], [103.8486916, 1.2161867], [103.8482402, 1.2168184], [103.8457977, 1.2194986], [103.843802, 1.221279], [103.8431678, 1.2221753], [103.8442884, 1.2232575], [103.8458312, 1.22338], [103.8462008, 1.2232172], [103.8458345, 1.2233317], [103.8457649, 1.22302], [103.8463226, 1.2223993], [103.8476616, 1.221936], [103.8482661, 1.2221794], [103.84808, 1.2223957], [103.8487689, 1.2223378], [103.848444, 1.2215739], [103.8501831, 1.220534], [103.850631, 1.2210235], [103.849823, 1.2215065], [103.8510919, 1.2209074], [103.8516157, 1.2216364], [103.85173, 1.2215029], [103.8513421, 1.220818], [103.8516084, 1.22014], [103.8515429, 1.2191097], [103.851584, 1.2198188], [103.8515876, 1.2198806]]}}, {"type": "Feature", "properties": {"group": "Singapore", "km2": 0.3848}, "geometry": {"type": "LineString", "coordinates": [[103.8575735, 1.4499156], [103.8582143, 1.4498079], [103.8591926, 1.449185], [103.8612203, 1.4470889], [103.8654892, 1.4408709], [103.8659887, 1.438758], [103.8650567, 1.4373767], [103.8638027, 1.4384711], [103.8624149, 1.4404093], [103.8619853, 1.4411256], [103.8619564, 1.4418599], [103.8616248, 1.4417297], [103.8601141, 1.443185], [103.8597843, 1.4442803], [103.8598551, 1.4455609], [103.8596535, 1.4462815], [103.8580493, 1.4491704], [103.8569763, 1.4496055], [103.8573908, 1.4499007], [103.8575735, 1.4499156]]}}, {"type": "Feature", "properties": {"group": "Singapore", "km2": 0.3299}, "geometry": {"type": "LineString", "coordinates": [[103.6995254, 1.3033439], [103.6994388, 1.2995388], [103.695506, 1.2996246], [103.6950891, 1.3035485], [103.6943993, 1.3047991], [103.6947726, 1.3060058], [103.6953387, 1.3065015], [103.6963146, 1.3068817], [103.6980438, 1.3052837], [103.6984776, 1.3043027], [103.699398, 1.303348], [103.6995254, 1.3033439]]}}, {"type": "Feature", "properties": {"group": "Singapore", "km2": 0.2334}, "geometry": {"type": "LineString", "coordinates": [[104.0732218, 1.1372779], [104.0736794, 1.1365062], [104.0733737, 1.134208], [104.0738323, 1.133087], [104.0731242, 1.1323201], [104.0720513, 1.132245], [104.0706995, 1.1335376], [104.0688954, 1.1345532], [104.0686503, 1.1361334], [104.0692323, 1.1366885], [104.0724966, 1.1375038], [104.0730867, 1.1373884], [104.0732218, 1.1372779]]}}, {"type": "Feature", "properties": {"group": "Singapore", "km2": 0.1899}, "geometry": {"type": "LineString", "coordinates": [[103.7070162, 1.4761518], [103.706731, 1.4768051], [103.7068913, 1.477498], [103.708268, 1.4786722], [103.7098229, 1.4794216], [103.7114186, 1.4795664], [103.7123633, 1.479195], [103.7125607, 1.4782413], [103.7123142, 1.4775222], [103.7110613, 1.4765515], [103.7092675, 1.4758174], [103.7078219, 1.4756937], [103.7070162, 1.4761518]]}}, {"type": "Feature", "properties": {"group": "Singapore", "km2": 0.1841}, "geometry": {"type": "LineString", "coordinates": [[103.9538459, 1.399921], [103.9529949, 1.3998689], [103.9522375, 1.4002005], [103.9499878, 1.4021158], [103.9491316, 1.4032244], [103.9487164, 1.4046281], [103.9455914, 1.407637], [103.946194, 1.4077957], [103.9472395, 1.4073231], [103.947144, 1.4069209], [103.9476667, 1.4066619], [103.9484076, 1.4048761], [103.951628, 1.4033698], [103.9519099, 1.4034834], [103.9531125, 1.4030523], [103.9537211, 1.402329], [103.954105, 1.4012248], [103.9539655, 1.4000379], [103.9538459, 1.399921]]}}, {"type": "Feature", "properties": {"group": "Singapore", "km2": 0.1641}, "geometry": {"type": "LineString", "coordinates": [[103.977187, 1.1468843], [103.9773479, 1.1465544], [103.9768678, 1.146179], [103.9769268, 1.145758], [103.9765567, 1.1453624], [103.9769483, 1.1452592], [103.9767981, 1.1445217], [103.9753631, 1.1428618], [103.9748856, 1.1427196], [103.9739388, 1.1441275], [103.9730456, 1.1471953], [103.9723724, 1.1480427], [103.9746684, 1.1472275], [103.9769778, 1.1469781], [103.977187, 1.1468843]]}}, {"type": "Feature", "properties": {"group": "Singapore", "km2": 0.1432}, "geometry": {"type": "LineString", "coordinates": [[103.8649017, 1.1549762], [103.8639817, 1.1548703], [103.8631743, 1.1573374], [103.8645261, 1.1589303], [103.8667712, 1.160298], [103.867211, 1.1615315], [103.8677394, 1.1614913], [103.8676697, 1.1603114], [103.866924, 1.1593486], [103.866511, 1.157855], [103.8652588, 1.1565594], [103.8649513, 1.155003], [103.8649017, 1.1549762]]}}, {"type": "Feature", "properties": {"group": "Singapore", "km2": 0.117}, "geometry": {"type": "LineString", "coordinates": [[103.9772752, 1.4291781], [103.9786737, 1.4289452], [103.9790569, 1.4285655], [103.9791693, 1.427731], [103.9786863, 1.4265966], [103.9769994, 1.426029], [103.9758659, 1.4264673], [103.9754447, 1.4277743], [103.9756102, 1.4285935], [103.9768556, 1.4291968], [103.9772752, 1.4291781]]}}, {"type": "Feature", "properties": {"group": "Singapore", "km2": 0.0905}, "geometry": {"type": "LineString", "coordinates": [[103.7504311, 1.2234504], [103.7488103, 1.2229327], [103.7468722, 1.2242499], [103.7475266, 1.2238959], [103.7478056, 1.2243893], [103.7474086, 1.2254942], [103.7470224, 1.2256551], [103.746679, 1.2250115], [103.7471833, 1.2265775], [103.7467747, 1.2280624], [103.7475517, 1.2282807], [103.7484255, 1.2279729], [103.7473716, 1.2282596], [103.7470436, 1.2280769], [103.7472691, 1.2266312], [103.747591, 1.2262986], [103.7484815, 1.226009], [103.7500694, 1.2258803], [103.7503916, 1.2260555], [103.7494516, 1.224141], [103.7495329, 1.2238316], [103.7501446, 1.223406], [103.7504081, 1.2234994], [103.7504311, 1.2234504]]}}, {"type": "Feature", "properties": {"group": "Singapore", "km2": 0.087}, "geometry": {"type": "LineString", "coordinates": [[103.7244614, 1.4512098], [103.7280213, 1.4504978], [103.7254456, 1.4490853], [103.7235149, 1.4484068], [103.7231721, 1.4485335], [103.7231168, 1.4490139], [103.7243, 1.4511702], [103.7244614, 1.4512098]]}}, {"type": "Feature", "properties": {"group": "Singapore", "km2": 0.0853}, "geometry": {"type": "LineString", "coordinates": [[103.8603095, 1.2224314], [103.8606152, 1.2220559], [103.8601163, 1.2225976], [103.8600681, 1.223091], [103.8590327, 1.2234986], [103.8581422, 1.2246195], [103.8580779, 1.2253168], [103.8591186, 1.2254776], [103.859254, 1.2253106], [103.8587377, 1.2252631], [103.8589415, 1.2247965], [103.8606796, 1.2240242], [103.8614843, 1.2243621], [103.8608298, 1.2250003], [103.8618544, 1.2241368], [103.8627234, 1.2219379], [103.8620475, 1.2208438], [103.861436, 1.2209887], [103.8618973, 1.2208331], [103.8623909, 1.2214123], [103.8620368, 1.2219433], [103.8610712, 1.2225815], [103.8603792, 1.2224957], [103.8603095, 1.2224314]]}}, {"type": "Feature", "properties": {"group": "Singapore", "km2": 0.0823}, "geometry": {"type": "LineString", "coordinates": [[103.839941, 1.1345097], [103.8386093, 1.1355207], [103.8373688, 1.1354362], [103.8371515, 1.135707], [103.8372836, 1.1361012], [103.8360733, 1.1367341], [103.8362838, 1.137245], [103.8369785, 1.136765], [103.8374727, 1.1369889], [103.8376303, 1.1373355], [103.8372923, 1.138319], [103.837861, 1.1383069], [103.8399772, 1.1359604], [103.8405532, 1.1347503], [103.8404936, 1.1345338], [103.8399611, 1.1344936], [103.839941, 1.1345097]]}}, {"type": "Feature", "properties": {"group": "Singapore", "km2": 0.0556}, "geometry": {"type": "LineString", "coordinates": [[103.8109818, 1.2639684], [103.8114492, 1.2648043], [103.8119915, 1.2649833], [103.8122441, 1.2648785], [103.8124957, 1.2642372], [103.8127476, 1.2642994], [103.8134526, 1.2629521], [103.8113223, 1.2625702], [103.8113143, 1.2628537], [103.8105258, 1.2630167], [103.8102853, 1.2635703], [103.8094388, 1.2640517], [103.8101006, 1.2636706], [103.8108654, 1.263925], [103.8109818, 1.2639684]]}}, {"type": "Feature", "properties": {"group": "Singapore", "km2": 0.0554}, "geometry": {"type": "LineString", "coordinates": [[103.9433455, 1.1463238], [103.9436808, 1.1465839], [103.9437667, 1.1472517], [103.9453143, 1.1489492], [103.9459634, 1.1482439], [103.9463335, 1.1472114], [103.9459258, 1.1469942], [103.9451185, 1.1470452], [103.9447215, 1.1462058], [103.9437398, 1.1456829], [103.9433992, 1.1457794], [103.9433187, 1.1462326], [103.9433455, 1.1463238]]}}, {"type": "Feature", "properties": {"group": "Singapore", "km2": 0.0546}, "geometry": {"type": "LineString", "coordinates": [[103.8339511, 1.2126017], [103.8342123, 1.2124673], [103.8342887, 1.2129534], [103.8338288, 1.2132792], [103.8336182, 1.2131555], [103.833706, 1.2129554], [103.8333929, 1.2135292], [103.8344108, 1.2146772], [103.8348416, 1.215533], [103.8351551, 1.2155525], [103.8362443, 1.2148162], [103.836632, 1.2140218], [103.8362416, 1.2145608], [103.8358317, 1.2143867], [103.8349654, 1.21294], [103.8350109, 1.2125645], [103.8354918, 1.212533], [103.8344263, 1.2123298], [103.8340254, 1.2125308], [103.8339511, 1.2126017]]}}, {"type": "Feature", "properties": {"group": "Singapore", "km2": 0.0514}, "geometry": {"type": "LineString", "coordinates": [[103.8918498, 1.168595], [103.8913509, 1.1686486], [103.8906087, 1.1705776], [103.8897094, 1.1711868], [103.889232, 1.1722072], [103.889523, 1.172293], [103.8899079, 1.1718157], [103.8908802, 1.1715073], [103.891823, 1.1705526], [103.8921556, 1.169732], [103.8925633, 1.1695255], [103.8926008, 1.1691099], [103.891933, 1.1686701], [103.8918498, 1.168595]]}}, {"type": "Feature", "properties": {"group": "Ulleung", "km2": 73.6725}, "geometry": {"type": "LineString", "coordinates": [[130.8730131, 37.541575], [130.8740216, 37.5423534], [130.8741931, 37.5427607], [130.8738499, 37.5429766], [130.8740699, 37.5431127], [130.8746761, 37.5427362], [130.8757007, 37.543185], [130.8772993, 37.5430829], [130.8802819, 37.5434572], [130.8840262, 37.5423513], [130.8869391, 37.5426448], [130.8877758, 37.5421823], [130.8886899, 37.5411499], [130.8895784, 37.540969], [130.8923572, 37.5411349], [130.8930571, 37.5415727], [130.8926372, 37.5419925], [130.8931629, 37.5417191], [130.8936817, 37.5418674], [130.89468, 37.5426916], [130.894857, 37.5433977], [130.8966842, 37.5459726], [130.8977216, 37.5467595], [130.8988428, 37.5470564], [130.9004972, 37.5483451], [130.902924, 37.5491021], [130.9055483, 37.5491055], [130.907458, 37.5485059], [130.9082685, 37.5478392], [130.909121, 37.5462517], [130.9086963, 37.5449781], [130.9091425, 37.5448523], [130.9089894, 37.544622], [130.908488, 37.5447035], [130.9085416, 37.5440442], [130.9105265, 37.5415985], [130.9117755, 37.5413278], [130.9122373, 37.5414415], [130.9124098, 37.5419508], [130.9129458, 37.5421599], [130.912919, 37.5419217], [130.9132201, 37.54178], [130.9140938, 37.5419388], [130.9151774, 37.541641], [130.9168082, 37.5415857], [130.9179588, 37.5420005], [130.9181446, 37.5422998], [130.9190183, 37.5416921], [130.9195642, 37.5408244], [130.9194046, 37.5403182], [130.9175539, 37.5400077], [130.9170121, 37.5402756], [130.9163683, 37.5402118], [130.9151399, 37.5391399], [130.912978, 37.5383487], [130.9130263, 37.5379299], [130.9128099, 37.5379299], [130.9127849, 37.5383062], [130.9122753, 37.5381956], [130.9114813, 37.537566], [130.9110039, 37.5367408], [130.9119963, 37.5364813], [130.9122055, 37.5358305], [130.9117978, 37.5354264], [130.9103924, 37.5348606], [130.9107732, 37.5339035], [130.9106713, 37.5334696], [130.9092122, 37.5316999], [130.9087455, 37.5314447], [130.9087508, 37.5311043], [130.9095394, 37.530781], [130.9091156, 37.5299472], [130.9083539, 37.5292283], [130.9084665, 37.5290794], [130.9090191, 37.5294707], [130.9081018, 37.5283902], [130.9078764, 37.5272841], [130.9084343, 37.5264289], [130.9087616, 37.5264842], [130.9084934, 37.5260035], [130.9093409, 37.524774], [130.9092766, 37.5241613], [130.9095931, 37.5237146], [130.9105265, 37.5232381], [130.9103226, 37.5217703], [130.9105908, 37.5217617], [130.9106063, 37.5215313], [130.9103119, 37.5215235], [130.9104299, 37.5212895], [130.9116446, 37.5203865], [130.9133964, 37.5204088], [130.913096, 37.519545], [130.9127473, 37.5192472], [130.9131277, 37.518929], [130.9135377, 37.518948], [130.9133008, 37.5185789], [130.9139865, 37.5180133], [130.9142301, 37.5181301], [130.9148663, 37.5178261], [130.9154135, 37.5185281], [130.9165185, 37.5187451], [130.9162449, 37.5178601], [130.9152901, 37.5175027], [130.9157621, 37.5169411], [130.9164649, 37.5170943], [130.9170281, 37.5167454], [130.9169316, 37.5164986], [130.9159714, 37.5161369], [130.9162235, 37.5160943], [130.9159016, 37.5157922], [130.9163844, 37.5157412], [130.9164005, 37.5155242], [130.915848, 37.5152391], [130.916894, 37.5139966], [130.9174573, 37.5143285], [130.9179186, 37.5139583], [130.9175807, 37.513452], [130.9174445, 37.5126002], [130.9170255, 37.5125882], [130.9177148, 37.5127031], [130.9173795, 37.5122329], [130.9177282, 37.5123988], [130.9170308, 37.5116137], [130.917511, 37.5118832], [130.9172616, 37.5116506], [130.9179214, 37.5118137], [130.9168196, 37.5111063], [130.9169316, 37.5107627], [130.9176343, 37.5109031], [130.9171623, 37.5104393], [130.9166687, 37.5104563], [130.9163951, 37.5099074], [130.9167438, 37.5096393], [130.9154429, 37.5085754], [130.915447, 37.5082425], [130.9146242, 37.5079769], [130.9144914, 37.507295], [130.9142983, 37.5076705], [130.9139872, 37.5076992], [130.9137827, 37.5073882], [130.9136975, 37.50618], [130.9144673, 37.5053236], [130.9147516, 37.5039043], [130.9151935, 37.5034092], [130.9154087, 37.5019893], [130.9153309, 37.5006785], [130.9145343, 37.4976717], [130.9141146, 37.4975078], [130.9138544, 37.4977727], [130.9142017, 37.4981026], [130.9145746, 37.4997624], [130.9130209, 37.4996726], [130.9127976, 37.4989804], [130.912286, 37.4985023], [130.9109133, 37.497844], [130.9106599, 37.4975259], [130.9109482, 37.4973631], [130.9108664, 37.4970428], [130.910228, 37.4970439], [130.9100389, 37.4967853], [130.9101422, 37.4962427], [130.9108999, 37.4962321], [130.9101704, 37.4961235], [130.9099598, 37.4953425], [130.9106947, 37.4921493], [130.9116241, 37.4915023], [130.9120533, 37.491431], [130.9121659, 37.4917162], [130.9121659, 37.4914023], [130.9131449, 37.4913831], [130.9136076, 37.4916524], [130.9130001, 37.4951265], [130.9133086, 37.4963033], [130.9131637, 37.4966311], [130.9136438, 37.4967247], [130.9133863, 37.4951201], [130.9137718, 37.4932905], [130.9141582, 37.4926799], [130.9141669, 37.4916747], [130.9137129, 37.4906496], [130.9138149, 37.4898536], [130.9136325, 37.4895387], [130.9132087, 37.4895727], [130.9134554, 37.4891854], [130.913096, 37.488747], [130.9135079, 37.4885636], [130.9132087, 37.4881298], [130.9137129, 37.4876913], [130.913349, 37.4874144], [130.9135305, 37.486691], [130.9142869, 37.4864143], [130.914936, 37.4867379], [130.9170603, 37.4864016], [130.9177953, 37.4868017], [130.9178705, 37.4874437], [130.9191846, 37.4876317], [130.9206545, 37.486972], [130.9207403, 37.4862569], [130.9202522, 37.4855375], [130.9195387, 37.48475], [130.9186214, 37.4845669], [130.9183585, 37.4840774], [130.917983, 37.48432], [130.9175056, 37.4840306], [130.9166365, 37.4829025], [130.9159342, 37.4827754], [130.9159177, 37.48243], [130.9145773, 37.4826669], [130.9143298, 37.4823917], [130.913214, 37.4821448], [130.9112909, 37.4834453], [130.9110468, 37.4831984], [130.9112775, 37.4829706], [130.9109878, 37.482762], [130.9112866, 37.4826505], [130.9108463, 37.4823347], [130.9107205, 37.4825053], [130.9104011, 37.4816871], [130.9099273, 37.4812782], [130.909978, 37.4809345], [130.9089461, 37.4819698], [130.9089238, 37.482279], [130.9082588, 37.4814886], [130.908859, 37.4810096], [130.9086221, 37.4807358], [130.9080106, 37.4806676], [130.9095555, 37.4803399], [130.9099632, 37.4798886], [130.9091532, 37.4800121], [130.9091264, 37.4795566], [130.9086543, 37.4793224], [130.9084665, 37.4785562], [130.9080535, 37.4787392], [130.9081447, 37.4782794], [130.9078121, 37.4777899], [130.9071362, 37.4776494], [130.9073959, 37.4775519], [130.9070611, 37.4768831], [130.9066587, 37.4767596], [130.905863, 37.4770267], [130.9048509, 37.4765766], [130.9049797, 37.4762062], [130.9044325, 37.4757592], [130.9038639, 37.4758103], [130.9036493, 37.4761849], [130.9029358, 37.4759976], [130.9029626, 37.4753675], [130.9021848, 37.4758784], [130.9019327, 37.475823], [130.9021741, 37.4746863], [130.9018737, 37.4745331], [130.9012085, 37.4747374], [130.9006184, 37.4755293], [130.8997279, 37.4752568], [130.897035, 37.4758784], [130.896359, 37.4757677], [130.8950431, 37.4750619], [130.8949701, 37.474847], [130.8957035, 37.4748809], [130.8959192, 37.4747289], [130.8958119, 37.4745671], [130.8944493, 37.4747545], [130.8926576, 37.4745416], [130.8900612, 37.4738689], [130.8888418, 37.4729447], [130.8888175, 37.472438], [130.8885969, 37.4726038], [130.887482, 37.4717135], [130.8852161, 37.471026], [130.8838921, 37.4702841], [130.8839526, 37.4700244], [130.8830797, 37.4692163], [130.8837114, 37.46884], [130.88361, 37.4687276], [130.8830124, 37.469075], [130.8821477, 37.4690008], [130.8813125, 37.4678332], [130.8847132, 37.4646035], [130.8844104, 37.4644525], [130.8823986, 37.4662409], [130.8821522, 37.4660507], [130.8819313, 37.4662578], [130.8779323, 37.4633695], [130.8802443, 37.4613129], [130.8799654, 37.4607636], [130.8771437, 37.4615812], [130.8761935, 37.4594919], [130.8766115, 37.4586703], [130.8817571, 37.4603463], [130.8880796, 37.4649331], [130.8883692, 37.4646599], [130.8853397, 37.4625394], [130.8866523, 37.4611904], [130.8758429, 37.455115], [130.8757168, 37.4541888], [130.8754378, 37.453814], [130.874086, 37.4532179], [130.872659, 37.4537885], [130.8711463, 37.4567694], [130.8697038, 37.4582933], [130.8665993, 37.4595438], [130.8629, 37.4604009], [130.861955, 37.4601029], [130.8622366, 37.4599581], [130.8622688, 37.4594344], [130.8619603, 37.4594663], [130.8621964, 37.4596409], [130.8617806, 37.4599177], [130.8619067, 37.4600646], [130.8617076, 37.4603144], [130.8601472, 37.4600582], [130.8598199, 37.4602732], [130.8579907, 37.4601391], [130.8580786, 37.4594351], [130.8576876, 37.4592917], [130.8574339, 37.4599854], [130.8577201, 37.4604285], [130.8569198, 37.4606955], [130.8563083, 37.4604826], [130.8568447, 37.4596182], [130.8565155, 37.4599262], [130.8562654, 37.4598098], [130.8555358, 37.4602952], [130.8549779, 37.4603463], [130.8543771, 37.4611809], [130.8539158, 37.4614194], [130.85382, 37.46182], [130.8526927, 37.4622028], [130.8521026, 37.4627564], [130.8512765, 37.4630119], [130.8510619, 37.4634973], [130.8503538, 37.4635654], [130.8503431, 37.4637953], [130.8499461, 37.4638805], [130.8498925, 37.4634206], [130.8492809, 37.4635143], [130.8481633, 37.4631934], [130.8455151, 37.4636846], [130.845204, 37.4638379], [130.8453668, 37.4641134], [130.8449138, 37.4640991], [130.843777, 37.4635654], [130.8428329, 37.4627053], [130.8409768, 37.4626712], [130.8403438, 37.4630374], [130.8395069, 37.4644596], [130.8386594, 37.4651408], [130.8363527, 37.4662001], [130.8346468, 37.4666566], [130.8340245, 37.46658], [130.834164, 37.4669121], [130.8334344, 37.4671335], [130.833017, 37.4667343], [130.8326941, 37.466861], [130.83278, 37.4664778], [130.8349707, 37.4658271], [130.8347661, 37.4653632], [130.8316963, 37.46658], [130.830999, 37.4680446], [130.8299475, 37.4678147], [130.8298081, 37.4682745], [130.830205, 37.4686237], [130.8306664, 37.4685981], [130.8307093, 37.4692197], [130.8298599, 37.47041], [130.829011, 37.4708271], [130.8255916, 37.4718935], [130.8211821, 37.4728301], [130.8197122, 37.4728131], [130.8184999, 37.4724125], [130.8173436, 37.472465], [130.8123093, 37.4736305], [130.8101099, 37.4747885], [130.8094877, 37.4755548], [130.8085328, 37.4778963], [130.8085435, 37.4781092], [130.8088117, 37.4781347], [130.8089941, 37.4791479], [130.8089083, 37.4799823], [130.8082217, 37.4810806], [130.8041554, 37.4832601], [130.8020526, 37.4837113], [130.8017522, 37.4848351], [130.8018702, 37.4858738], [130.8016234, 37.4862569], [130.8023711, 37.4866408], [130.8017093, 37.4880361], [130.8021445, 37.4883745], [130.8016601, 37.4891301], [130.801708, 37.4898383], [130.8024283, 37.4907817], [130.8024503, 37.4917333], [130.8030611, 37.4923205], [130.8029167, 37.4939597], [130.8035096, 37.4950152], [130.8035612, 37.4955452], [130.8030933, 37.4957486], [130.8035104, 37.4958834], [130.8036009, 37.4966886], [130.8033508, 37.4970425], [130.8049386, 37.4982086], [130.8049279, 37.4984725], [130.8044773, 37.498515], [130.8048206, 37.4988129], [130.8041769, 37.4988981], [130.8047777, 37.4990938], [130.8042225, 37.5000759], [130.8034165, 37.5000121], [130.8034862, 37.5001653], [130.8015658, 37.5007143], [130.8019627, 37.5012122], [130.802526, 37.5012633], [130.8021558, 37.5015144], [130.8027352, 37.5016037], [130.8031697, 37.5013952], [130.8039476, 37.5020974], [130.8036042, 37.5022336], [130.8041139, 37.5023527], [130.8039046, 37.5024677], [130.8048595, 37.502574], [130.8049169, 37.5038644], [130.8036442, 37.5056505], [130.8022148, 37.5063318], [130.8016891, 37.5060552], [130.8013887, 37.5061403], [130.8013136, 37.5069105], [130.8006538, 37.5072169], [130.800466, 37.5077488], [130.7994468, 37.5079318], [130.8002944, 37.5087701], [130.8002944, 37.5092297], [130.799184, 37.5095446], [130.7988728, 37.5099744], [130.7980556, 37.5101668], [130.7973118, 37.5100467], [130.7967431, 37.5108255], [130.7969684, 37.5109914], [130.7977034, 37.5103843], [130.7982774, 37.5106638], [130.7981969, 37.5109106], [130.7977677, 37.5109361], [130.7980306, 37.5110552], [130.7981003, 37.5115957], [130.7979823, 37.5118254], [130.7975317, 37.5118297], [130.797757, 37.512068], [130.7973815, 37.5126977], [130.7958258, 37.5137062], [130.7946832, 37.5137998], [130.7942809, 37.5132679], [130.7939483, 37.5132552], [130.792929, 37.5137062], [130.792972, 37.5139062], [130.7940287, 37.5142211], [130.7935942, 37.5141785], [130.7929237, 37.5145147], [130.7933153, 37.5145402], [130.7931543, 37.5149232], [130.7934655, 37.5149998], [130.7934387, 37.5154465], [130.7941092, 37.5155018], [130.7940127, 37.5157188], [130.7930471, 37.5158976], [130.7935245, 37.5162297], [130.7927306, 37.5162039], [130.7929494, 37.5164284], [130.7925106, 37.5166989], [130.7930966, 37.5168461], [130.7923963, 37.5169195], [130.7922359, 37.5178148], [130.7926734, 37.5179416], [130.791545, 37.5182122], [130.7917811, 37.5184462], [130.7926511, 37.518436], [130.792516, 37.5186055], [130.7928538, 37.51876], [130.7935631, 37.5187089], [130.7932254, 37.5190127], [130.793641, 37.519202], [130.7935896, 37.5197945], [130.7944566, 37.5200239], [130.7942097, 37.5206523], [130.7947565, 37.5210867], [130.7945073, 37.5214087], [130.7946634, 37.5216747], [130.7940556, 37.521867], [130.7939536, 37.5224712], [130.7931329, 37.5226754], [130.7929183, 37.5230924], [130.7942648, 37.5230498], [130.7963877, 37.5234636], [130.7963931, 37.5230551], [130.7954061, 37.5220936], [130.7956367, 37.5217788], [130.7956904, 37.5209193], [130.7963287, 37.5200769], [130.7997673, 37.5190813], [130.8020418, 37.5189451], [130.8035278, 37.5194387], [130.8047562, 37.5208555], [130.8060759, 37.5216043], [130.8115851, 37.5218213], [130.8134305, 37.522417], [130.8145088, 37.5233402], [130.8140704, 37.5235715], [130.8148843, 37.5235827], [130.8158445, 37.5247399], [130.817162, 37.5257615], [130.8219114, 37.527079], [130.8231701, 37.5292472], [130.823952, 37.529806], [130.827732, 37.5296514], [130.8279157, 37.52923], [130.8269247, 37.5294283], [130.8267383, 37.5287561], [130.8267236, 37.529441], [130.8238858, 37.5294282], [130.8234888, 37.5291772], [130.822491, 37.5274202], [130.8239877, 37.5266863], [130.8273753, 37.5266459], [130.8277712, 37.5263601], [130.829674, 37.5269565], [130.8304947, 37.5275734], [130.8304594, 37.5278523], [130.8300343, 37.5280914], [130.8305532, 37.5286823], [130.8281827, 37.5302663], [130.8283937, 37.5306808], [130.828749, 37.5306151], [130.8309882, 37.5287943], [130.8364009, 37.5313936], [130.8388686, 37.5321466], [130.8393138, 37.5323891], [130.8401936, 37.5335419], [130.8410036, 37.5340311], [130.8429348, 37.5346352], [130.8431118, 37.5351031], [130.8432942, 37.534682], [130.8440935, 37.5347415], [130.844807, 37.5352265], [130.8462393, 37.5354391], [130.8477471, 37.5353723], [130.8504839, 37.5344248], [130.8531594, 37.5345799], [130.8541992, 37.5344067], [130.8546775, 37.5346224], [130.8559596, 37.5345969], [130.8564478, 37.5350308], [130.8562332, 37.5346692], [130.857157, 37.5345463], [130.8584755, 37.5349712], [130.8599293, 37.5350308], [130.8615922, 37.5358901], [130.8632284, 37.5359071], [130.86443, 37.5363112], [130.8662325, 37.5364431], [130.8675146, 37.5369918], [130.8693599, 37.538991], [130.8704435, 37.5394419], [130.8706688, 37.5398886], [130.8722353, 37.5400502], [130.8728361, 37.5410434], [130.8722406, 37.5411625], [130.8713526, 37.5403691], [130.8694329, 37.5400621], [130.8692132, 37.540216], [130.8692714, 37.5405027], [130.871275, 37.5406882], [130.8718758, 37.5413156], [130.8725121, 37.5415763], [130.8723899, 37.5413921], [130.8726808, 37.5415815], [130.8728585, 37.5414817], [130.872553, 37.5413655], [130.87282, 37.5413283], [130.8730131, 37.541575]]}}, {"type": "Feature", "properties": {"group": "Ulleung", "km2": 0.2082}, "geometry": {"type": "LineString", "coordinates": [[130.9379929, 37.5320098], [130.939097, 37.531668], [130.9398387, 37.5317679], [130.9398708, 37.5313106], [130.9403174, 37.5309161], [130.9392942, 37.5301418], [130.9400734, 37.5289804], [130.9396563, 37.5280934], [130.9399728, 37.5279892], [130.9399057, 37.5276754], [130.9393022, 37.5272223], [130.9399003, 37.5268405], [130.9386491, 37.5256971], [130.9379732, 37.5256035], [130.9377063, 37.526013], [130.9372704, 37.5259588], [130.9372088, 37.5263661], [130.9374649, 37.526297], [130.9370646, 37.5267831], [130.9368078, 37.5276802], [130.936223, 37.52751], [130.9354502, 37.5290893], [130.9358552, 37.5303634], [130.9355642, 37.5305198], [130.9367353, 37.5317047], [130.9373975, 37.5320906], [130.9379044, 37.5320544], [130.9379929, 37.5320098]]}}, {"type": "Feature", "properties": {"group": "Ulleung", "km2": 0.0922}, "geometry": {"type": "LineString", "coordinates": [[131.8650788, 37.244205], [131.8660672, 37.2434498], [131.865997, 37.2432306], [131.8662498, 37.2432523], [131.8661962, 37.2427177], [131.8659035, 37.242484], [131.8664927, 37.2421594], [131.8662932, 37.2417428], [131.8668455, 37.2418667], [131.8665274, 37.2415325], [131.8667769, 37.2411487], [131.8670116, 37.2412901], [131.8671275, 37.2410953], [131.8665194, 37.2410076], [131.8664554, 37.2407756], [131.8663879, 37.2409912], [131.8661497, 37.2409574], [131.8654968, 37.2400415], [131.864851, 37.240009], [131.8650294, 37.2404627], [131.8642046, 37.2401339], [131.8636588, 37.2402738], [131.8635441, 37.2405444], [131.8633778, 37.2402876], [131.8628807, 37.2408021], [131.8631166, 37.2407007], [131.8634532, 37.2413937], [131.8633306, 37.2419201], [131.8629421, 37.2420532], [131.8627851, 37.2423284], [131.8630821, 37.2421592], [131.8629976, 37.2424635], [131.8624817, 37.2428167], [131.8632099, 37.2429305], [131.8633615, 37.2424161], [131.8637725, 37.2425812], [131.8637774, 37.2429101], [131.8641637, 37.2425653], [131.8647089, 37.242651], [131.8652668, 37.2435856], [131.8649355, 37.243656], [131.865043, 37.2441895], [131.8650788, 37.244205]]}}, {"type": "Feature", "properties": {"group": "Ulleung", "km2": 0.083}, "geometry": {"type": "LineString", "coordinates": [[130.9225509, 37.5450401], [130.9229688, 37.5452845], [130.9231416, 37.5450438], [130.9229361, 37.5447976], [130.9233074, 37.5445069], [130.9230716, 37.5443625], [130.9232233, 37.5442774], [130.924099, 37.544307], [130.9235055, 37.543331], [130.9219647, 37.5424961], [130.9225054, 37.5423575], [130.9219688, 37.5417128], [130.9208386, 37.5417354], [130.9203101, 37.5423897], [130.9192246, 37.542393], [130.9187774, 37.5426637], [130.9187042, 37.5431569], [130.9193588, 37.543547], [130.9212086, 37.5436888], [130.9217371, 37.5439273], [130.9223062, 37.5448879], [130.9225509, 37.5450401]]}}, {"type": "Feature", "properties": {"group": "Ulleung", "km2": 0.0744}, "geometry": {"type": "LineString", "coordinates": [[131.8675875, 37.2396594], [131.8677296, 37.2396012], [131.8675143, 37.2392743], [131.8679551, 37.239111], [131.867797, 37.2392974], [131.8682482, 37.2396822], [131.8684052, 37.2406756], [131.8703341, 37.2420157], [131.8704344, 37.2413829], [131.8698837, 37.2403469], [131.8710798, 37.2410243], [131.8713288, 37.2407783], [131.8708582, 37.2404169], [131.8712996, 37.2400012], [131.8720538, 37.2399944], [131.8721255, 37.2397578], [131.8715472, 37.2395317], [131.8707368, 37.2396477], [131.8705552, 37.2392469], [131.8704661, 37.2394694], [131.8702005, 37.2392962], [131.8701411, 37.2388145], [131.8696535, 37.2389103], [131.8702758, 37.2383406], [131.8701915, 37.2381455], [131.8696334, 37.2381411], [131.8683564, 37.2390762], [131.8685209, 37.2386141], [131.8681184, 37.2389914], [131.8676939, 37.23901], [131.8681512, 37.2387015], [131.8682129, 37.2383683], [131.8671727, 37.2390069], [131.8675875, 37.2396594]]}}]}