{"type": "FeatureCollection", "features": [{"type": "Feature", "properties": {"fid": 1}, "geometry": {"type": "Polygon", "coordinates": [[[116.68853612782173, 49.879302057095366], [116.24583599938471, 50.0399506132857], [116.05666498534639, 50.01743025447161], [115.7503881054748, 49.90482846040118], [115.48014379970576, 49.92284474745245], [115.22791578098798, 50.00842211094598], [115.04324883871247, 50.121023905016415], [114.91263075759078, 50.21110534027276], [114.61986609300764, 50.25614605790094], [114.5072642989372, 50.22461755556122], [114.32259735666169, 50.28767456024066], [114.03884083560419, 50.18858498145868], [113.8811983239056, 50.116519833253605], [113.71905174044416, 50.07147911562543], [113.62897030518782, 49.99941396742035], [113.48033593701484, 49.97689360860627], [113.47583186525203, 49.93185289097809], [113.19207534419454, 49.82825924043329], [113.13923167411787, 49.73955453804976], [113.0716705976756, 49.65510319249693], [113.02212580828461, 49.5954242416396], [112.94105251655391, 49.58529008017326], [112.81268647131363, 49.515476967849594], [112.73949530516784, 49.508720860205365], [112.48951932233147, 49.522233075493816], [112.40619399471936, 49.50309077050184], [112.28120600330118, 49.486200501391274], [112.15171394012017, 49.43665571200029], [111.86508079510479, 49.369099034065606], [111.70293421164337, 49.396123464642514], [111.51376319760504, 49.328562388200254], [111.36512882943207, 49.36459496230279], [111.23901482007318, 49.301537957623346], [110.98678680135541, 49.233976881181086], [110.73005471087481, 49.17542394826446], [110.57691627093902, 49.18893616355291], [110.42828190276605, 49.206952450604184], [110.39224932866351, 49.247489096469536], [110.34720861103534, 49.22496873765545], [110.26613531930462, 49.179928020027276], [110.19407017109955, 49.16191173297601], [110.10849280760601, 49.18893616355291], [109.91481772180487, 49.197944307078544], [109.75717521010627, 49.31054610114898], [109.58151641135639, 49.37810717759124], [109.34730467968988, 49.40513160816815], [109.13561330683747, 49.39161939287969], [108.95094636456196, 49.34657867525152], [108.703222417607, 49.342074603488705], [108.50954733180585, 49.32856238820025], [108.41045775302386, 49.37360310582842], [108.3158722460047, 49.490708971661675], [108.29335188719061, 49.544757832815485], [108.15372566254328, 49.56277411986675], [108.03661979671003, 49.625831124546195], [107.96455464850494, 49.76996142095635], [107.95554650497931, 49.93210800441778], [107.64926962510773, 49.98165279380877], [107.40154567815277, 49.97714872204595], [107.24840723821698, 49.99516500909722], [107.07725251122993, 50.080742372590755], [106.96465071715949, 50.215864525475276], [106.7844878466468, 50.3014418889688], [106.49902470464792, 50.337360101874246], [106.37966680293326, 50.31934381482298], [106.27607315238846, 50.2990754918903], [106.19049578889492, 50.337360101874246], [106.07789399482449, 50.335108065992834], [106.0553736360104, 50.402669142435094], [105.5362353802699, 50.446152788379635], [105.3020236486034, 50.473177218956536], [105.16239742395607, 50.423632429565544], [104.96872233815492, 50.39660799898864], [104.89215311818703, 50.41012021427709], [104.77955132411658, 50.338055066072016], [104.67595767357179, 50.36507949664892], [104.64893324299489, 50.324542850783565], [104.39220115251429, 50.32003877902074], [104.31112786078357, 50.2569817743413], [104.24807085610414, 50.21194105671312], [104.14447720555934, 50.14888405203368], [103.82018403863648, 50.207436984950306], [103.79315960805958, 50.153388123796496], [103.71659038809169, 50.139875908508046], [103.38779314940601, 50.21194105671312], [103.27068728357277, 50.18491662613622], [103.22114249418178, 50.31103063549511], [103.15358141773952, 50.31103063549511], [102.88333711197046, 50.32003877902074], [102.64011723677832, 50.4146242860399], [102.53201951447072, 50.55425051068725], [102.35185664395802, 50.6713563765205], [102.29330371104139, 50.68937266357177], [102.19871820402224, 50.806478529405005], [102.13115712757997, 51.15329205514195], [102.12214898405433, 51.265893849212375], [102.19421413225942, 51.2974223515521], [102.10413269700307, 51.36498342799436], [101.91496168296474, 51.40552007385972], [101.47356265020865, 51.495601509116064], [101.37447307142666, 51.45956893501353], [101.24835906206778, 51.545146298507056], [101.13125319623452, 51.52713001145579], [101.09522062213199, 51.59018701613523], [101.05468397626663, 51.56766665732115], [100.78443967049759, 51.67126030786594], [100.58626051293363, 51.72981324078257], [100.3430406377415, 51.74332545607102], [99.93317010732511, 51.74332545607102], [99.77102352386368, 51.9189842548209], [99.54131586396, 51.855927250141455], [99.37016113697294, 51.61721144671213], [99.30710413229349, 51.27940606450083], [99.13144533354362, 50.90556810818699], [98.96029060655655, 50.6218115871295], [98.74859923370414, 50.36057542488609], [98.42430606678128, 50.00475375562352], [98.1675739763007, 49.86512753097618], [97.91534595758291, 49.8426071721621], [97.6766301541536, 49.87863974626463], [97.37936141780766, 50.063306688540145], [97.02353974854508, 50.17590848261058], [97.00730045855649, 50.14117786675198], [96.65598286105673, 50.20873894319424], [96.40375484233896, 50.348365167841585], [96.16954311067245, 50.52852803835428], [95.98487616839694, 50.62311354537344], [95.67409521676254, 50.60059318655936], [95.35881019336533, 50.60960133008499], [94.99398038057711, 50.767243841783596], [94.50754063019282, 50.929390425245025], [94.10217417153925, 50.99244742992447], [93.69680771288569, 51.037488147552644], [93.24640053660396, 51.019471860501376], [92.81400964737348, 51.00145557345011], [92.53475719807881, 51.037488147552644], [92.3545943275661, 51.037488147552644], [91.74204056782295, 50.87984563585403], [91.40423518561165, 50.7942682723605], [91.16551938218234, 50.76273977002078], [90.98535651166964, 50.72220312415542], [90.74664070824032, 50.564560612456816], [90.62953484240707, 50.4564628901492], [90.24218467080478, 50.4564628901492], [89.94041186269601, 50.560056540694], [89.85483449920247, 50.496999536014556], [89.81880192509993, 50.42493438780948], [89.68367977221541, 50.3798936701813], [89.62512683929879, 50.36638145489285], [89.5851488038962, 50.429209737178084], [89.50857958392831, 50.4573601856957], [89.48943727893634, 50.43596584482231], [89.48605922511422, 50.40331132454189], [89.49844542246197, 50.38642105543132], [89.49168931481775, 50.36727875043935], [89.39259973603576, 50.33912830192174], [89.3790875207473, 50.33575024809963], [89.38133955662872, 50.31210387134484], [89.40385991544281, 50.31435590722624], [89.40498593338351, 50.304221745759904], [89.39259973603576, 50.3030957278192], [89.39710380779857, 50.29183554841216], [89.34868503634829, 50.26706315371666], [89.3272906954749, 50.24116474108047], [89.33517282105984, 50.23103057961413], [89.33179476723772, 50.21639234638497], [89.31152644430504, 50.205132166977926], [89.33742485694124, 50.19387198757088], [89.36895335928097, 50.18261180816384], [89.39372575397645, 50.19049393374877], [89.4061119513242, 50.178107736401024], [89.44327054336745, 50.20625818491863], [89.4826811712921, 50.20288013109652], [89.52659587097958, 50.19049393374877], [89.52884790686099, 50.1465792340613], [89.51083161980971, 50.125184893187914], [89.52096578127605, 50.11617674966228], [89.58064473213338, 50.107168606136646], [89.59190491154042, 50.07901815761904], [89.5367300324459, 50.06212788850847], [89.52209179921675, 50.039607529694386], [89.54686419391224, 50.01933920676171], [89.59190491154042, 50.015961152939596], [89.60203907300676, 49.9923147761848], [89.60091305506606, 49.982180614718466], [89.62455943182084, 49.972046453252126], [89.60654314476957, 49.95515618414156], [89.6110472165324, 49.938265915030996], [89.59528296536253, 49.912367502394794], [89.62777913937006, 49.89991972594092], [89.62777913937006, 49.87739936712683], [89.6120148882002, 49.86388715183838], [89.65705560582838, 49.83010661361725], [89.61877099584443, 49.8188464342102], [89.63228321113289, 49.80083014715893], [89.65705560582838, 49.78506589598907], [89.68182800052388, 49.782813860107666], [89.70434835933796, 49.78956996775189], [89.72236464638924, 49.72426092719104], [89.45437237650158, 49.663455958393], [89.33726651066833, 49.58013063078088], [89.24493303953057, 49.64318763546032], [89.1773719630883, 49.62967542017187], [89.19764028602098, 49.60265098959497], [89.2269167524793, 49.55535823608538], [89.19764028602098, 49.52157769786425], [88.97468873376152, 49.45852069318481], [88.92063987260772, 49.54184602079693], [88.89811951379363, 49.55535823608538], [88.8643389755725, 49.54635009255975], [88.87785119086095, 49.49455326728735], [88.84181861675842, 49.442756442014954], [88.81029011441869, 49.463024764947626], [88.67066388977135, 49.46077272906622], [88.59409466980345, 49.49230123140594], [88.43870419398628, 49.47428494435468], [88.39591551223951, 49.499057339050175], [88.36213497401839, 49.4810410519989], [88.33511054344149, 49.492301231405946], [88.29907796933894, 49.47203290847327], [88.20674449820119, 49.47428494435468], [88.15945174469161, 49.445008477896366], [88.18197210350569, 49.41798404731946], [88.11441102706343, 49.39321165262396], [88.1571997088102, 49.354927042640014], [88.15945174469161, 49.2986261456048], [88.09189066824935, 49.25133339209522], [88.05811013002821, 49.25133339209522], [87.99730516123017, 49.19052842329718], [87.81714229071748, 49.17476417212732], [87.86499805319744, 49.096180435687344], [87.84247769438336, 49.0331234310079], [87.89202248377435, 48.97907456985409], [87.79293290499237, 48.92502570870028], [87.73437997207574, 48.893497206360564], [87.78842883322955, 48.83044020168112], [87.8830143402487, 48.77639134052731], [87.94607134492816, 48.75387098171323], [88.02264056489605, 48.74936690995041], [88.10371385662677, 48.71333433584787], [87.96408763197942, 48.58722032648898], [88.01363242137042, 48.53767553709799], [88.22532379422283, 48.49263481946982], [88.35594187534456, 48.447594101841645], [88.45052738236372, 48.39804931245066], [88.54511288938289, 48.36201673834812], [88.5991617505367, 48.312471948957125], [88.76130833399812, 48.26292715956613], [88.98651192213899, 48.217886441937964], [89.08560150092097, 48.15933350902134], [89.32431730435029, 48.0737561455278], [89.47745574428609, 48.02421135613682], [89.54501682072835, 47.97917063850864], [89.7702204088692, 47.85756070091257], [89.9278629205678, 47.83504034209849], [89.94587920761909, 47.87107291620103], [90.07649728874078, 47.87107291620103], [90.07649728874078, 47.785495552707495], [90.18009093928559, 47.704422260976784], [90.36025380979828, 47.69541411745115], [90.37376602508674, 47.6053326821948], [90.63950625909295, 47.447690170496195], [90.77462841197747, 47.33058430466294], [91.17549079886822, 46.99277892245164], [91.31511702351555, 46.83964048251585], [91.39619031524627, 46.69551018610569], [91.43222288934881, 46.53336360264427], [91.45924731992572, 46.4117536650482], [91.52680839636798, 46.32167222979185], [91.67544276454095, 46.17303786161888], [91.80606084566266, 46.046923852259994], [91.97721557264971, 45.82172026411912], [92.0267603620407, 45.55147595835008], [92.0537847926176, 45.32627237020921], [92.11684179729706, 45.1416054279337], [92.14386622787396, 45.06053213620299], [92.49518382537372, 45.00648327504918], [92.68885891117486, 45.047019920914536], [92.78794848995685, 45.03350770562608], [92.93658285812981, 45.024499562100445], [93.18881087684758, 44.997475131523544], [93.38699003441155, 44.970450700946635], [93.57165697668707, 44.94793034213255], [93.7112832013344, 44.89388148097874], [93.76533206248821, 44.835328548062115], [93.99053565062908, 44.77227154338267], [94.16169037761614, 44.700206395177595], [94.26978809992376, 44.61462903168406], [94.31933288931475, 44.5470679552418], [94.37788582223138, 44.497523165850815], [94.40568439014251, 44.41970476972994], [94.27056223725799, 44.34763962152486], [94.11967583320362, 44.334127406236405], [94.00031793148895, 44.29584279625246], [93.88771613741852, 44.20801339687752], [93.8832120656557, 44.08640345928145], [93.87195188624865, 43.949029270515524], [93.88546410153711, 43.76436232824002], [93.92149667563966, 43.63149221123691], [93.95077314209797, 43.518890417166475], [94.0903993667453, 43.43781712543576], [94.22777355551123, 43.397280479570405], [94.25029391432533, 43.30494700843265], [94.30659481136054, 43.136044317327], [94.4011803183797, 43.050466953833464], [94.56332690184114, 43.04371084618924], [94.75700198764228, 43.05497102559628], [95.55072147762655, 42.94670616000061], [95.83447799868405, 42.85212065298144], [95.96960015156857, 42.76654328948791], [96.13625080679282, 42.694478141282836], [96.2893892467286, 42.59538856250085], [96.4965765478182, 42.5548519166355], [96.77132492535006, 42.56836413192395], [97.06859366169601, 42.59989263426367], [97.43342347448423, 42.662949638943104], [97.7081718520161, 42.76203921772508], [97.89734286605442, 42.8701369400327], [98.27568489413107, 43.07282016935948], [98.52791291284886, 43.13137310227611], [98.89724679739987, 43.122364958750474], [99.2665806819509, 43.06381202583385], [99.6269064229763, 43.005259092917235], [99.82958965230308, 42.9962509493916], [100.08181767102086, 42.94220208823779], [100.275492756822, 42.937698016474975], [100.50069634496288, 42.94670616000061], [100.87903837303953, 42.910673585898074], [101.20333153996238, 42.85212065298145], [101.41952698457762, 42.76654328948792], [101.67625907505821, 42.66294963894312], [101.92398302201316, 42.53683562958423], [102.16269882544248, 42.36568090259717], [102.30682912185264, 42.27109539557801], [102.79326887223691, 42.08192438153968], [103.15809868502512, 42.01436330509742], [103.56346514367868, 41.97382665923206], [103.9266631101543, 41.96623483514746], [104.06628933480164, 42.03379591158972], [104.2374440617887, 42.096852916269164], [104.42661507582703, 42.15990992094861], [104.72388381217297, 42.27251171501904], [105.14276248611499, 42.46618680082019], [105.34544571544177, 42.56978045136499], [105.84089360935168, 42.70940667601233], [106.17419491980017, 42.74093517835205], [106.44894329733204, 42.8310166136084], [106.62009802431909, 42.876057331236574], [107.05699298531239, 43.04270798646081], [107.14257034880592, 43.09675684761462], [107.24616399935071, 43.14179756524279], [107.38579022399806, 43.14630163700561], [107.53442459217102, 43.09675684761462], [107.71458746268372, 43.00217134059545], [107.88574218967078, 42.916593977101925], [108.03888062960657, 42.87605733123657], [108.1740027824911, 42.87605733123657], [108.35866972476661, 42.849032900659665], [108.5613529540934, 42.7814718242174], [108.7460198963689, 42.70940667601232], [109.00725605861231, 42.59680488194189], [109.23696371851601, 42.515731590211175], [109.34956551258644, 42.49771530315991], [109.45315916313125, 42.515731590211175], [109.57026502896449, 42.623829312518794], [109.63782610540676, 42.758951465403314], [109.79546861710536, 42.970642838255735], [109.88555005236171, 43.14630163700561], [110.01616813348342, 43.34448079456958], [110.15129028636794, 43.53365180860791], [110.22335543457301, 43.64174953091552], [110.55665674502148, 43.975050841364], [110.6602503955663, 44.04711598956908], [110.80888476373926, 44.114677066011346], [110.99355170601477, 44.173229998927965], [111.17821864829028, 44.2588073624215], [111.26379601178381, 44.32636843886376], [111.30433265764917, 44.470498735273914], [111.35387744704018, 44.709214538703236], [111.50251181521315, 44.82632040453649], [111.68267468572584, 44.86685705040184], [111.92589456091798, 44.9073936962672], [112.15109814905885, 44.92540998331847], [112.3717976654369, 44.97495477270946], [112.46187910069325, 45.047019920914536], [112.44386281364199, 45.13710135617089], [112.37630173719973, 45.24069500671569], [112.30423658899466, 45.366809016074576], [112.2682040148921, 45.546971886587265], [112.2366755125524, 45.70011032652306], [112.25469179960366, 45.9433302017152], [112.23217144078957, 46.137005287516345], [112.2366755125524, 46.32167222979186], [112.24568365607803, 46.44328216738793], [112.35828545014846, 46.62344503790062], [112.64654604296877, 46.70001425786852], [112.8357170570071, 46.70001425786852], [113.05191250162234, 46.70902240139415], [113.40323009912208, 46.68650204258007], [113.78607619896157, 46.672989827291616], [114.03830421767934, 46.6684857555288], [114.17342637056386, 46.65046946847753], [114.29954037992275, 46.60092467908654], [114.41214217399319, 46.47931474149047], [114.46168696338418, 46.3847292344713], [114.56077654216615, 46.2541111533496], [114.64184983389687, 46.123493072227895], [114.78598013030702, 46.028907565208726], [114.91659821142873, 45.91180169937548], [115.16882623014651, 45.79469583354223], [115.36700538771046, 45.77217547472814], [115.6327456217167, 45.785687690016594], [115.92551028629983, 45.84424062293322], [116.26781974027395, 45.93882612995238], [116.53806404604299, 46.02440349344592], [116.86235721296585, 46.109980856939444], [117.23169109751687, 46.19555822043297], [117.36681325040139, 46.2541111533496], [117.4208621115552, 46.38923330623412], [117.5514801926769, 46.537867674407096], [117.77217970905495, 46.58741246379809], [118.30816424883021, 46.70001425786852], [118.50183933463136, 46.77658347783641], [118.56039226754798, 46.77658347783641], [118.63696148751588, 46.731542760208235], [118.75857142511195, 46.76757533431078], [118.87117321918238, 46.83063233899022], [118.9522465109131, 46.78108754959923], [119.13691345318861, 46.704518329631334], [119.33509261075257, 46.68199797081725], [119.58002008420353, 46.766200136892046], [119.55588782053114, 46.797748254123256], [119.51859250394655, 46.82327366653626], [119.49884792457823, 46.841284311317416], [119.4659402922977, 46.86228910187432], [119.39793118558464, 46.88028666975719], [119.33869744747972, 46.9057728933992], [119.29701444659102, 46.92825067985785], [119.25752528785442, 46.95521157764542], [119.20487307620554, 46.98215889883872], [119.16538391746896, 46.99413112834604], [119.12150707442824, 47.00161241006108], [119.10176249505994, 47.01956321257921], [119.10615017936401, 47.047972978144465], [119.1237009165803, 47.06590819570226], [119.15441470670878, 47.08981243542143], [119.18512849683725, 47.1196776550536], [119.19390386544542, 47.13908106320057], [119.20926076050966, 47.16891863881414], [119.233393024182, 47.189794974097346], [119.26410681431054, 47.20470161674473], [119.28604523583087, 47.224073991669194], [119.29701444659102, 47.25981978421351], [119.26849449861457, 47.308930870486655], [119.2246176555739, 47.34313284828638], [119.18951618114133, 47.36839833833664], [119.14563933810065, 47.39216657272024], [119.11492554797216, 47.41295498833363], [118.97671349239397, 47.46044056465115], [118.91747975428903, 47.49009728952263], [118.81656301529544, 47.53010731944792], [118.74416622427829, 47.57008685008954], [118.67396327541316, 47.61299386001481], [118.5949849579399, 47.66768621725721], [118.57085269426751, 47.70313172881804], [118.57085269426751, 47.74740474924799], [118.56646500996345, 47.78721829633645], [118.5620773256594, 47.82847423158821], [118.52478200907477, 47.85939467857453], [118.48748669249021, 47.87558374770152], [118.44799753375356, 47.8961807043852], [118.45238521805766, 47.93441046689343], [118.46335442881781, 47.96967440992774], [118.44141600729745, 47.997574632765044], [118.39095763780065, 48.00051062110621], [118.3361115839998, 47.99610657593786], [118.27249016159077, 48.00051062110621], [118.21764410778994, 48.01518805660665], [118.1781549490533, 48.02105786127797], [118.14524731677278, 48.012252903661285], [118.10575815803617, 47.978486635780946], [118.05310594638735, 47.94910670096551], [117.98290299752222, 47.940289461878436], [117.92805694372134, 47.92559072099017], [117.90611852220101, 47.90794671667689], [117.8797924163766, 47.88441201776363], [117.86443552131233, 47.86086662108629], [117.8490786262481, 47.82847423158821], [117.82275252042369, 47.80195632088645], [117.78765104599113, 47.760679317845046], [117.74816188725451, 47.73412679421472], [117.71086657066992, 47.70756072423766], [117.67357125408533, 47.67654985325808], [117.62969441104462, 47.65143230782522], [117.56607298863563, 47.64108627620188], [117.43444245951355, 47.57008685008957], [117.06807082012372, 47.36394060147599], [116.32655217273602, 47.40998571690976], [116.21905390728632, 47.44560592540256], [116.1554324848773, 47.47675383461387], [116.10278027322843, 47.51677403180141], [116.05012806157964, 47.528626010393936], [115.97773127056247, 47.52566326677373], [115.9119160060014, 47.52566326677373], [115.8768145315689, 47.54639895783151], [115.84829458359243, 47.584886344547314], [115.78686700333546, 47.67064092986421], [115.74737784459883, 47.72970005663618], [115.7188578966224, 47.785744263972674], [115.67498105358169, 47.84467295487171], [115.68156258003775, 47.89176776030613], [115.69472563294998, 47.94028946187846], [115.7144702123183, 47.978486635780946], [115.72543942307848, 48.02986131526359], [115.75615321320696, 48.078253436973895], [115.78467316118342, 48.11048958697478], [115.82635616207205, 48.117813166250436], [115.885589900177, 48.129528721980876], [115.92727290106563, 48.15148818710999], [115.94701748043398, 48.16904899616624], [115.93166058536973, 48.224618569874536], [115.90094679524125, 48.25822350755573], [115.84829458359239, 48.29180637033367], [115.80880542485575, 48.318073214505844], [115.78247931903137, 48.34578466344164], [115.77370395042323, 48.42446130433155], [115.78686700333542, 48.47684483997089], [115.78731753620524, 48.518316335470686], [115.82416231992002, 48.56403066601553], [115.86145763650461, 48.58144982527324], [115.94482363828193, 48.62207119408662], [115.99528200777873, 48.665557840335836], [116.03696500866741, 48.71913973702246], [116.06329111449182, 48.748079184512875], [116.15543248487727, 48.81891043978104], [116.24099232880663, 48.899738060821754], [116.2914506983034, 48.970355179906115], [116.3528782785604, 49.066751638086004], [116.39017359514499, 49.11990550057923], [116.40991817451331, 49.15865753930368], [116.41211201666533, 49.20884657284772], [116.40553049020922, 49.256121044108326], [116.39456127944906, 49.360537209694485], [116.41430585881737, 49.41194865272972], [116.46695807046619, 49.52315560709389], [116.54593638793943, 49.641214078241305], [116.59420091528419, 49.7306340823953], [116.63807775832494, 49.80006928761943], [116.66440386414932, 49.836872077821106], [116.68853612782173, 49.879302057095366]]]}}]}