{
"type": "FeatureCollection",
"name": "outer-mongolia-v2",
"crs": { "type": "name", "properties": { "name": "urn:ogc:def:crs:OGC:1.3:CRS84" } },
"features": [
{ "type": "Feature", "properties": { "fid": 1 }, "geometry": { "type": "Polygon", "coordinates": [ [ [ 116.688536127821735, 49.879302057095366 ], [ 116.24583599938471, 50.039950613285697 ], [ 116.056664985346387, 50.017430254471613 ], [ 115.750388105474798, 49.904828460401177 ], [ 115.480143799705758, 49.922844747452451 ], [ 115.227915780987985, 50.008422110945979 ], [ 115.043248838712472, 50.121023905016415 ], [ 114.912630757590776, 50.211105340272759 ], [ 114.619866093007644, 50.256146057900942 ], [ 114.507264298937201, 50.224617555561217 ], [ 114.322597356661689, 50.28767456024066 ], [ 114.038840835604191, 50.188584981458682 ], [ 113.881198323905593, 50.116519833253605 ], [ 113.719051740444158, 50.071479115625429 ], [ 113.628970305187821, 49.999413967420352 ], [ 113.480335937014843, 49.976893608606268 ], [ 113.475831865252033, 49.931852890978092 ], [ 113.192075344194535, 49.82825924043329 ], [ 113.139231674117866, 49.739554538049759 ], [ 113.071670597675606, 49.655103192496931 ], [ 113.022125808284613, 49.595424241639599 ], [ 112.94105251655391, 49.585290080173259 ], [ 112.812686471313626, 49.515476967849594 ], [ 112.739495305167836, 49.508720860205365 ], [ 112.489519322331475, 49.522233075493816 ], [ 112.406193994719359, 49.503090770501842 ], [ 112.281206003301179, 49.486200501391274 ], [ 112.151713940120175, 49.436655712000288 ], [ 111.865080795104788, 49.369099034065606 ], [ 111.702934211643367, 49.396123464642514 ], [ 111.513763197605044, 49.328562388200254 ], [ 111.365128829432066, 49.364594962302789 ], [ 111.23901482007318, 49.301537957623346 ], [ 110.986786801355407, 49.233976881181086 ], [ 110.730054710874811, 49.175423948264459 ], [ 110.576916270939023, 49.18893616355291 ], [ 110.428281902766045, 49.206952450604184 ], [ 110.39224932866351, 49.247489096469536 ], [ 110.347208611035342, 49.224968737655452 ], [ 110.266135319304624, 49.179928020027276 ], [ 110.194070171099554, 49.161911732976009 ], [ 110.108492807606012, 49.18893616355291 ], [ 109.914817721804866, 49.197944307078544 ], [ 109.757175210106269, 49.310546101148979 ], [ 109.58151641135639, 49.378107177591239 ], [ 109.347304679689884, 49.405131608168148 ], [ 109.13561330683747, 49.39161939287969 ], [ 108.950946364561958, 49.346578675251521 ], [ 108.703222417606995, 49.342074603488705 ], [ 108.509547331805848, 49.328562388200247 ], [ 108.410457753023863, 49.373603105828423 ], [ 108.315872246004702, 49.490708971661675 ], [ 108.29335188719061, 49.544757832815485 ], [ 108.15372566254328, 49.562774119866752 ], [ 108.036619796710028, 49.625831124546195 ], [ 107.964554648504944, 49.769961420956349 ], [ 107.95554650497931, 49.932108004417778 ], [ 107.649269625107735, 49.98165279380877 ], [ 107.401545678152772, 49.977148722045953 ], [ 107.248407238216984, 49.995165009097221 ], [ 107.077252511229929, 50.080742372590755 ], [ 106.964650717159486, 50.215864525475276 ], [ 106.784487846646797, 50.301441888968803 ], [ 106.499024704647923, 50.337360101874246 ], [ 106.379666802933258, 50.319343814822979 ], [ 106.276073152388463, 50.299075491890299 ], [ 106.190495788894921, 50.337360101874246 ], [ 106.077893994824493, 50.335108065992834 ], [ 106.055373636010401, 50.402669142435094 ], [ 105.5362353802699, 50.446152788379635 ], [ 105.302023648603395, 50.473177218956536 ], [ 105.162397423956065, 50.423632429565544 ], [ 104.968722338154919, 50.396607998988642 ], [ 104.892153118187025, 50.410120214277093 ], [ 104.779551324116582, 50.338055066072016 ], [ 104.675957673571787, 50.365079496648917 ], [ 104.648933242994886, 50.324542850783565 ], [ 104.392201152514289, 50.320038779020742 ], [ 104.311127860783571, 50.256981774341298 ], [ 104.248070856104135, 50.211941056713123 ], [ 104.14447720555934, 50.148884052033679 ], [ 103.820184038636484, 50.207436984950306 ], [ 103.793159608059582, 50.153388123796496 ], [ 103.716590388091689, 50.139875908508046 ], [ 103.387793149406008, 50.211941056713123 ], [ 103.270687283572769, 50.184916626136221 ], [ 103.221142494181777, 50.311030635495108 ], [ 103.153581417739517, 50.311030635495108 ], [ 102.883337111970462, 50.320038779020742 ], [ 102.640117236778323, 50.414624286039903 ], [ 102.532019514470718, 50.554250510687247 ], [ 102.351856643958016, 50.6713563765205 ], [ 102.293303711041389, 50.689372663571767 ], [ 102.198718204022242, 50.806478529405005 ], [ 102.131157127579968, 51.153292055141947 ], [ 102.122148984054334, 51.265893849212375 ], [ 102.194214132259418, 51.2974223515521 ], [ 102.104132697003067, 51.36498342799436 ], [ 101.914961682964744, 51.405520073859719 ], [ 101.473562650208649, 51.495601509116064 ], [ 101.374473071426664, 51.459568935013529 ], [ 101.248359062067777, 51.545146298507056 ], [ 101.131253196234525, 51.527130011455789 ], [ 101.09522062213199, 51.590187016135232 ], [ 101.054683976266631, 51.567666657321148 ], [ 100.784439670497591, 51.671260307865943 ], [ 100.586260512933634, 51.729813240782569 ], [ 100.343040637741495, 51.74332545607102 ], [ 99.933170107325111, 51.74332545607102 ], [ 99.771023523863676, 51.918984254820899 ], [ 99.541315863959994, 51.855927250141455 ], [ 99.370161136972939, 51.617211446712133 ], [ 99.307104132293489, 51.279406064500833 ], [ 99.131445333543624, 50.905568108186991 ], [ 98.960290606556555, 50.6218115871295 ], [ 98.748599233704141, 50.360575424886093 ], [ 98.424306066781284, 50.004753755623518 ], [ 98.167573976300702, 49.865127530976181 ], [ 97.915345957582915, 49.842607172162097 ], [ 97.6766301541536, 49.878639746264632 ], [ 97.379361417807658, 50.063306688540145 ], [ 97.023539748545076, 50.175908482610581 ], [ 97.007300458556486, 50.141177866751981 ], [ 96.655982861056728, 50.208738943194241 ], [ 96.403754842338955, 50.348365167841585 ], [ 96.16954311067245, 50.528528038354281 ], [ 95.984876168396937, 50.623113545373442 ], [ 95.674095216762538, 50.600593186559358 ], [ 95.358810193365329, 50.609601330084992 ], [ 94.993980380577113, 50.767243841783596 ], [ 94.507540630192821, 50.929390425245025 ], [ 94.102174171539247, 50.992447429924468 ], [ 93.696807712885686, 51.037488147552644 ], [ 93.246400536603957, 51.019471860501376 ], [ 92.814009647373481, 51.001455573450109 ], [ 92.534757198078808, 51.037488147552644 ], [ 92.354594327566105, 51.037488147552644 ], [ 91.742040567822954, 50.879845635854032 ], [ 91.404235185611654, 50.794268272360497 ], [ 91.165519382182339, 50.762739770020779 ], [ 90.985356511669636, 50.722203124155421 ], [ 90.746640708240321, 50.564560612456816 ], [ 90.629534842407068, 50.456462890149197 ], [ 90.242184670804775, 50.456462890149197 ], [ 89.94041186269601, 50.560056540693999 ], [ 89.854834499202468, 50.496999536014556 ], [ 89.818801925099933, 50.424934387809479 ], [ 89.683679772215413, 50.379893670181303 ], [ 89.625126839298787, 50.366381454892853 ], [ 89.585148803896203, 50.429209737178084 ], [ 89.508579583928309, 50.457360185695698 ], [ 89.489437278936336, 50.435965844822313 ], [ 89.486059225114218, 50.403311324541889 ], [ 89.49844542246197, 50.38642105543132 ], [ 89.491689314817748, 50.367278750439347 ], [ 89.392599736035763, 50.33912830192174 ], [ 89.379087520747305, 50.335750248099629 ], [ 89.381339556628717, 50.312103871344839 ], [ 89.403859915442808, 50.314355907226243 ], [ 89.404985933383514, 50.304221745759904 ], [ 89.392599736035763, 50.303095727819198 ], [ 89.397103807798572, 50.291835548412159 ], [ 89.348685036348286, 50.267063153716663 ], [ 89.3272906954749, 50.241164741080468 ], [ 89.335172821059842, 50.231030579614128 ], [ 89.331794767237724, 50.216392346384971 ], [ 89.311526444305045, 50.205132166977926 ], [ 89.33742485694124, 50.19387198757088 ], [ 89.368953359280965, 50.182611808163841 ], [ 89.393725753976454, 50.190493933748769 ], [ 89.406111951324206, 50.178107736401024 ], [ 89.443270543367447, 50.206258184918632 ], [ 89.4826811712921, 50.202880131096521 ], [ 89.526595870979577, 50.190493933748769 ], [ 89.528847906860989, 50.146579234061299 ], [ 89.510831619809707, 50.125184893187914 ], [ 89.520965781276047, 50.11617674966228 ], [ 89.580644732133379, 50.107168606136646 ], [ 89.591904911540425, 50.079018157619039 ], [ 89.536730032445902, 50.062127888508471 ], [ 89.522091799216753, 50.039607529694386 ], [ 89.546864193912242, 50.019339206761707 ], [ 89.591904911540425, 50.015961152939596 ], [ 89.602039073006765, 49.992314776184799 ], [ 89.600913055066059, 49.982180614718466 ], [ 89.624559431820842, 49.972046453252126 ], [ 89.606543144769574, 49.955156184141558 ], [ 89.611047216532398, 49.938265915030996 ], [ 89.595282965362529, 49.912367502394794 ], [ 89.627779139370062, 49.899919725940919 ], [ 89.627779139370062, 49.877399367126827 ], [ 89.612014888200207, 49.863887151838377 ], [ 89.657055605828376, 49.830106613617247 ], [ 89.618770995844429, 49.818846434210201 ], [ 89.632283211132886, 49.800830147158933 ], [ 89.657055605828376, 49.785065895989071 ], [ 89.681828000523879, 49.782813860107666 ], [ 89.704348359337956, 49.789569967751888 ], [ 89.722364646389238, 49.72426092719104 ], [ 89.454372376501581, 49.663455958393001 ], [ 89.337266510668329, 49.580130630780879 ], [ 89.244933039530565, 49.643187635460322 ], [ 89.177371963088305, 49.629675420171871 ], [ 89.197640286020984, 49.60265098959497 ], [ 89.226916752479298, 49.555358236085382 ], [ 89.197640286020984, 49.521577697864252 ], [ 88.974688733761525, 49.458520693184809 ], [ 88.920639872607723, 49.541846020796932 ], [ 88.898119513793631, 49.555358236085382 ], [ 88.864338975572494, 49.546350092559749 ], [ 88.877851190860952, 49.494553267287351 ], [ 88.841818616758417, 49.442756442014954 ], [ 88.810290114418692, 49.463024764947626 ], [ 88.670663889771347, 49.460772729066221 ], [ 88.594094669803454, 49.492301231405939 ], [ 88.438704193986283, 49.474284944354679 ], [ 88.395915512239512, 49.499057339050175 ], [ 88.362134974018389, 49.481041051998901 ], [ 88.335110543441488, 49.492301231405946 ], [ 88.299077969338938, 49.472032908473267 ], [ 88.206744498201189, 49.474284944354679 ], [ 88.159451744691609, 49.445008477896366 ], [ 88.181972103505686, 49.417984047319457 ], [ 88.114411027063426, 49.393211652623961 ], [ 88.157199708810197, 49.354927042640014 ], [ 88.159451744691609, 49.2986261456048 ], [ 88.091890668249349, 49.251333392095219 ], [ 88.058110130028211, 49.251333392095219 ], [ 87.997305161230173, 49.190528423297181 ], [ 87.817142290717484, 49.174764172127318 ], [ 87.864998053197439, 49.096180435687344 ], [ 87.842477694383362, 49.033123431007901 ], [ 87.892022483774355, 48.979074569854092 ], [ 87.792932904992369, 48.925025708700282 ], [ 87.734379972075743, 48.893497206360564 ], [ 87.788428833229545, 48.830440201681121 ], [ 87.883014340248707, 48.776391340527312 ], [ 87.946071344928157, 48.753870981713227 ], [ 88.022640564896051, 48.74936690995041 ], [ 88.103713856626769, 48.713334335847868 ], [ 87.964087631979424, 48.587220326488982 ], [ 88.013632421370417, 48.537675537097989 ], [ 88.225323794222831, 48.492634819469821 ], [ 88.355941875344556, 48.447594101841645 ], [ 88.450527382363717, 48.398049312450659 ], [ 88.545112889382892, 48.362016738348117 ], [ 88.599161750536695, 48.312471948957125 ], [ 88.761308333998116, 48.262927159566132 ], [ 88.986511922138988, 48.217886441937964 ], [ 89.085601500920973, 48.159333509021337 ], [ 89.324317304350288, 48.073756145527803 ], [ 89.47745574428609, 48.024211356136817 ], [ 89.54501682072835, 47.979170638508641 ], [ 89.770220408869207, 47.857560700912572 ], [ 89.927862920567804, 47.835040342098488 ], [ 89.945879207619086, 47.87107291620103 ], [ 90.076497288740782, 47.87107291620103 ], [ 90.076497288740782, 47.785495552707495 ], [ 90.180090939285591, 47.704422260976784 ], [ 90.36025380979828, 47.695414117451151 ], [ 90.373766025086738, 47.605332682194799 ], [ 90.639506259092954, 47.447690170496195 ], [ 90.774628411977474, 47.330584304662942 ], [ 91.175490798868225, 46.992778922451642 ], [ 91.315117023515555, 46.839640482515847 ], [ 91.396190315246272, 46.695510186105693 ], [ 91.432222889348807, 46.533363602644272 ], [ 91.459247319925723, 46.411753665048202 ], [ 91.526808396367983, 46.321672229791851 ], [ 91.675442764540946, 46.17303786161888 ], [ 91.806060845662657, 46.046923852259994 ], [ 91.977215572649712, 45.821720264119122 ], [ 92.026760362040704, 45.551475958350082 ], [ 92.053784792617606, 45.32627237020921 ], [ 92.116841797297056, 45.141605427933698 ], [ 92.143866227873957, 45.060532136202987 ], [ 92.495183825373715, 45.006483275049177 ], [ 92.688858911174862, 45.047019920914536 ], [ 92.787948489956847, 45.033507705626079 ], [ 92.93658285812981, 45.024499562100445 ], [ 93.188810876847583, 44.997475131523544 ], [ 93.386990034411554, 44.970450700946635 ], [ 93.571656976687066, 44.947930342132551 ], [ 93.711283201334396, 44.893881480978742 ], [ 93.765332062488213, 44.835328548062115 ], [ 93.990535650629084, 44.772271543382672 ], [ 94.161690377616139, 44.700206395177595 ], [ 94.269788099923758, 44.614629031684061 ], [ 94.319332889314751, 44.547067955241801 ], [ 94.377885822231377, 44.497523165850815 ], [ 94.405684390142511, 44.41970476972994 ], [ 94.270562237257991, 44.347639621524863 ], [ 94.119675833203615, 44.334127406236405 ], [ 94.000317931488951, 44.295842796252458 ], [ 93.887716137418522, 44.208013396877519 ], [ 93.883212065655698, 44.086403459281449 ], [ 93.871951886248652, 43.949029270515524 ], [ 93.88546410153711, 43.764362328240018 ], [ 93.921496675639659, 43.63149221123691 ], [ 93.950773142097972, 43.518890417166475 ], [ 94.090399366745302, 43.437817125435757 ], [ 94.227773555511234, 43.397280479570405 ], [ 94.250293914325326, 43.304947008432649 ], [ 94.30659481136054, 43.136044317326999 ], [ 94.401180318379701, 43.050466953833464 ], [ 94.563326901841137, 43.043710846189242 ], [ 94.757001987642283, 43.054971025596281 ], [ 95.550721477626553, 42.946706160000609 ], [ 95.834477998684051, 42.852120652981441 ], [ 95.969600151568571, 42.766543289487913 ], [ 96.136250806792816, 42.694478141282836 ], [ 96.289389246728604, 42.595388562500851 ], [ 96.496576547818194, 42.554851916635499 ], [ 96.771324925350058, 42.56836413192395 ], [ 97.068593661696013, 42.599892634263668 ], [ 97.433423474484229, 42.662949638943104 ], [ 97.708171852016093, 42.762039217725082 ], [ 97.897342866054416, 42.870136940032701 ], [ 98.275684894131075, 43.072820169359481 ], [ 98.527912912848862, 43.131373102276108 ], [ 98.897246797399873, 43.122364958750474 ], [ 99.266580681950899, 43.063812025833847 ], [ 99.626906422976305, 43.005259092917235 ], [ 99.829589652303085, 42.996250949391602 ], [ 100.081817671020858, 42.942202088237792 ], [ 100.275492756822004, 42.937698016474975 ], [ 100.500696344962876, 42.946706160000609 ], [ 100.879038373039535, 42.910673585898074 ], [ 101.203331539962377, 42.852120652981448 ], [ 101.419526984577615, 42.76654328948792 ], [ 101.676259075058212, 42.662949638943118 ], [ 101.923983022013161, 42.536835629584232 ], [ 102.162698825442476, 42.36568090259717 ], [ 102.306829121852644, 42.271095395578008 ], [ 102.793268872236908, 42.081924381539679 ], [ 103.158098685025124, 42.014363305097419 ], [ 103.563465143678684, 41.97382665923206 ], [ 103.926663110154294, 41.966234835147461 ], [ 104.066289334801638, 42.033795911589721 ], [ 104.237444061788693, 42.096852916269164 ], [ 104.42661507582703, 42.159909920948607 ], [ 104.723883812172971, 42.272511715019043 ], [ 105.142762486114989, 42.466186800820189 ], [ 105.34544571544177, 42.569780451364991 ], [ 105.840893609351681, 42.709406676012328 ], [ 106.174194919800172, 42.740935178352053 ], [ 106.448943297332036, 42.831016613608398 ], [ 106.620098024319091, 42.876057331236574 ], [ 107.056992985312391, 43.042707986460812 ], [ 107.142570348805918, 43.096756847614621 ], [ 107.246163999350713, 43.14179756524279 ], [ 107.385790223998058, 43.146301637005607 ], [ 107.534424592171021, 43.096756847614621 ], [ 107.714587462683724, 43.002171340595453 ], [ 107.885742189670779, 42.916593977101925 ], [ 108.038880629606567, 42.876057331236566 ], [ 108.174002782491101, 42.876057331236566 ], [ 108.358669724766614, 42.849032900659665 ], [ 108.561352954093394, 42.781471824217398 ], [ 108.746019896368907, 42.709406676012321 ], [ 109.007256058612313, 42.596804881941893 ], [ 109.236963718516009, 42.515731590211175 ], [ 109.349565512586437, 42.497715303159907 ], [ 109.453159163131247, 42.515731590211175 ], [ 109.570265028964485, 42.623829312518794 ], [ 109.637826105406759, 42.758951465403314 ], [ 109.795468617105357, 42.970642838255735 ], [ 109.885550052361708, 43.146301637005607 ], [ 110.016168133483419, 43.344480794569577 ], [ 110.151290286367939, 43.533651808607907 ], [ 110.223355434573008, 43.641749530915519 ], [ 110.556656745021485, 43.975050841364002 ], [ 110.660250395566294, 44.047115989569079 ], [ 110.808884763739258, 44.114677066011346 ], [ 110.99355170601477, 44.173229998927965 ], [ 111.178218648290283, 44.2588073624215 ], [ 111.263796011783811, 44.32636843886376 ], [ 111.304332657649169, 44.470498735273914 ], [ 111.353877447040176, 44.709214538703236 ], [ 111.502511815213154, 44.826320404536489 ], [ 111.682674685725843, 44.86685705040184 ], [ 111.925894560917982, 44.907393696267199 ], [ 112.151098149058853, 44.925409983318467 ], [ 112.371797665436901, 44.974954772709459 ], [ 112.461879100693253, 45.047019920914536 ], [ 112.443862813641985, 45.137101356170888 ], [ 112.376301737199725, 45.24069500671569 ], [ 112.304236588994655, 45.366809016074576 ], [ 112.268204014892106, 45.546971886587265 ], [ 112.236675512552395, 45.70011032652306 ], [ 112.254691799603663, 45.943330201715199 ], [ 112.232171440789571, 46.137005287516345 ], [ 112.236675512552395, 46.321672229791858 ], [ 112.245683656078029, 46.443282167387927 ], [ 112.358285450148458, 46.623445037900623 ], [ 112.646546042968765, 46.700014257868517 ], [ 112.835717057007102, 46.700014257868517 ], [ 113.05191250162234, 46.709022401394151 ], [ 113.403230099122084, 46.686502042580067 ], [ 113.786076198961567, 46.672989827291616 ], [ 114.03830421767934, 46.668485755528799 ], [ 114.17342637056386, 46.650469468477532 ], [ 114.299540379922746, 46.600924679086539 ], [ 114.412142173993189, 46.479314741490469 ], [ 114.461686963384182, 46.384729234471301 ], [ 114.560776542166153, 46.254111153349598 ], [ 114.64184983389687, 46.123493072227895 ], [ 114.785980130307024, 46.028907565208726 ], [ 114.916598211428735, 45.911801699375481 ], [ 115.168826230146507, 45.794695833542228 ], [ 115.367005387710464, 45.772175474728137 ], [ 115.632745621716694, 45.785687690016594 ], [ 115.925510286299826, 45.844240622933221 ], [ 116.26781974027395, 45.938826129952382 ], [ 116.53806404604299, 46.024403493445917 ], [ 116.862357212965847, 46.109980856939444 ], [ 117.231691097516872, 46.195558220432972 ], [ 117.366813250401393, 46.254111153349598 ], [ 117.420862111555195, 46.389233306234118 ], [ 117.551480192676905, 46.537867674407096 ], [ 117.772179709054953, 46.587412463798088 ], [ 118.308164248830209, 46.700014257868517 ], [ 118.501839334631356, 46.776583477836411 ], [ 118.560392267547982, 46.776583477836411 ], [ 118.636961487515876, 46.731542760208235 ], [ 118.758571425111953, 46.767575334310777 ], [ 118.871173219182381, 46.83063233899022 ], [ 118.952246510913099, 46.781087549599228 ], [ 119.136913453188612, 46.704518329631334 ], [ 119.335092610752568, 46.68199797081725 ], [ 119.580020084203525, 46.766200136892046 ], [ 119.55588782053114, 46.797748254123256 ], [ 119.51859250394655, 46.823273666536259 ], [ 119.498847924578229, 46.841284311317416 ], [ 119.465940292297702, 46.862289101874318 ], [ 119.397931185584639, 46.88028666975719 ], [ 119.338697447479717, 46.905772893399202 ], [ 119.297014446591021, 46.928250679857847 ], [ 119.257525287854421, 46.955211577645422 ], [ 119.204873076205544, 46.982158898838719 ], [ 119.165383917468958, 46.994131128346041 ], [ 119.121507074428237, 47.001612410061078 ], [ 119.101762495059944, 47.019563212579207 ], [ 119.106150179364008, 47.047972978144465 ], [ 119.123700916580304, 47.065908195702256 ], [ 119.154414706708778, 47.089812435421429 ], [ 119.185128496837251, 47.1196776550536 ], [ 119.193903865445421, 47.139081063200571 ], [ 119.209260760509665, 47.168918638814141 ], [ 119.233393024182007, 47.189794974097346 ], [ 119.264106814310537, 47.204701616744728 ], [ 119.286045235830869, 47.224073991669194 ], [ 119.297014446591021, 47.259819784213512 ], [ 119.268494498614572, 47.308930870486655 ], [ 119.224617655573894, 47.34313284828638 ], [ 119.189516181141329, 47.36839833833664 ], [ 119.145639338100651, 47.392166572720242 ], [ 119.114925547972163, 47.412954988333631 ], [ 118.976713492393969, 47.460440564651151 ], [ 118.917479754289033, 47.49009728952263 ], [ 118.816563015295444, 47.530107319447922 ], [ 118.744166224278288, 47.570086850089538 ], [ 118.673963275413158, 47.612993860014811 ], [ 118.5949849579399, 47.667686217257213 ], [ 118.570852694267515, 47.703131728818043 ], [ 118.570852694267515, 47.747404749247991 ], [ 118.566465009963451, 47.787218296336448 ], [ 118.562077325659402, 47.82847423158821 ], [ 118.524782009074769, 47.859394678574532 ], [ 118.487486692490208, 47.875583747701519 ], [ 118.447997533753565, 47.896180704385202 ], [ 118.452385218057657, 47.934410466893432 ], [ 118.463354428817809, 47.969674409927741 ], [ 118.441416007297448, 47.997574632765044 ], [ 118.390957637800653, 48.000510621106208 ], [ 118.336111583999795, 47.996106575937858 ], [ 118.272490161590767, 48.000510621106208 ], [ 118.217644107789937, 48.015188056606647 ], [ 118.178154949053294, 48.021057861277967 ], [ 118.145247316772782, 48.012252903661285 ], [ 118.105758158036167, 47.978486635780946 ], [ 118.053105946387348, 47.949106700965508 ], [ 117.982902997522217, 47.940289461878436 ], [ 117.928056943721344, 47.925590720990172 ], [ 117.906118522201012, 47.907946716676889 ], [ 117.879792416376603, 47.88441201776363 ], [ 117.86443552131233, 47.860866621086288 ], [ 117.849078626248101, 47.82847423158821 ], [ 117.822752520423691, 47.801956320886447 ], [ 117.787651045991126, 47.760679317845046 ], [ 117.748161887254511, 47.734126794214717 ], [ 117.710866570669921, 47.707560724237659 ], [ 117.673571254085331, 47.676549853258081 ], [ 117.629694411044625, 47.651432307825218 ], [ 117.566072988635625, 47.641086276201882 ], [ 117.434442459513548, 47.570086850089567 ], [ 117.068070820123722, 47.363940601475989 ], [ 116.326552172736015, 47.409985716909759 ], [ 116.219053907286323, 47.44560592540256 ], [ 116.155432484877295, 47.476753834613874 ], [ 116.102780273228433, 47.516774031801411 ], [ 116.050128061579642, 47.528626010393936 ], [ 115.977731270562472, 47.525663266773734 ], [ 115.911916006001405, 47.525663266773734 ], [ 115.876814531568897, 47.546398957831506 ], [ 115.848294583592434, 47.584886344547314 ], [ 115.786867003335459, 47.670640929864213 ], [ 115.74737784459883, 47.729700056636183 ], [ 115.718857896622396, 47.785744263972674 ], [ 115.674981053581689, 47.844672954871712 ], [ 115.681562580037749, 47.891767760306131 ], [ 115.694725632949982, 47.940289461878457 ], [ 115.714470212318304, 47.978486635780946 ], [ 115.725439423078484, 48.029861315263588 ], [ 115.756153213206957, 48.078253436973895 ], [ 115.78467316118342, 48.110489586974779 ], [ 115.826356162072045, 48.117813166250436 ], [ 115.885589900176996, 48.129528721980876 ], [ 115.927272901065635, 48.15148818710999 ], [ 115.947017480433985, 48.169048996166239 ], [ 115.931660585369727, 48.224618569874536 ], [ 115.900946795241254, 48.258223507555734 ], [ 115.848294583592391, 48.291806370333667 ], [ 115.808805424855748, 48.318073214505844 ], [ 115.782479319031367, 48.345784663441641 ], [ 115.773703950423226, 48.424461304331551 ], [ 115.786867003335416, 48.476844839970887 ], [ 115.787317536205236, 48.518316335470686 ], [ 115.824162319920021, 48.564030666015533 ], [ 115.86145763650461, 48.581449825273239 ], [ 115.944823638281932, 48.622071194086622 ], [ 115.995282007778727, 48.665557840335836 ], [ 116.036965008667408, 48.719139737022459 ], [ 116.063291114491818, 48.748079184512875 ], [ 116.155432484877267, 48.818910439781042 ], [ 116.240992328806627, 48.899738060821754 ], [ 116.291450698303393, 48.970355179906115 ], [ 116.352878278560397, 49.066751638086004 ], [ 116.390173595144987, 49.119905500579229 ], [ 116.409918174513308, 49.158657539303682 ], [ 116.412112016665333, 49.208846572847719 ], [ 116.405530490209216, 49.256121044108326 ], [ 116.394561279449064, 49.360537209694485 ], [ 116.414305858817372, 49.41194865272972 ], [ 116.466958070466191, 49.523155607093891 ], [ 116.545936387939435, 49.641214078241305 ], [ 116.594200915284191, 49.730634082395298 ], [ 116.63807775832494, 49.800069287619429 ], [ 116.664403864149321, 49.836872077821106 ], [ 116.688536127821735, 49.879302057095366 ] ] ] } }
]
}
