{
"type": "FeatureCollection",
"name": "1927-pacific-mandates",
"crs": { "type": "name", "properties": { "name": "urn:ogc:def:crs:OGC:1.3:CRS84" } },
"features": [
{ "type": "Feature", "properties": { "fid": 1, "admin_power": "Japan" }, "geometry": { "type": "MultiPolygon", "coordinates": [ [ [ [ 132.340764905329848, 1.823186595856523 ], [ 130.590970763922741, 3.374497669123936 ], [ 130.54492354967519, 13.042288806820126 ], [ 130.49887633542761, 17.20130192930116 ], [ 147.904723321003615, 23.345784897574632 ], [ 156.561599599544053, 23.452035593319817 ], [ 156.538575992420306, 16.0470407360243 ], [ 174.589083977462082, 15.846561097901558 ], [ 178.334366478025828, 9.428054438552607 ], [ 178.275441076826098, 4.010467724794342 ], [ 169.318780094469417, 4.069640870471394 ], [ 169.200929292069986, 0.039181009194409 ], [ 141.034587518606173, -0.020141516039722 ], [ 138.206168261019855, 1.759254146804568 ], [ 132.340764905329848, 1.823186595856523 ] ] ] ] } },
{ "type": "Feature", "properties": { "fid": 2, "admin_power": "Australia" }, "geometry": { "type": "MultiPolygon", "coordinates": [ [ [ [ 141.034587518606173, -0.020141516039722 ], [ 140.915448729295292, -5.465505317455851 ], [ 144.216819619930561, -5.863222230150257 ], [ 147.141092367045701, -8.110735502353528 ], [ 147.141092367045701, -8.110735502353529 ], [ 155.858378829215155, -6.90151986651846 ], [ 158.680585062731211, -4.896427280871125 ], [ 161.842690629688605, -4.896427280871125 ], [ 164.171920176777746, -4.953061348444906 ], [ 164.238978571118594, 0.028667149491969 ], [ 141.034587518606173, -0.020141516039722 ] ] ] ] } },
{ "type": "Feature", "properties": { "fid": 3, "admin_power": "Britain" }, "geometry": { "type": "MultiPolygon", "coordinates": [ [ [ [ 164.238978571118594, 0.028667149491969 ], [ 164.171920176777746, -4.953061348444906 ], [ 169.037391327317351, -5.066810006768831 ], [ 169.200929292069986, 0.039181009194409 ], [ 164.238978571118594, 0.028667149491969 ] ] ] ] } }
]
}
