{
"type": "FeatureCollection",
"name": "portuguese-india",
"crs": { "type": "name", "properties": { "name": "urn:ogc:def:crs:OGC:1.3:CRS84" } },
"features": [
{ "type": "Feature", "properties": { "fid": 1, "name": "Goa", "alt_name": null }, "geometry": { "type": "MultiPolygon", "coordinates": [ [ [ [ 73.890318574793966, 15.703034932636331 ], [ 73.925849266065967, 15.557682104705435 ], [ 74.067972031153943, 15.557682104705435 ], [ 74.21332485908485, 15.551221979019617 ], [ 74.323146995743741, 15.518921350590528 ], [ 74.352217561329923, 15.422019465303263 ], [ 74.355447624172839, 15.276666637372367 ], [ 74.3425273728012, 15.153924249341832 ], [ 74.365137812701562, 15.040872049840024 ], [ 74.316686870057922, 14.973040730138937 ], [ 74.277926115943018, 14.921359724652397 ], [ 74.235199415000068, 14.876532294000071 ], [ 74.230723504000082, 14.880113023000092 ], [ 74.220876498000052, 14.882066148000092 ], [ 74.211192254000082, 14.88735586100006 ], [ 74.208018425000034, 14.900824286000045 ], [ 74.197520379000082, 14.890855210000041 ], [ 74.166188998000052, 14.876532294000071 ], [ 74.15951582100007, 14.86977773600006 ], [ 74.154063347000033, 14.862127997000073 ], [ 74.140879754000082, 14.852687893000052 ], [ 74.125010613000029, 14.845851955000057 ], [ 74.111827019000032, 14.846177476000037 ], [ 74.103037957000083, 14.856919664000088 ], [ 74.09115644600007, 14.887600002000056 ], [ 74.081065300000034, 14.89398834800005 ], [ 74.077159050000034, 14.898382880000042 ], [ 74.035980665000068, 14.921291408000059 ], [ 74.030284050000034, 14.935207424000055 ], [ 74.031016472000033, 14.949774481000077 ], [ 74.035980665000068, 14.979641018000052 ], [ 74.031260613000029, 14.995306708000044 ], [ 74.020192905000044, 15.001776434000078 ], [ 74.006846550000034, 15.004868882000039 ], [ 73.99577884200005, 15.010687567000048 ], [ 73.972992384000065, 15.056870835000041 ], [ 73.964366082000083, 15.064642645000049 ], [ 73.913096550000034, 15.078924872000073 ], [ 73.922536655000044, 15.107855536000045 ], [ 73.92896569100003, 15.120591539000088 ], [ 73.937022332000083, 15.130438544000071 ], [ 73.95826256600003, 15.143133856000077 ], [ 73.96216881600003, 15.152044989000046 ], [ 73.954112175000034, 15.16828034100007 ], [ 73.947276238000029, 15.160834052000041 ], [ 73.891286655000044, 15.34320709800005 ], [ 73.882578972000033, 15.355292059000078 ], [ 73.869476759000065, 15.359564520000049 ], [ 73.848399285000085, 15.36009349200009 ], [ 73.82740319100003, 15.365179755000042 ], [ 73.810394727000073, 15.37759023600006 ], [ 73.78288821700005, 15.407904364000046 ], [ 73.839366082000083, 15.404038804000038 ], [ 73.848399285000085, 15.404486395000049 ], [ 73.860118035000085, 15.407863674000055 ], [ 73.871918165000068, 15.401841539000088 ], [ 73.884938998000052, 15.398016669000071 ], [ 73.899587436000047, 15.407904364000046 ], [ 73.933360222000033, 15.395412502000056 ], [ 73.945323113000029, 15.385687567000048 ], [ 73.954112175000034, 15.366278387000079 ], [ 73.958506707000083, 15.367173570000091 ], [ 73.961680535000085, 15.368231512000079 ], [ 73.96420332100007, 15.370184637000079 ], [ 73.967784050000034, 15.37376536700009 ], [ 73.959971550000034, 15.380682684000078 ], [ 73.937022332000083, 15.411322333000044 ], [ 73.927582227000073, 15.417385158000059 ], [ 73.885915561000047, 15.435207424000055 ], [ 73.879161004000082, 15.435777085000041 ], [ 73.865082227000073, 15.43431224200009 ], [ 73.858571811000047, 15.435207424000055 ], [ 73.854177280000044, 15.438299872000073 ], [ 73.846853061000047, 15.447088934000078 ], [ 73.841563347000033, 15.448879299000055 ], [ 73.806162957000083, 15.452215887000079 ], [ 73.796397332000083, 15.448879299000055 ], [ 73.795176629000082, 15.460760809000078 ], [ 73.80046634200005, 15.475002346000053 ], [ 73.808848504000082, 15.488023179000038 ], [ 73.817556186000047, 15.496649481000077 ], [ 73.828135613000029, 15.50141022300005 ], [ 73.872243686000047, 15.510931708000044 ], [ 73.863129102000073, 15.51634349200009 ], [ 73.859548373000052, 15.521144924000055 ], [ 73.860524936000047, 15.525864976000037 ], [ 73.865977410000085, 15.531398830000057 ], [ 73.865977410000085, 15.537583726000037 ], [ 73.796397332000083, 15.500392971000053 ], [ 73.78638756600003, 15.492173570000091 ], [ 73.766286655000044, 15.497259833000044 ], [ 73.75123131600003, 15.51312897300005 ], [ 73.756114129000082, 15.537583726000037 ], [ 73.741221550000034, 15.559963283000059 ], [ 73.736827019000032, 15.57172272300005 ], [ 73.735118035000085, 15.586004950000074 ], [ 73.737071160000085, 15.598537502000056 ], [ 73.741709832000083, 15.604193427000041 ], [ 73.746592644000032, 15.608384507000039 ], [ 73.748708530000044, 15.616766669000071 ], [ 73.760427280000044, 15.632025458000044 ], [ 73.787364129000082, 15.641791083000044 ], [ 73.838145379000082, 15.654282945000091 ], [ 73.838145379000082, 15.661118882000039 ], [ 73.801036004000082, 15.661851304000038 ], [ 73.783864780000044, 15.659125067000048 ], [ 73.77662194100003, 15.650864976000037 ], [ 73.768239780000044, 15.646918036000045 ], [ 73.733246290000068, 15.625067450000074 ], [ 73.728282097000033, 15.619574286000045 ], [ 73.718272332000083, 15.627142645000049 ], [ 73.707041863000029, 15.643703518000052 ], [ 73.697927280000044, 15.66282786700009 ], [ 73.69076582100007, 15.693793036000045 ], [ 73.685883009000065, 15.704291083000044 ], [ 73.68677819100003, 15.713120835000041 ], [ 73.70085696700005, 15.723211981000077 ], [ 73.796646752349602, 15.725645372536693 ], [ 73.890318574793966, 15.703034932636331 ] ] ] ] } },
{ "type": "Feature", "properties": { "fid": 8, "name": "Damão", "alt_name": "Daman" }, "geometry": { "type": "MultiPolygon", "coordinates": [ [ [ [ 72.854914843990088, 20.469308816150164 ], [ 72.844513026214074, 20.461159628068618 ], [ 72.837063120003435, 20.453996256712234 ], [ 72.831905492626831, 20.445973280793083 ], [ 72.827894004667257, 20.43709070031117 ], [ 72.827607469813003, 20.426202375849467 ], [ 72.828180539521512, 20.415314051387764 ], [ 72.827320934958749, 20.408723749739892 ], [ 72.82674786525024, 20.400414238966487 ], [ 72.825601725833224, 20.392104728193083 ], [ 72.823309446999176, 20.383508682565424 ], [ 72.820730633310873, 20.374339567229253 ], [ 72.820157563602365, 20.371187683832442 ], [ 72.820444098456619, 20.367749265581384 ], [ 72.828467074375766, 20.367462730727127 ], [ 72.83734965485769, 20.374339567229256 ], [ 72.89207781202046, 20.370328079269683 ], [ 72.897808509105559, 20.380070264314362 ], [ 72.902393066773641, 20.417892865076066 ], [ 72.891504742311952, 20.427348515266488 ], [ 72.870918332682251, 20.422848210176429 ], [ 72.86121186636143, 20.426424276715675 ], [ 72.885222598839235, 20.441494842845351 ], [ 72.886244503757894, 20.451406153425697 ], [ 72.885747207571114, 20.462843965721884 ], [ 72.854914843990088, 20.469308816150164 ] ] ] ] } },
{ "type": "Feature", "properties": { "fid": 9, "name": "Dadrá", "alt_name": "Dadra" }, "geometry": { "type": "MultiPolygon", "coordinates": [ [ [ [ 72.975649557387655, 20.362732980282466 ], [ 72.969115270783817, 20.362732980282466 ], [ 72.967073306220115, 20.354973514940404 ], [ 72.965031341656413, 20.350889585813004 ], [ 72.960947412529009, 20.351297978725743 ], [ 72.956046697576127, 20.352523157463963 ], [ 72.950329196797767, 20.352114764551224 ], [ 72.944203303106676, 20.350481192900265 ], [ 72.940527766892004, 20.345988870860122 ], [ 72.94093615980475, 20.341904941732722 ], [ 72.937669016502824, 20.339046191343542 ], [ 72.93235990863721, 20.321893689008458 ], [ 72.936443837764614, 20.316176188230095 ], [ 72.941752945630228, 20.316176188230095 ], [ 72.949920803885036, 20.315767795317356 ], [ 72.954413125925171, 20.312092259102695 ], [ 72.959722233790799, 20.308416722888033 ], [ 72.962989377092711, 20.307599937062555 ], [ 72.968706877871071, 20.313317437840915 ], [ 72.990351702246301, 20.321893689008458 ], [ 72.998519560501094, 20.326794403961337 ], [ 73.000561525064796, 20.334962262216141 ], [ 72.999744739239318, 20.340271370081762 ], [ 72.991576880984525, 20.342721727558203 ], [ 72.989943309333555, 20.350072799987522 ], [ 72.986676166031643, 20.348439228336563 ], [ 72.986267773118897, 20.357015479504106 ], [ 72.978508307776835, 20.355790300765886 ], [ 72.980550272340537, 20.360691015718764 ], [ 72.977283129038611, 20.359874229893286 ], [ 72.975649557387655, 20.362732980282466 ] ] ] ] } },
{ "type": "Feature", "properties": { "fid": 10, "name": "Nagar Aveli", "alt_name": "Nagar Haveli" }, "geometry": { "type": "MultiPolygon", "coordinates": [ [ [ [ 72.90782566552403, 20.277861497116294 ], [ 72.945510772935293, 20.284625490754216 ], [ 72.993825013206148, 20.290423199586719 ], [ 73.011218139703658, 20.311681465305895 ], [ 73.0363415446445, 20.337771155052156 ], [ 73.054700955947425, 20.349366572717162 ], [ 73.083689500109941, 20.343568863884659 ], [ 73.091419778553274, 20.35999570557675 ], [ 73.116543183494116, 20.36965855363092 ], [ 73.136835164407884, 20.313614034916728 ], [ 73.120408322715789, 20.261434655424207 ], [ 73.099150056996606, 20.238243820094194 ], [ 73.082723215304526, 20.228580972040024 ], [ 73.088520924137029, 20.203457567099179 ], [ 73.107846620245368, 20.192828434239591 ], [ 73.135868879602455, 20.182199301380003 ], [ 73.136835164407884, 20.198626143072094 ], [ 73.149396866878305, 20.2102215607371 ], [ 73.176452841429978, 20.208288991126263 ], [ 73.183216835067896, 20.202491282293764 ], [ 73.187081974289569, 20.177367877352918 ], [ 73.194812252732902, 20.151278187606657 ], [ 73.19964367675999, 20.131952491498314 ], [ 73.220901942479159, 20.11359308019539 ], [ 73.219935657673744, 20.090402244865381 ], [ 73.193845967927487, 20.078806827200374 ], [ 73.15036315168372, 20.073975403173289 ], [ 73.140700303629544, 20.075907972784123 ], [ 73.110745474661613, 20.073975403173289 ], [ 73.090453493747859, 20.076874257589541 ], [ 73.079824360888267, 20.086537105643711 ], [ 73.041172968671589, 20.074941687978704 ], [ 73.015083278925317, 20.092334814476214 ], [ 73.00638671567657, 20.120357073833308 ], [ 72.996723867622393, 20.138716485136236 ], [ 72.976431886708639, 20.147413048384987 ], [ 72.975465601903224, 20.165772459687911 ], [ 72.972566747486965, 20.192828434239591 ], [ 72.969667893070721, 20.220850693596688 ], [ 72.960971329821973, 20.238243820094194 ], [ 72.942611918519034, 20.244041528926697 ], [ 72.914589659161948, 20.239210104899612 ], [ 72.90782566552403, 20.277861497116294 ] ] ] ] } },
{ "type": "Feature", "properties": { "fid": 11, "name": "Diu", "alt_name": null }, "geometry": { "type": "MultiPolygon", "coordinates": [ [ [ [ 70.959653041456207, 20.725903712991183 ], [ 70.961129256964043, 20.722213174221604 ], [ 70.965557903487536, 20.720736958713772 ], [ 70.968141280626241, 20.722213174221604 ], [ 70.96666506511842, 20.724058443606392 ], [ 70.964081687979714, 20.726641820745098 ], [ 70.965926957364502, 20.728487090129889 ], [ 70.976260465919324, 20.724058443606392 ], [ 70.9799510046889, 20.719629797082895 ], [ 70.988070189981983, 20.719629797082895 ], [ 70.992129782628524, 20.715939258313316 ], [ 70.998403698536805, 20.715570204436357 ], [ 70.99471315976723, 20.710403450158946 ], [ 70.989177351612852, 20.709665342405032 ], [ 70.986963028351113, 20.710034396281987 ], [ 70.982165327950653, 20.707081965266322 ], [ 70.976629519796276, 20.70228426486587 ], [ 70.969248442257125, 20.704498588127617 ], [ 70.969248442257125, 20.70782007302024 ], [ 70.96297452634883, 20.705974803635449 ], [ 70.960760203087091, 20.70782007302024 ], [ 70.953379125547926, 20.704498588127617 ], [ 70.938247916592644, 20.708189126897199 ], [ 70.936033593330905, 20.71114155791286 ], [ 70.929390623545657, 20.712617773420693 ], [ 70.917949953359951, 20.711879665666778 ], [ 70.913521306836458, 20.706712911389367 ], [ 70.916104683975163, 20.701177103234997 ], [ 70.912045091328636, 20.700438995481079 ], [ 70.910937929697752, 20.701546157111952 ], [ 70.905033067666423, 20.700438995481079 ], [ 70.897282936250306, 20.700438995481079 ], [ 70.897651990127272, 20.703022372619785 ], [ 70.895437666865519, 20.705974803635449 ], [ 70.890270912588107, 20.708189126897199 ], [ 70.886949427695484, 20.708927234651114 ], [ 70.876246865263695, 20.708558180774155 ], [ 70.87366348812499, 20.709665342405032 ], [ 70.873294434248038, 20.716677366067231 ], [ 70.875877811386744, 20.722951281975519 ], [ 70.88473510443373, 20.725165605237265 ], [ 70.882889835048942, 20.72811803625293 ], [ 70.894330505234649, 20.731439521145553 ], [ 70.905771175420341, 20.732177628899468 ], [ 70.906878337051211, 20.735499113792091 ], [ 70.91278319908254, 20.735499113792091 ], [ 70.923440202822349, 20.736399533171038 ], [ 70.934865188218268, 20.735217638130081 ], [ 70.950229823750732, 20.733641778075469 ], [ 70.960472914105694, 20.737187463198342 ], [ 70.961498310841009, 20.7336538444073 ], [ 70.961498310841009, 20.73033235951468 ], [ 70.959653041456207, 20.725903712991183 ] ] ], [ [ [ 71.006450334317307, 20.738677880860596 ], [ 71.00664051195966, 20.737156459721838 ], [ 71.00245660382808, 20.735444860940742 ], [ 70.999223583908218, 20.733923439801988 ], [ 70.99453253539707, 20.73113416771427 ], [ 70.992250403688914, 20.729042213648476 ], [ 70.990792375097598, 20.726062763918417 ], [ 70.989651309243541, 20.722512781261322 ], [ 70.988193280652226, 20.721815463239391 ], [ 70.986735252060924, 20.7215618930496 ], [ 70.983641543458489, 20.724058443606392 ], [ 70.982903435704571, 20.726641820745098 ], [ 70.990653567120688, 20.731439521145553 ], [ 70.993975052013312, 20.734022898284259 ], [ 70.996189375275051, 20.738082490930797 ], [ 71.00209423730638, 20.742142083577335 ], [ 71.004421772798963, 20.739501983977419 ], [ 71.004992305726006, 20.739501983977419 ], [ 71.006450334317307, 20.738677880860596 ] ] ], [ [ [ 71.149784269169857, 20.767602881632893 ], [ 71.149763354207735, 20.766881315439882 ], [ 71.149596034510807, 20.766588505970255 ], [ 71.149407799851758, 20.764988511368358 ], [ 71.149250937635884, 20.764643414493442 ], [ 71.148905840760975, 20.764371519985929 ], [ 71.1487489785451, 20.764591127088149 ], [ 71.148456169075473, 20.764831649152487 ], [ 71.14798558242785, 20.764842106633544 ], [ 71.147650943033995, 20.765584587788673 ], [ 71.148090157238443, 20.765856482296183 ], [ 71.148341136783827, 20.766128376803696 ], [ 71.148393424189123, 20.766525761083905 ], [ 71.14825747693537, 20.76683948551565 ], [ 71.147901922579393, 20.767163667428452 ], [ 71.147682315477169, 20.767299614682209 ], [ 71.147389506007542, 20.767278699720091 ], [ 71.147295388678018, 20.767006805212578 ], [ 71.146306737177326, 20.763219811210046 ], [ 71.146024512846523, 20.763268470577426 ], [ 71.145207035474542, 20.760095879824298 ], [ 71.146801752888706, 20.760239639454682 ], [ 71.148256202403076, 20.760057833265385 ], [ 71.148619814781682, 20.758603383751012 ], [ 71.147347171456602, 20.75823977137242 ], [ 71.14552910956364, 20.758330674467068 ], [ 71.143666645454189, 20.758067608921934 ], [ 71.146862732814597, 20.767668049827918 ], [ 71.147051011262405, 20.767810174996743 ], [ 71.147420878450717, 20.767770201329821 ], [ 71.149784269169857, 20.767602881632893 ] ] ], [ [ [ 71.149693429146922, 20.762470456952407 ], [ 71.149654501653018, 20.76164324770696 ], [ 71.147863836933453, 20.760572741624614 ], [ 71.145820143503528, 20.761176117780117 ], [ 71.145761752262672, 20.761429146490489 ], [ 71.146355396544692, 20.762986246246626 ], [ 71.146666816495923, 20.76311276060181 ], [ 71.14703662768801, 20.763609086149081 ], [ 71.147309120145337, 20.763706404883838 ], [ 71.149615574159114, 20.762655362548447 ], [ 71.149693429146922, 20.762470456952407 ] ] ], [ [ [ 71.152890744006129, 20.761404875196028 ], [ 71.153498122464796, 20.7612486921638 ], [ 71.153654305497014, 20.761005740780337 ], [ 71.154678172041613, 20.760832204077861 ], [ 71.154990538106063, 20.760172764608459 ], [ 71.154487281668892, 20.759981874235738 ], [ 71.153341939432565, 20.759999227905986 ], [ 71.152439548579693, 20.759617447160544 ], [ 71.152127182515244, 20.759825691203513 ], [ 71.151433035705352, 20.759357142106833 ], [ 71.150981840278916, 20.759200959074604 ], [ 71.150339754479759, 20.759738922852275 ], [ 71.15056535219297, 20.760155410938214 ], [ 71.151693340759053, 20.761266045834049 ], [ 71.151849523791284, 20.761769302271222 ], [ 71.15233542655821, 20.761890777962957 ], [ 71.152890744006129, 20.761404875196028 ] ] ], [ [ [ 71.15105125495991, 20.762480802751369 ], [ 71.150704181554957, 20.762515510091863 ], [ 71.150357108150004, 20.7622725587084 ], [ 71.150079449426045, 20.762636985783594 ], [ 71.150079449426045, 20.76294935184805 ], [ 71.15056535219297, 20.763105534880275 ], [ 71.150999193949161, 20.763174949561265 ], [ 71.151675987088808, 20.763487315625721 ], [ 71.151797462780536, 20.763400547274482 ], [ 71.151745401769801, 20.763227010572006 ], [ 71.15105125495991, 20.762480802751369 ] ] ] ] } }
]
}
