{"type": "FeatureCollection", "features": [{"type": "Feature", "properties": {"group": "Spratly Islands", "km2": 5.8135}, "geometry": {"type": "LineString", "coordinates": [[115.5377839, 9.9237257], [115.5217953, 9.9279744], [115.5217275, 9.9277091], [115.5210333, 9.9278885], [115.5211437, 9.928097], [115.5203021, 9.9283057], [115.5178499, 9.927743], [115.5110909, 9.9257414], [115.509114, 9.9245292], [115.5082388, 9.9234641], [115.5034012, 9.9151725], [115.5027706, 9.912444], [115.5007372, 9.9088733], [115.500547, 9.9079542], [115.5006087, 9.9072617], [115.5017609, 9.9033185], [115.5018415, 9.9019027], [115.5016645, 9.9010176], [115.5010993, 9.8995426], [115.5011398, 9.8981454], [115.5008247, 9.8977512], [115.5002557, 9.897424], [115.5000365, 9.8973596], [115.4995792, 9.8975144], [115.4986972, 9.8991966], [115.4981961, 9.9007277], [115.4979806, 9.9029535], [115.4982966, 9.9077051], [115.498243, 9.9091266], [115.4985541, 9.9104847], [115.498935, 9.9132801], [115.4998599, 9.9173134], [115.5004197, 9.9192164], [115.5010869, 9.9209239], [115.5019737, 9.9224388], [115.5027531, 9.9234782], [115.506854, 9.9276298], [115.5110505, 9.9326254], [115.5120523, 9.9332833], [115.5122106, 9.9335647], [115.512916, 9.9338421], [115.5133438, 9.9336981], [115.5178678, 9.9337171], [115.5196094, 9.9335882], [115.5223304, 9.9331556], [115.5268307, 9.9320764], [115.543399, 9.9276398], [115.5470044, 9.9259735], [115.5482204, 9.925631], [115.5534517, 9.9262026], [115.555822, 9.9260403], [115.5602043, 9.9249344], [115.5630947, 9.9240033], [115.5718652, 9.9190624], [115.5736433, 9.9177258], [115.5745411, 9.9168998], [115.5755864, 9.9156814], [115.5770348, 9.9132962], [115.5779111, 9.9108684], [115.5793549, 9.9027886], [115.5791959, 9.9024025], [115.5786031, 9.9019409], [115.5775452, 9.9017125], [115.5761239, 9.9016481], [115.575448, 9.9020283], [115.5752227, 9.9025994], [115.5750507, 9.9059982], [115.5744499, 9.9065689], [115.5747878, 9.9075783], [115.5748766, 9.9084083], [115.5744187, 9.9102757], [115.5739062, 9.9115408], [115.5728784, 9.9133728], [115.571003, 9.9156169], [115.5693038, 9.9170152], [115.5646046, 9.9197361], [115.5621284, 9.920713], [115.5551147, 9.9225416], [115.554047, 9.9226843], [115.5432478, 9.9225302], [115.542944, 9.9226693], [115.5427328, 9.9231511], [115.5433658, 9.9241286], [115.543457, 9.9245672], [115.5431887, 9.9248552], [115.5423412, 9.9250771], [115.5420327, 9.9249582], [115.5416683, 9.9234079], [115.5413347, 9.9231161], [115.537996, 9.9239331], [115.5378051, 9.9238038], [115.5377839, 9.9237257]]}}, {"type": "Feature", "properties": {"group": "Spratly Islands", "km2": 4.3352}, "geometry": {"type": "LineString", "coordinates": [[114.0687445, 10.9162949], [114.0694048, 10.9151685], [114.0725805, 10.9107333], [114.07399, 10.9099047], [114.0754223, 10.9097467], [114.079113, 10.9102119], [114.0814626, 10.9096957], [114.0840505, 10.9099953], [114.0840216, 10.9102304], [114.0859288, 10.9104569], [114.0859576, 10.9102232], [114.0867788, 10.910333], [114.0872026, 10.9101223], [114.0873474, 10.9097325], [114.0865803, 10.9078741], [114.0859526, 10.9075202], [114.0764602, 10.906286], [114.074623, 10.9062455], [114.0720266, 10.906444], [114.0614024, 10.9081717], [114.060646, 10.908472], [114.0595785, 10.9093638], [114.059034, 10.9101681], [114.0586759, 10.9111355], [114.0585911, 10.9123723], [114.0587497, 10.9131021], [114.0591842, 10.9141239], [114.0598871, 10.9149249], [114.0604073, 10.9153249], [114.0609705, 10.9154408], [114.0665086, 10.9188109], [114.0730666, 10.9300143], [114.0748423, 10.9342595], [114.0748221, 10.934802], [114.0762746, 10.93718], [114.0779965, 10.9387417], [114.0854638, 10.942942], [114.0857776, 10.9429262], [114.0878295, 10.9440086], [114.0880039, 10.9442693], [114.089121, 10.9448723], [114.0912748, 10.9451146], [114.0934172, 10.9444642], [114.0951151, 10.9433318], [114.0973923, 10.9393079], [114.0990163, 10.9374381], [114.1030343, 10.9346545], [114.1032301, 10.9342911], [114.1035064, 10.9330665], [114.1034018, 10.9325556], [114.1023476, 10.9312862], [114.1017361, 10.9310466], [114.0971254, 10.9341173], [114.0959091, 10.9353152], [114.0938115, 10.9367692], [114.0924269, 10.9375111], [114.0922568, 10.9371], [114.0891632, 10.9391946], [114.0890597, 10.9394639], [114.082113, 10.9366217], [114.0821148, 10.9368901], [114.0808538, 10.9363794], [114.0805587, 10.9361372], [114.0794644, 10.9343095], [114.0788461, 10.933846], [114.074855, 10.9280891], [114.0689062, 10.9179021], [114.0686739, 10.917351], [114.0686695, 10.9165176], [114.0687445, 10.9162949]]}}, {"type": "Feature", "properties": {"group": "Spratly Islands", "km2": 2.8307}, "geometry": {"type": "LineString", "coordinates": [[112.8959052, 9.550847], [112.8962744, 9.5503134], [112.8977481, 9.5503701], [112.8984472, 9.5509035], [112.8985095, 9.5510947], [112.8992509, 9.5515777], [112.9007499, 9.5531802], [112.900952, 9.5536655], [112.9013134, 9.5539936], [112.9031969, 9.5555774], [112.903757, 9.5558418], [112.9050528, 9.5571771], [112.9057706, 9.5573944], [112.9060022, 9.5578079], [112.9061923, 9.5577581], [112.9060868, 9.5574188], [112.9063893, 9.5564716], [112.906341, 9.5560855], [112.9061211, 9.5557945], [112.9025591, 9.5543767], [112.8981364, 9.5501542], [112.8975034, 9.5492125], [112.8948104, 9.5470701], [112.8868724, 9.541518], [112.8824444, 9.5393463], [112.8821618, 9.539335], [112.8818787, 9.5394992], [112.8813106, 9.5403131], [112.8806407, 9.5401042], [112.8803815, 9.5398641], [112.8803514, 9.5396626], [112.8805892, 9.5394872], [112.8807301, 9.5385624], [112.8803983, 9.538289], [112.8805465, 9.5377585], [112.8803237, 9.5382667], [112.8792791, 9.5381363], [112.8773925, 9.5376494], [112.8769874, 9.5378267], [112.8760272, 9.5387949], [112.8756152, 9.5388689], [112.875224, 9.5391531], [112.8751269, 9.5393321], [112.8756727, 9.5398512], [112.8768945, 9.5431368], [112.8815013, 9.5477234], [112.8829884, 9.5486479], [112.8846332, 9.5501466], [112.884954, 9.550278], [112.8862673, 9.551729], [112.8863532, 9.552258], [112.8867179, 9.5527024], [112.8879225, 9.5534181], [112.8885823, 9.5540212], [112.897836, 9.5631622], [112.8978199, 9.5634003], [112.8983265, 9.5636499], [112.8988629, 9.5637769], [112.8996267, 9.5635137], [112.9000438, 9.5639082], [112.9001564, 9.5638006], [112.8997233, 9.5633713], [112.9003605, 9.562688], [112.9005015, 9.5619364], [112.9021888, 9.5599264], [112.903046, 9.5595703], [112.9029094, 9.5594373], [112.902875, 9.5586875], [112.9026427, 9.5582079], [112.902529, 9.5581173], [112.9023922, 9.5582123], [112.9014346, 9.5577804], [112.9008132, 9.5579301], [112.9005805, 9.5575952], [112.9004616, 9.5576089], [112.8977757, 9.5583329], [112.8932333, 9.5538731], [112.8960985, 9.5510423], [112.8959052, 9.550847]]}}, {"type": "Feature", "properties": {"group": "Spratly Islands", "km2": 2.4045}, "geometry": {"type": "LineString", "coordinates": [[113.3205335, 8.2025842], [113.3213661, 8.2037563], [113.3249188, 8.2062837], [113.3261586, 8.2065943], [113.3315645, 8.2105058], [113.3323551, 8.2115919], [113.3357616, 8.2140513], [113.3361446, 8.2141797], [113.3366439, 8.2141494], [113.3371484, 8.2138173], [113.338727, 8.2116424], [113.3388652, 8.2111387], [113.338826, 8.2107002], [113.3385037, 8.2102692], [113.3353927, 8.2080419], [113.3348191, 8.2078562], [113.3334043, 8.2078496], [113.3253125, 8.2020361], [113.3248376, 8.2015208], [113.3246763, 8.2010331], [113.3241696, 8.1976281], [113.3223862, 8.1963672], [113.3218621, 8.1964269], [113.3206857, 8.195484], [113.3196302, 8.1948835], [113.316479, 8.1926463], [113.3147442, 8.1909957], [113.3125567, 8.1896746], [113.3108777, 8.1895404], [113.3098178, 8.1888457], [113.3088484, 8.1879704], [113.308233, 8.1879131], [113.3074752, 8.1881314], [113.3057107, 8.1899353], [113.3029134, 8.1869117], [113.3027602, 8.1865158], [113.3030192, 8.1863636], [113.3030065, 8.1862432], [113.3025752, 8.186495], [113.302365, 8.1862733], [113.3019265, 8.1862043], [113.3014453, 8.1862989], [113.3005996, 8.1859343], [113.3006472, 8.1861646], [113.3010135, 8.1863515], [113.3014993, 8.1864954], [113.3021085, 8.1863956], [113.3055803, 8.1900686], [113.30485, 8.1908317], [113.3047317, 8.1912122], [113.3048881, 8.1919054], [113.3078538, 8.1948699], [113.3094933, 8.1957889], [113.3122369, 8.1965429], [113.3205335, 8.2025842]]}}, {"type": "Feature", "properties": {"group": "Spratly Islands", "km2": 0.7905}, "geometry": {"type": "LineString", "coordinates": [[113.8530993, 10.028083], [113.852756, 10.0283471], [113.8517636, 10.0285954], [113.8506746, 10.0286693], [113.8493657, 10.0287222], [113.8489097, 10.0286218], [113.8486308, 10.0283313], [113.8485128, 10.0280196], [113.8484269, 10.026625], [113.8479227, 10.0246758], [113.8478744, 10.0233182], [113.8474292, 10.0219764], [113.8470054, 10.0200694], [113.8468659, 10.0174862], [113.8471405, 10.0176964], [113.8470715, 10.0181145], [113.8474932, 10.0178627], [113.8466299, 10.0167836], [113.8458037, 10.0167413], [113.8457072, 10.0168364], [113.8464837, 10.0171375], [113.8463851, 10.0176988], [113.8465816, 10.0178454], [113.8466245, 10.018062], [113.8465601, 10.0184899], [113.8467586, 10.0200694], [113.8470161, 10.0214217], [113.8476705, 10.023334], [113.8477564, 10.025278], [113.8481909, 10.0266567], [113.8483196, 10.0282996], [113.8488454, 10.0287803], [113.8493496, 10.0289018], [113.8526621, 10.0286535], [113.8529763, 10.0287829], [113.8531423, 10.0337458], [113.8530671, 10.0385844], [113.8532603, 10.0391337], [113.8536465, 10.0395246], [113.8541615, 10.0396091], [113.8547623, 10.0393873], [113.8551485, 10.0390809], [113.8553631, 10.0383625], [113.856318, 10.0366616], [113.8575196, 10.033957], [113.8577235, 10.0332386], [113.8577235, 10.0324991], [113.8575625, 10.0304284], [113.8562506, 10.0260967], [113.8562107, 10.0238676], [113.8559959, 10.0229023], [113.8553641, 10.0224591], [113.8552194, 10.0219918], [113.8556223, 10.0215333], [113.8560669, 10.0216106], [113.8557651, 10.0212372], [113.8553991, 10.0214318], [113.8552344, 10.0217387], [113.854818, 10.0217557], [113.8547521, 10.0220694], [113.8537716, 10.0222975], [113.8535714, 10.0226948], [113.8531131, 10.023931], [113.8533418, 10.0241443], [113.8533228, 10.0245375], [113.8534856, 10.0248818], [113.8534357, 10.0264604], [113.8531423, 10.0265933], [113.8531959, 10.0273329], [113.8530993, 10.028083]]}}, {"type": "Feature", "properties": {"group": "Spratly Islands", "km2": 0.7447}, "geometry": {"type": "LineString", "coordinates": [[111.6819736, 8.6614853], [111.6817172, 8.6614614], [111.6816657, 8.6616617], [111.6814267, 8.6618035], [111.6812369, 8.6617583], [111.6810894, 8.6612625], [111.6809311, 8.6612572], [111.6810063, 8.6619174], [111.6812262, 8.6623444], [111.6812181, 8.6627262], [111.6810974, 8.6628906], [111.6804537, 8.662986], [111.6799012, 8.6634289], [111.6793567, 8.6635561], [111.6787854, 8.6634819], [111.6787076, 8.6633467], [111.6788095, 8.6627819], [111.6786996, 8.6626785], [111.6785198, 8.6626917], [111.6778225, 8.6634368], [111.6757377, 8.6634685], [111.6751985, 8.6637403], [111.6746369, 8.6648426], [111.6740996, 8.6651604], [111.673429, 8.6661839], [111.6725868, 8.666921], [111.6722435, 8.6669422], [111.6717982, 8.6667672], [111.668703, 8.664996], [111.6682067, 8.6651948], [111.6677505, 8.6660001], [111.6674662, 8.6661566], [111.6674241, 8.6663726], [111.6676839, 8.6666376], [111.6680494, 8.6664365], [111.6683312, 8.6665508], [111.6727477, 8.6691695], [111.6730868, 8.6697407], [111.6732828, 8.6696673], [111.6739987, 8.6700262], [111.6742662, 8.6700283], [111.676417, 8.6711794], [111.6859066, 8.6766283], [111.6861301, 8.6768259], [111.6861648, 8.6772044], [111.6865293, 8.677325], [111.6867507, 8.6771519], [111.6867596, 8.6766973], [111.6868825, 8.6765642], [111.6865021, 8.6763473], [111.6865646, 8.6756468], [111.6790134, 8.670962], [111.6787773, 8.6707499], [111.6787612, 8.6705537], [111.6790456, 8.6702302], [111.679244, 8.6702408], [111.6796625, 8.6706809], [111.679759, 8.6706332], [111.6795766, 8.6700287], [111.6793728, 8.6698643], [111.6791314, 8.6696999], [111.6787612, 8.6698324], [111.6784555, 8.6705961], [111.676873, 8.6696415], [111.6768193, 8.6693923], [111.6770186, 8.6684594], [111.677941, 8.6668736], [111.6782165, 8.665841], [111.6787934, 8.664821], [111.6798739, 8.6640598], [111.6801721, 8.6640573], [111.680553, 8.6648793], [111.6805154, 8.6640096], [111.6806699, 8.6639848], [111.6808563, 8.6644834], [111.6809234, 8.6639184], [111.6810905, 8.6639577], [111.6809649, 8.6644133], [111.6811429, 8.6642123], [111.6816055, 8.6642409], [111.6816441, 8.6644291], [111.6815488, 8.664483], [111.6816962, 8.6646654], [111.6817201, 8.6652208], [111.6819052, 8.6651534], [111.6817996, 8.6645577], [111.6818765, 8.6638564], [111.6815213, 8.6632609], [111.6815566, 8.6628255], [111.6820055, 8.6618593], [111.6819736, 8.6614853]]}}, {"type": "Feature", "properties": {"group": "Spratly Islands", "km2": 0.7191}, "geometry": {"type": "LineString", "coordinates": [[114.3689227, 10.1784], [114.3679807, 10.1782193], [114.3670686, 10.178599], [114.364271, 10.1791556], [114.3634826, 10.1791995], [114.3631868, 10.1790223], [114.3596549, 10.1790986], [114.3601188, 10.1797329], [114.3626086, 10.1797185], [114.362644, 10.1834472], [114.3609456, 10.1834514], [114.3573342, 10.1827883], [114.353487, 10.182764], [114.3534665, 10.1797755], [114.3582623, 10.1797586], [114.3584952, 10.1791853], [114.3526384, 10.1792406], [114.3510235, 10.1794671], [114.3493648, 10.179899], [114.3485537, 10.1802977], [114.3481944, 10.1808241], [114.3481923, 10.1817745], [114.3486021, 10.1822803], [114.3500151, 10.1829235], [114.3523057, 10.1833289], [114.3573128, 10.183368], [114.3609595, 10.1839825], [114.3625892, 10.1839625], [114.3697582, 10.1822209], [114.370167, 10.18135], [114.3701504, 10.1803464], [114.3697947, 10.1794524], [114.3690794, 10.1785399], [114.3689227, 10.1784]]}}, {"type": "Feature", "properties": {"group": "Spratly Islands", "km2": 0.6261}, "geometry": {"type": "LineString", "coordinates": [[113.704975, 8.9769341], [113.7058598, 8.9771417], [113.7067558, 8.9771641], [113.7076688, 8.9770164], [113.7084736, 8.9767186], [113.7092366, 8.9762061], [113.7100867, 8.9760194], [113.7100398, 8.9757147], [113.7089751, 8.9751107], [113.7076073, 8.9728232], [113.7052362, 8.9705933], [113.705009, 8.9706058], [113.7052251, 8.9714417], [113.7070662, 8.9729932], [113.7068284, 8.9733048], [113.7073549, 8.9736607], [113.7072981, 8.9737528], [113.7069987, 8.9735665], [113.7068351, 8.9737932], [113.7066118, 8.9736298], [113.7049782, 8.9760802], [113.7008536, 8.9733588], [113.7028854, 8.9703955], [113.7033374, 8.9705129], [113.7038098, 8.9704297], [113.7039952, 8.9701193], [113.703993, 8.9697847], [113.7025742, 8.9694257], [113.6985268, 8.9670348], [113.6976727, 8.9670879], [113.6967811, 8.9674764], [113.6961702, 8.9680877], [113.6955765, 8.9692085], [113.6955264, 8.9701666], [113.6958017, 8.9710449], [113.7040824, 8.9765098], [113.704975, 8.9769341]]}}, {"type": "Feature", "properties": {"group": "Spratly Islands", "km2": 0.6258}, "geometry": {"type": "LineString", "coordinates": [[114.2984978, 11.3876323], [114.2986145, 11.387653], [114.3006455, 11.3919269], [114.3009613, 11.392186], [114.3018014, 11.3923896], [114.3023355, 11.392728], [114.3029141, 11.3939587], [114.303162, 11.3941009], [114.3034913, 11.3940962], [114.3041621, 11.3937941], [114.3044217, 11.3932742], [114.3009767, 11.3859953], [114.3010711, 11.384647], [114.3022085, 11.3837844], [114.2990919, 11.3771624], [114.2965242, 11.3783236], [114.2960951, 11.3790241], [114.2962067, 11.3798235], [114.2992476, 11.3862109], [114.2986958, 11.386685], [114.2987703, 11.3868455], [114.2985043, 11.3874057], [114.2982947, 11.387515], [114.2983978, 11.3876432], [114.2984978, 11.3876323]]}}, {"type": "Feature", "properties": {"group": "Spratly Islands", "km2": 0.5977}, "geometry": {"type": "LineString", "coordinates": [[114.6600553, 8.8503242], [114.6601872, 8.8509763], [114.6598992, 8.8526176], [114.6600462, 8.8530598], [114.6642309, 8.8566216], [114.6649407, 8.8567889], [114.665539, 8.8567336], [114.667907, 8.8556667], [114.6680679, 8.8554433], [114.6679768, 8.8551279], [114.6647266, 8.8526652], [114.6637337, 8.8516389], [114.6634887, 8.8515929], [114.6621014, 8.8499587], [114.6517982, 8.8408935], [114.6518801, 8.8406531], [114.6517403, 8.8404191], [114.6514813, 8.8403682], [114.6512772, 8.8405581], [114.651292, 8.8408424], [114.6506708, 8.8414567], [114.650643, 8.841907], [114.6597182, 8.8498992], [114.6600553, 8.8503242]]}}, {"type": "Feature", "properties": {"group": "Spratly Islands", "km2": 0.5384}, "geometry": {"type": "LineString", "coordinates": [[113.6609729, 8.9595216], [113.6613635, 8.9593605], [113.6617153, 8.9586102], [113.6620287, 8.9586929], [113.6622518, 8.9584576], [113.6622045, 8.9581566], [113.6619128, 8.9580295], [113.6616682, 8.9581947], [113.6484975, 8.9519334], [113.6484848, 8.9511563], [113.6488408, 8.9504111], [113.649179, 8.9505662], [113.6492515, 8.9504019], [113.6461199, 8.9489108], [113.6446951, 8.9499706], [113.6417812, 8.9485547], [113.6416052, 8.9486649], [113.6411417, 8.9494831], [113.6407813, 8.9495425], [113.6406439, 8.9498138], [113.640807, 8.9501317], [113.6411074, 8.9501614], [113.6412571, 8.950013], [113.6535124, 8.9559416], [113.653802, 8.9567767], [113.6531083, 8.9582383], [113.6529246, 8.9583728], [113.6531621, 8.9585123], [113.6534089, 8.958984], [113.6532933, 8.9589916], [113.6533027, 8.9592243], [113.653529, 8.9592182], [113.6535254, 8.9590775], [113.6541142, 8.9590577], [113.6542637, 8.9592297], [113.6543806, 8.9591003], [113.6543654, 8.9588126], [113.6551064, 8.9574147], [113.6559518, 8.9571095], [113.6609729, 8.9595216]]}}, {"type": "Feature", "properties": {"group": "Spratly Islands", "km2": 0.5211}, "geometry": {"type": "LineString", "coordinates": [[114.3620575, 10.3728778], [114.3615383, 10.3730021], [114.3615622, 10.373138], [114.3622975, 10.3735118], [114.3624359, 10.3741444], [114.3620849, 10.3748232], [114.3618535, 10.3748349], [114.36181, 10.3745495], [114.3615967, 10.3745584], [114.3613547, 10.3743404], [114.3610956, 10.3732434], [114.3613095, 10.3731961], [114.3612863, 10.3730909], [114.3609791, 10.3731619], [114.3610787, 10.373585], [114.3607953, 10.3736519], [114.3606928, 10.373513], [114.3607381, 10.3739678], [114.3606282, 10.3735278], [114.3603268, 10.3735928], [114.3600177, 10.3722739], [114.36172, 10.3715819], [114.3616411, 10.3714009], [114.359736, 10.3721787], [114.3600674, 10.3735166], [114.3596018, 10.3740014], [114.3589839, 10.3742259], [114.3588674, 10.3747832], [114.3592759, 10.3756717], [114.3601974, 10.3766199], [114.3615139, 10.3774503], [114.3636067, 10.3779914], [114.3668669, 10.3793466], [114.3693202, 10.3800635], [114.3705803, 10.3798742], [114.3714097, 10.3793994], [114.3714922, 10.3787135], [114.3714019, 10.3783121], [114.3702973, 10.3772516], [114.3667974, 10.3752039], [114.3650027, 10.3745955], [114.3637125, 10.3743927], [114.3621289, 10.3729022], [114.3620575, 10.3728778]]}}, {"type": "Feature", "properties": {"group": "Spratly Islands", "km2": 0.4826}, "geometry": {"type": "LineString", "coordinates": [[114.4785381, 10.3757731], [114.4782768, 10.3758136], [114.4780853, 10.3751957], [114.4774068, 10.3745585], [114.4774184, 10.3742947], [114.4772484, 10.3742908], [114.4772395, 10.3745836], [114.4769764, 10.3745507], [114.4769245, 10.3744029], [114.4764999, 10.3746799], [114.4765165, 10.3751408], [114.4763859, 10.3748798], [114.4762471, 10.3749263], [114.4775044, 10.3792254], [114.4779926, 10.3798391], [114.4786091, 10.3801318], [114.479342, 10.3801792], [114.4800422, 10.3799614], [114.4810502, 10.3789255], [114.4833568, 10.3750859], [114.4835075, 10.3745321], [114.4834216, 10.3732219], [114.4830301, 10.3723585], [114.4821422, 10.3716165], [114.4818962, 10.3712675], [114.4809814, 10.3708416], [114.4798608, 10.3709445], [114.4782675, 10.3714896], [114.4787914, 10.3722875], [114.4789922, 10.3729144], [114.4793376, 10.3729496], [114.4802507, 10.3726327], [114.4809543, 10.3730679], [114.4802304, 10.3734013], [114.479464, 10.374038], [114.4786582, 10.3751218], [114.4786187, 10.3753902], [114.4785381, 10.3757731]]}}, {"type": "Feature", "properties": {"group": "Spratly Islands", "km2": 0.442}, "geometry": {"type": "LineString", "coordinates": [[114.2820554, 11.055716], [114.2808945, 11.0556913], [114.2807833, 11.0552639], [114.2806441, 11.0553007], [114.2808546, 11.0558145], [114.2821847, 11.0558421], [114.2823727, 11.0556535], [114.2845898, 11.0559616], [114.2860184, 11.055428], [114.2881845, 11.0539111], [114.2884243, 11.0535378], [114.2884837, 11.0528654], [114.2886931, 11.0523203], [114.2896758, 11.052402], [114.2897402, 11.0514991], [114.2886222, 11.0514069], [114.2886176, 11.0515229], [114.2870015, 11.0508994], [114.2851207, 11.050717], [114.2829929, 11.0506474], [114.282164, 11.0509594], [114.277873, 11.0506197], [114.2778271, 11.0515405], [114.2775482, 11.0515945], [114.2775965, 11.051813], [114.2780095, 11.0517788], [114.2780193, 11.0515609], [114.2816988, 11.0518333], [114.2816051, 11.0521043], [114.2809172, 11.0528904], [114.280485, 11.0537524], [114.2800722, 11.0540335], [114.2796269, 11.0540716], [114.2796081, 11.0542151], [114.280288, 11.0542192], [114.281131, 11.0538298], [114.2821361, 11.0540291], [114.2820554, 11.055716]]}}, {"type": "Feature", "properties": {"group": "Spratly Islands", "km2": 0.4069}, "geometry": {"type": "LineString", "coordinates": [[111.921109, 8.6438064], [111.9214662, 8.6434926], [111.921662, 8.6436577], [111.921742, 8.6435911], [111.9214491, 8.643284], [111.9214382, 8.6434656], [111.9210668, 8.6437937], [111.9202965, 8.6432199], [111.9201784, 8.6430718], [111.9202083, 8.6428174], [111.9194278, 8.6423719], [111.9192393, 8.6420343], [111.9189776, 8.6420001], [111.9177074, 8.6404707], [111.9169112, 8.6403929], [111.9164136, 8.6408344], [111.9164492, 8.641632], [111.9172862, 8.6425387], [111.9174919, 8.6424578], [111.9176952, 8.6426843], [111.9175719, 8.6428324], [111.9182313, 8.6434733], [111.9183391, 8.6439268], [111.9180583, 8.643883], [111.9181688, 8.6443949], [111.9183957, 8.6442303], [111.9187123, 8.6460019], [111.9184565, 8.64604], [111.9184659, 8.6463174], [111.9183599, 8.6463316], [111.9182908, 8.6460795], [111.91708, 8.6463023], [111.916648, 8.6452912], [111.9168824, 8.6453117], [111.9166732, 8.6448512], [111.9165306, 8.6450554], [111.9161562, 8.644189], [111.9161574, 8.6436812], [111.9163587, 8.6437985], [111.9163563, 8.6433066], [111.9161506, 8.6434253], [111.9161845, 8.6428077], [111.9153643, 8.6426477], [111.9152382, 8.6427193], [111.9153079, 8.6429526], [111.9155547, 8.6429791], [111.9157746, 8.6431701], [111.9158202, 8.6442758], [111.9168153, 8.6465669], [111.9172955, 8.6470761], [111.9173759, 8.6470151], [111.9189665, 8.6475931], [111.9244301, 8.6498604], [111.9246903, 8.6497172], [111.9251838, 8.6492372], [111.9251436, 8.6485398], [111.9245723, 8.6478318], [111.9237745, 8.6472332], [111.9225325, 8.6459173], [111.9212491, 8.6440363], [111.921109, 8.6438064]]}}, {"type": "Feature", "properties": {"group": "Spratly Islands", "km2": 0.3119}, "geometry": {"type": "LineString", "coordinates": [[113.8482038, 7.3758087], [113.8486024, 7.3749911], [113.8495017, 7.3746973], [113.8502254, 7.3750383], [113.8505952, 7.3742669], [113.8384779, 7.3682553], [113.8377517, 7.3691064], [113.8378242, 7.3695746], [113.8380206, 7.3698812], [113.8386396, 7.3701892], [113.8395259, 7.3710969], [113.8396696, 7.3709563], [113.8423537, 7.3718246], [113.8444729, 7.3733036], [113.8445888, 7.373546], [113.8443387, 7.3736858], [113.8446456, 7.3738422], [113.8447183, 7.3736901], [113.844958, 7.3737424], [113.8451456, 7.3740527], [113.8452593, 7.3739566], [113.845416, 7.3742414], [113.8452758, 7.3745312], [113.8458219, 7.3747801], [113.8458755, 7.3750086], [113.8464093, 7.3749338], [113.8482038, 7.3758087]]}}, {"type": "Feature", "properties": {"group": "Spratly Islands", "km2": 0.2789}, "geometry": {"type": "LineString", "coordinates": [[112.3516148, 8.9289375], [112.3508263, 8.9281002], [112.3491418, 8.9270191], [112.34882, 8.9266694], [112.3487771, 8.9270562], [112.3506761, 8.9281479], [112.3507136, 8.9283175], [112.350204, 8.9291495], [112.3507619, 8.9297271], [112.3493671, 8.9293138], [112.3485571, 8.9287096], [112.3484927, 8.9288262], [112.3486215, 8.9289958], [112.3497695, 8.9296741], [112.3494744, 8.9302995], [112.349512, 8.9305538], [112.3489165, 8.9314865], [112.3487502, 8.9315183], [112.3472375, 8.9307181], [112.3469907, 8.9303472], [112.3461109, 8.9296158], [112.3461056, 8.9289375], [112.3471087, 8.9274908], [112.3475486, 8.9270668], [112.3475593, 8.9261023], [112.3471731, 8.9262189], [112.3471945, 8.9269608], [112.3459554, 8.9286513], [112.3457783, 8.9293721], [112.3459178, 8.9298861], [112.3462182, 8.930326], [112.3463041, 8.9308082], [112.3498768, 8.9331346], [112.3507351, 8.9335056], [112.3514593, 8.9335798], [112.3528057, 8.9334314], [112.3538169, 8.9325543], [112.3542273, 8.9319052], [112.3545384, 8.9318045], [112.3545867, 8.9315024], [112.3539175, 8.9310374], [112.3527145, 8.92969], [112.3521137, 8.9292025], [112.3516148, 8.9289375]]}}, {"type": "Feature", "properties": {"group": "Spratly Islands", "km2": 0.2248}, "geometry": {"type": "LineString", "coordinates": [[112.8292894, 8.8685829], [112.8322881, 8.8675453], [112.831517, 8.8649759], [112.8316297, 8.8647891], [112.8322023, 8.8646036], [112.8323525, 8.8643002], [112.8321594, 8.8637331], [112.8319408, 8.8636245], [112.8314956, 8.8637662], [112.8312917, 8.8636708], [112.8308049, 8.8621192], [112.8305219, 8.8619733], [112.8281012, 8.8627379], [112.8279456, 8.8630506], [112.828179, 8.8637119], [112.8280717, 8.8639345], [112.8271034, 8.864234], [112.8267628, 8.864067], [112.8262854, 8.8640723], [112.8260761, 8.8645652], [112.8263873, 8.8648461], [112.8255987, 8.8657101], [112.8256738, 8.8657896], [112.8265321, 8.8648567], [112.8282152, 8.8642975], [112.8283829, 8.8644022], [112.8285545, 8.8649574], [112.8284365, 8.8652066], [112.828596, 8.8654384], [112.8284392, 8.8655272], [112.8288187, 8.8661738], [112.8289783, 8.8660917], [112.8291553, 8.8664309], [112.8293708, 8.8663554], [112.8297213, 8.8667808], [112.8301987, 8.8682078], [112.8292562, 8.8685047], [112.8292894, 8.8685829]]}}, {"type": "Feature", "properties": {"group": "Spratly Islands", "km2": 0.198}, "geometry": {"type": "LineString", "coordinates": [[115.025501, 11.0811793], [115.0246019, 11.0800818], [115.024132, 11.0798262], [115.0232927, 11.0789303], [115.0226562, 11.0786304], [115.0223311, 11.0786584], [115.0215739, 11.0810235], [115.0217476, 11.0818843], [115.0223972, 11.0828975], [115.0234893, 11.083464], [115.0243932, 11.083672], [115.0257745, 11.0837088], [115.0264897, 11.0839089], [115.0266844, 11.0844638], [115.0267535, 11.0836667], [115.0265953, 11.0828428], [115.0262931, 11.0820972], [115.0258343, 11.0816138], [115.025501, 11.0811793]]}}, {"type": "Feature", "properties": {"group": "Spratly Islands", "km2": 0.1879}, "geometry": {"type": "LineString", "coordinates": [[114.3295188, 11.4271944], [114.329096, 11.4279962], [114.3291786, 11.4283475], [114.3286786, 11.430018], [114.3288186, 11.4302641], [114.3289424, 11.430203], [114.3288514, 11.4298361], [114.3293217, 11.4295704], [114.3292165, 11.4294623], [114.3299797, 11.4287447], [114.3308877, 11.4300329], [114.3318279, 11.4308299], [114.3318092, 11.4309459], [114.3307762, 11.4315837], [114.3297464, 11.43079], [114.3293255, 11.430673], [114.3292788, 11.4309149], [114.3300836, 11.4317135], [114.3306111, 11.4317738], [114.3334684, 11.4308739], [114.3337629, 11.4306731], [114.333866, 11.4300365], [114.3338249, 11.429808], [114.3326838, 11.428188], [114.3318876, 11.4275161], [114.3313857, 11.426081], [114.3311169, 11.4259113], [114.3301118, 11.4261111], [114.3297925, 11.4263173], [114.3295193, 11.4270706], [114.3295188, 11.4271944]]}}, {"type": "Feature", "properties": {"group": "Spratly Islands", "km2": 0.1684}, "geometry": {"type": "LineString", "coordinates": [[114.3516764, 11.45026], [114.3514001, 11.4505544], [114.3516201, 11.4514141], [114.3523858, 11.4524906], [114.3528177, 11.4528875], [114.354938, 11.4543899], [114.3574539, 11.454934], [114.3576041, 11.4546922], [114.3575183, 11.4543846], [114.3568879, 11.4533752], [114.3560028, 11.4522921], [114.3553832, 11.4517506], [114.3531436, 11.4503941], [114.3518253, 11.450214], [114.3516764, 11.45026]]}}, {"type": "Feature", "properties": {"group": "Spratly Islands", "km2": 0.1622}, "geometry": {"type": "LineString", "coordinates": [[115.5209543, 9.8806298], [115.5213046, 9.8805368], [115.5217047, 9.8828506], [115.522013, 9.8831626], [115.5222115, 9.8830522], [115.522257, 9.8832268], [115.5238614, 9.8828661], [115.5238098, 9.8826771], [115.5240386, 9.8826816], [115.5241699, 9.8825195], [115.524225, 9.8797691], [115.5240365, 9.8792282], [115.5236748, 9.8789244], [115.5230389, 9.8787587], [115.5205569, 9.8793051], [115.5203403, 9.879445], [115.5202455, 9.8798178], [115.5203561, 9.8802443], [115.5197505, 9.8813644], [115.5198078, 9.8816122], [115.5195934, 9.8825714], [115.5196845, 9.8827617], [115.5203873, 9.8809384], [115.5208111, 9.8806557], [115.5209543, 9.8806298]]}}, {"type": "Feature", "properties": {"group": "Spratly Islands", "km2": 0.1553}, "geometry": {"type": "LineString", "coordinates": [[112.5944885, 8.8402509], [112.5948664, 8.8395252], [112.5949243, 8.8391139], [112.5948793, 8.8386516], [112.5945616, 8.8382004], [112.5939051, 8.8378968], [112.593124, 8.8378152], [112.5908152, 8.8379604], [112.5902191, 8.8383685], [112.5898946, 8.8393132], [112.5899869, 8.8399068], [112.5903066, 8.8404115], [112.5909396, 8.8407041], [112.5929074, 8.8408129], [112.5936759, 8.8407549], [112.5938776, 8.8405937], [112.5937332, 8.8404832], [112.5942835, 8.8401515], [112.5944772, 8.8402535], [112.5944885, 8.8402509]]}}, {"type": "Feature", "properties": {"group": "Spratly Islands", "km2": 0.1378}, "geometry": {"type": "LineString", "coordinates": [[114.2234266, 10.2083864], [114.225238, 10.2098839], [114.2251754, 10.2103695], [114.224934, 10.2103886], [114.2249581, 10.2105562], [114.2253081, 10.2104599], [114.2254363, 10.2100392], [114.2259332, 10.2104281], [114.2260301, 10.2107324], [114.2265728, 10.210741], [114.2265895, 10.2103945], [114.2259697, 10.2101441], [114.2259395, 10.2097408], [114.2256518, 10.2095156], [114.2253559, 10.2096704], [114.2242594, 10.2087592], [114.2242261, 10.2086075], [114.2245303, 10.2080788], [114.2245477, 10.2068316], [114.2249259, 10.2058575], [114.2255146, 10.205766], [114.2264377, 10.2050471], [114.2267686, 10.2044954], [114.2267364, 10.2040096], [114.227128, 10.2036295], [114.2270529, 10.203545], [114.2266651, 10.2038685], [114.2263778, 10.2037204], [114.22631, 10.2038187], [114.2261832, 10.2036691], [114.2255078, 10.204336], [114.2254113, 10.2042367], [114.2234579, 10.206073], [114.2222594, 10.2059049], [114.2219996, 10.2060032], [114.2216461, 10.2078915], [114.2218943, 10.2081511], [114.2234266, 10.2083864]]}}, {"type": "Feature", "properties": {"group": "Spratly Islands", "km2": 0.1324}, "geometry": {"type": "LineString", "coordinates": [[114.3309135, 9.8840678], [114.3283731, 9.8851677], [114.3281695, 9.8849589], [114.3282715, 9.8849203], [114.3280538, 9.8844106], [114.3282702, 9.8843063], [114.3284003, 9.8844094], [114.3282017, 9.8839469], [114.3281757, 9.8841327], [114.3279795, 9.8842199], [114.3276311, 9.8834327], [114.3280113, 9.8832585], [114.3277188, 9.8826607], [114.326921, 9.8836628], [114.3273669, 9.8851243], [114.3280696, 9.8856254], [114.3286996, 9.8863821], [114.3294157, 9.8867588], [114.3304859, 9.8865023], [114.3314636, 9.88585], [114.3316243, 9.8849385], [114.3319377, 9.8845693], [114.331913, 9.8842338], [114.3315158, 9.8838514], [114.331544, 9.8833509], [114.3307416, 9.8819296], [114.3288461, 9.882179], [114.3290964, 9.8827344], [114.3301034, 9.8822966], [114.3309135, 9.8840678]]}}, {"type": "Feature", "properties": {"group": "Spratly Islands", "km2": 0.1318}, "geometry": {"type": "LineString", "coordinates": [[114.5631707, 9.9013121], [114.5623982, 9.9050282], [114.5624969, 9.9054467], [114.562793, 9.9057892], [114.5631838, 9.9059774], [114.5641384, 9.9060132], [114.5645053, 9.9057807], [114.5648993, 9.9049839], [114.5656125, 9.9018406], [114.5642839, 9.901553], [114.5631707, 9.9013121]]}}, {"type": "Feature", "properties": {"group": "Spratly Islands", "km2": 0.1064}, "geometry": {"type": "LineString", "coordinates": [[116.843464, 7.2068432], [116.8439038, 7.2065681], [116.8455992, 7.2063724], [116.8458871, 7.2061424], [116.8459751, 7.2057139], [116.8456898, 7.2041774], [116.8451807, 7.2038706], [116.8447782, 7.2033047], [116.8441731, 7.2028287], [116.8437252, 7.2027678], [116.8436159, 7.203302], [116.8432961, 7.2037887], [116.8433467, 7.2041615], [116.8429788, 7.2044049], [116.8430375, 7.2048544], [116.8426403, 7.2050369], [116.842587, 7.2054072], [116.8426643, 7.205542], [116.8428669, 7.2054627], [116.8431228, 7.205743], [116.8432268, 7.206309], [116.8430082, 7.2065787], [116.8431841, 7.20683], [116.8434613, 7.2069067], [116.843464, 7.2068432]]}}, {"type": "Feature", "properties": {"group": "Spratly Islands", "km2": 0.1058}, "geometry": {"type": "LineString", "coordinates": [[114.2858872, 9.7136202], [114.2856914, 9.7136731], [114.2855841, 9.713911], [114.286023, 9.716055], [114.285829, 9.716568], [114.2855385, 9.7166367], [114.2859086, 9.7172712], [114.2884755, 9.715997], [114.2888725, 9.7154576], [114.288827, 9.714865], [114.288598, 9.714372], [114.2877097, 9.7135132], [114.2871854, 9.7133876], [114.2858872, 9.7136202]]}}, {"type": "Feature", "properties": {"group": "Spratly Islands", "km2": 0.1016}, "geometry": {"type": "LineString", "coordinates": [[112.2569137, 8.8693869], [112.2573302, 8.8694407], [112.2576778, 8.8697943], [112.2579289, 8.8698086], [112.2584376, 8.8696045], [112.2584624, 8.8691075], [112.258349, 8.8686861], [112.2580237, 8.8682086], [112.2580583, 8.8675755], [112.2576195, 8.8658403], [112.2570593, 8.8649922], [112.2560525, 8.8642494], [112.2559403, 8.8643472], [112.2559672, 8.8651777], [112.2558479, 8.8654158], [112.2560754, 8.8663608], [112.2558418, 8.8664838], [112.2564374, 8.8677965], [112.2567524, 8.8677533], [112.2564975, 8.8680043], [112.2568889, 8.8693063], [112.2541125, 8.8693779], [112.253269, 8.8672445], [112.2540642, 8.8694534], [112.2569137, 8.8693869]]}}, {"type": "Feature", "properties": {"group": "Spratly Islands", "km2": 0.0828}, "geometry": {"type": "LineString", "coordinates": [[114.496289, 9.9079782], [114.4959338, 9.9076777], [114.4958941, 9.9073739], [114.4956918, 9.9074585], [114.4948923, 9.9064454], [114.4948332, 9.9065002], [114.4954459, 9.9072711], [114.4953039, 9.9074378], [114.4952946, 9.9077769], [114.4956468, 9.9082232], [114.4954998, 9.9083986], [114.4952665, 9.909833], [114.4954425, 9.9100202], [114.4966319, 9.910236], [114.4970794, 9.9101479], [114.4973321, 9.9089052], [114.4974737, 9.9087817], [114.4998852, 9.9086118], [114.5000521, 9.9087726], [114.5000576, 9.909272], [114.500794, 9.9092724], [114.5007673, 9.9086712], [114.4997784, 9.9079863], [114.4963589, 9.9081481], [114.4963204, 9.908039], [114.496289, 9.9079782]]}}, {"type": "Feature", "properties": {"group": "Spratly Islands", "km2": 0.0789}, "geometry": {"type": "LineString", "coordinates": [[115.8034296, 10.734049], [115.8040879, 10.7334126], [115.8042896, 10.732592], [115.8039464, 10.7312175], [115.8032279, 10.7308054], [115.8028562, 10.7308812], [115.8020193, 10.7317304], [115.8018707, 10.7321772], [115.8018724, 10.7330274], [115.8021449, 10.7341019], [115.8027572, 10.7343766], [115.8031747, 10.7342159], [115.8034296, 10.734049]]}}, {"type": "Feature", "properties": {"group": "Spratly Islands", "km2": 0.0759}, "geometry": {"type": "LineString", "coordinates": [[114.4231278, 10.6667548], [114.4226879, 10.6674296], [114.4225726, 10.668107], [114.4221729, 10.6688503], [114.4223633, 10.6691218], [114.4227523, 10.6692668], [114.4235221, 10.6692062], [114.4240934, 10.6689426], [114.4244179, 10.6684629], [114.4246834, 10.6677222], [114.4247532, 10.666689], [114.424611, 10.6655028], [114.4241872, 10.6652524], [114.4239163, 10.6653578], [114.4240853, 10.6658534], [114.4234255, 10.6662224], [114.4232082, 10.6666837], [114.4231278, 10.6667548]]}}, {"type": "Feature", "properties": {"group": "Spratly Islands", "km2": 0.0686}, "geometry": {"type": "LineString", "coordinates": [[113.8596497, 10.0995705], [113.8598479, 10.0994834], [113.8598773, 10.0992115], [113.8601938, 10.0989659], [113.8604003, 10.0979598], [113.8603413, 10.097231], [113.8601509, 10.0968586], [113.8593167, 10.0964705], [113.8584986, 10.0969431], [113.8579515, 10.0978278], [113.8579139, 10.0981737], [113.8580856, 10.0985698], [113.8586135, 10.0991622], [113.8584939, 10.099211], [113.8585398, 10.0993989], [113.8595688, 10.0996023], [113.8596497, 10.0995705]]}}, {"type": "Feature", "properties": {"group": "Spratly Islands", "km2": 0.0627}, "geometry": {"type": "LineString", "coordinates": [[113.3286109, 8.1794675], [113.3293833, 8.1790766], [113.329628, 8.1786306], [113.328083, 8.1761754], [113.3275841, 8.176209], [113.3270327, 8.1765504], [113.3268514, 8.1769591], [113.3283963, 8.1794122], [113.3286109, 8.1794675]]}}, {"type": "Feature", "properties": {"group": "Spratly Islands", "km2": 0.062}, "geometry": {"type": "LineString", "coordinates": [[114.1761127, 8.6821482], [114.1748843, 8.6850409], [114.1749894, 8.6852941], [114.1759142, 8.6856264], [114.1762166, 8.6855099], [114.1771676, 8.6834587], [114.1776719, 8.6836671], [114.1775001, 8.6839073], [114.1775617, 8.6840112], [114.1778104, 8.6836933], [114.1775421, 8.6834221], [114.177214, 8.6833421], [114.1773307, 8.6830922], [114.1770835, 8.6822797], [114.176447, 8.6820204], [114.1761127, 8.6821482]]}}, {"type": "Feature", "properties": {"group": "Spratly Islands", "km2": 0.0469}, "geometry": {"type": "LineString", "coordinates": [[112.9207772, 7.8912825], [112.9201763, 7.8926164], [112.9222094, 7.893456], [112.9226853, 7.8922651], [112.9226273, 7.8917238], [112.9210196, 7.8911305], [112.9207772, 7.8912825]]}}, {"type": "Feature", "properties": {"group": "Spratly Islands", "km2": 0.0392}, "geometry": {"type": "LineString", "coordinates": [[113.8553792, 10.0190393], [113.8543171, 10.018379], [113.8540703, 10.0182839], [113.854022, 10.0184371], [113.8547945, 10.0190287], [113.8572138, 10.0215115], [113.8573989, 10.0215195], [113.8574552, 10.0212712], [113.8568813, 10.0207086], [113.8571066, 10.020455], [113.8574284, 10.0205131], [113.8580453, 10.0202067], [113.8581204, 10.0197207], [113.8579541, 10.0192031], [113.8574713, 10.0190234], [113.8572085, 10.0190868], [113.8571441, 10.0197524], [113.8562536, 10.0200747], [113.855626, 10.019351], [113.8553792, 10.0190393]]}}, {"type": "Feature", "properties": {"group": "Spratly Islands", "km2": 0.0382}, "geometry": {"type": "LineString", "coordinates": [[113.8457823, 10.0124624], [113.8458681, 10.0120662], [113.8456535, 10.0110519], [113.845396, 10.0108828], [113.8450795, 10.0108723], [113.8446397, 10.0109357], [113.8444465, 10.0111523], [113.8442963, 10.0121507], [113.8449535, 10.0132442], [113.8453075, 10.0135031], [113.8456133, 10.0134502], [113.8458064, 10.0131861], [113.8457206, 10.0126209], [113.8457823, 10.0124624]]}}, {"type": "Feature", "properties": {"group": "Spratly Islands", "km2": 0.0227}, "geometry": {"type": "LineString", "coordinates": [[114.6387526, 8.8502369], [114.6389397, 8.8501142], [114.6388515, 8.8499183], [114.6391785, 8.849476], [114.6393819, 8.8494659], [114.6394854, 8.8491103], [114.6394391, 8.8486903], [114.6388619, 8.8483358], [114.638485, 8.8484324], [114.6379342, 8.849242], [114.6379088, 8.8494692], [114.6379946, 8.8496631], [114.6386617, 8.8501885], [114.6387526, 8.8502369]]}}, {"type": "Feature", "properties": {"group": "Spratly Islands", "km2": 0.0195}, "geometry": {"type": "LineString", "coordinates": [[114.0517108, 8.7785139], [114.0516343, 8.7792647], [114.0519032, 8.7796072], [114.0525015, 8.7796689], [114.0524732, 8.7797888], [114.052627, 8.7797944], [114.0527242, 8.7793126], [114.0529349, 8.7792697], [114.0531686, 8.7787522], [114.0528281, 8.7783425], [114.0521601, 8.7782909], [114.0517108, 8.7785139]]}}, {"type": "Feature", "properties": {"group": "Spratly Islands", "km2": 0.014}, "geometry": {"type": "LineString", "coordinates": [[115.8228061, 10.8172891], [115.8231543, 10.8173811], [115.8232535, 10.8171444], [115.822624, 10.815892], [115.8221197, 10.8155706], [115.8219541, 10.8155752], [115.8219333, 10.8157445], [115.8221573, 10.8164809], [115.8226614, 10.817223], [115.8228061, 10.8172891]]}}, {"type": "Feature", "properties": {"group": "Spratly Islands", "km2": 0.0108}, "geometry": {"type": "LineString", "coordinates": [[114.3518548, 10.7282051], [114.3515852, 10.7283289], [114.3519077, 10.7283236], [114.3520023, 10.7284778], [114.3528101, 10.7286897], [114.3536435, 10.7285996], [114.3540255, 10.7287035], [114.3541789, 10.7286718], [114.3539618, 10.728351], [114.3526296, 10.728153], [114.3519651, 10.7281954], [114.3518548, 10.7282051]]}}, {"type": "Feature", "properties": {"group": "Spratly Islands", "km2": 0.0107}, "geometry": {"type": "LineString", "coordinates": [[115.5042008, 9.8920879], [115.5039017, 9.8914785], [115.5035788, 9.8917062], [115.5032798, 9.8925164], [115.5034021, 9.8926972], [115.5039493, 9.8928111], [115.5041974, 9.8924762], [115.5042008, 9.8920879]]}}, {"type": "Feature", "properties": {"group": "Spratly Islands", "km2": 0.0088}, "geometry": {"type": "LineString", "coordinates": [[114.2578286, 11.0759622], [114.2580003, 11.076057], [114.2582551, 11.0759543], [114.2582712, 11.0753147], [114.2587835, 11.0752226], [114.2590624, 11.0749857], [114.2587432, 11.0748119], [114.2582282, 11.0748856], [114.257783, 11.0754937], [114.2578018, 11.0759175], [114.2578286, 11.0759622]]}}, {"type": "Feature", "properties": {"group": "Spratly Islands", "km2": 0.0088}, "geometry": {"type": "LineString", "coordinates": [[113.9162519, 7.9673661], [113.915996, 7.9673692], [113.9160647, 7.9675187], [113.9166406, 7.9674813], [113.9165061, 7.9655874], [113.9163021, 7.9652295], [113.9162546, 7.9671286], [113.9162519, 7.9673661]]}}, {"type": "Feature", "properties": {"group": "Spratly Islands", "km2": 0.0058}, "geometry": {"type": "LineString", "coordinates": [[113.0189672, 9.6621873], [113.0193883, 9.6620868], [113.0196834, 9.6616796], [113.0194983, 9.6613835], [113.0191925, 9.6613914], [113.0189645, 9.6616135], [113.0188385, 9.6620498], [113.0189075, 9.6621774], [113.0189672, 9.6621873]]}}, {"type": "Feature", "properties": {"group": "Spratly Islands", "km2": 0.0058}, "geometry": {"type": "LineString", "coordinates": [[113.9301072, 7.6061594], [113.9300841, 7.6064095], [113.929655, 7.6064467], [113.929671, 7.6071805], [113.9297354, 7.6065159], [113.9302128, 7.6065159], [113.9302236, 7.6071539], [113.9306321, 7.6069828], [113.9305755, 7.6061803], [113.9301072, 7.6061594]]}}, {"type": "Feature", "properties": {"group": "Spratly Islands", "km2": 0.0044}, "geometry": {"type": "LineString", "coordinates": [[113.8496024, 7.378877], [113.8501063, 7.3787887], [113.8499616, 7.3782323], [113.8495382, 7.3781453], [113.8494712, 7.3785681], [113.8496024, 7.378877]]}}, {"type": "Feature", "properties": {"group": "Spratly Islands", "km2": 0.0043}, "geometry": {"type": "LineString", "coordinates": [[114.1382913, 8.101475], [114.1380717, 8.1018159], [114.1382471, 8.1021848], [114.138106, 8.1023201], [114.1379691, 8.1021162], [114.1377663, 8.1022461], [114.1379439, 8.1025043], [114.1377459, 8.1026317], [114.1375686, 8.1024984], [114.1379324, 8.1028674], [114.1383362, 8.1025966], [114.1381986, 8.1023477], [114.1383691, 8.102192], [114.1381929, 8.1018395], [114.1382512, 8.1016693], [114.1382913, 8.101475]]}}, {"type": "Feature", "properties": {"group": "Spratly Islands", "km2": 0.0043}, "geometry": {"type": "LineString", "coordinates": [[116.8918856, 7.2900726], [116.8921269, 7.2902268], [116.8922221, 7.2901268], [116.8920958, 7.2894864], [116.8918602, 7.2892116], [116.8916641, 7.2893658], [116.8918724, 7.2900408], [116.8918856, 7.2900726]]}}, {"type": "Feature", "properties": {"group": "Spratly Islands", "km2": 0.0042}, "geometry": {"type": "LineString", "coordinates": [[116.8925516, 7.2016828], [116.8929567, 7.2018215], [116.8931842, 7.2017204], [116.8930304, 7.2012756], [116.8925061, 7.2011874], [116.8924022, 7.2015177], [116.8925462, 7.2016721], [116.8925516, 7.2016828]]}}, {"type": "Feature", "properties": {"group": "Spratly Islands", "km2": 0.0041}, "geometry": {"type": "LineString", "coordinates": [[111.9215494, 8.6437879], [111.9232459, 8.6456441], [111.9244355, 8.6476979], [111.92338, 8.645721], [111.9216017, 8.6438012], [111.9215494, 8.6437879]]}}, {"type": "Feature", "properties": {"group": "Paracel Islands", "km2": 5.4894}, "geometry": {"type": "LineString", "coordinates": [[111.6001957, 16.4645688], [111.6004085, 16.4653489], [111.6006886, 16.4656317], [111.6011883, 16.4658926], [111.6016499, 16.465959], [111.6020891, 16.4658481], [111.6031357, 16.4651081], [111.604438, 16.463301], [111.6049647, 16.461974], [111.6052893, 16.4600723], [111.6053966, 16.4533711], [111.6055193, 16.4526023], [111.6060141, 16.4509758], [111.6074058, 16.44862], [111.6074835, 16.4481763], [111.6074681, 16.4465297], [111.6070712, 16.4458814], [111.6063416, 16.445264], [111.6052519, 16.4447524], [111.6043408, 16.444484], [111.6031566, 16.4442453], [111.6010639, 16.4440843], [111.5971866, 16.4439612], [111.5950458, 16.4441505], [111.5926879, 16.4444817], [111.5887218, 16.4453806], [111.5844796, 16.4472351], [111.5820723, 16.448645], [111.5800992, 16.450121], [111.5784418, 16.4516633], [111.5769816, 16.4533664], [111.5757583, 16.4550695], [111.5717725, 16.4617304], [111.5716048, 16.4624684], [111.5716541, 16.4628942], [111.5821611, 16.4915597], [111.5823486, 16.4917773], [111.5829504, 16.4919286], [111.5843415, 16.4914935], [111.5847756, 16.4911151], [111.589008, 16.4821185], [111.5890869, 16.4815888], [111.5886035, 16.4806806], [111.5879129, 16.4802738], [111.5873308, 16.4802075], [111.5842773, 16.4804913], [111.5835788, 16.4804472], [111.5825844, 16.4801304], [111.5817276, 16.4795334], [111.5809489, 16.478392], [111.5782642, 16.4706428], [111.5780866, 16.4693088], [111.5782444, 16.4674261], [111.5785897, 16.4660164], [111.5837396, 16.4545019], [111.5840356, 16.4545018], [111.5844401, 16.4548992], [111.5901425, 16.4522027], [111.5897972, 16.4514741], [111.5951543, 16.4488626], [111.5955048, 16.4487779], [111.5959801, 16.4489008], [111.6018038, 16.4533664], [111.6023119, 16.4538868], [111.6030074, 16.4553014], [111.6030864, 16.4563705], [111.6028496, 16.4574255], [111.6006939, 16.4615649], [111.600176, 16.464091], [111.6001957, 16.4645688]]}}, {"type": "Feature", "properties": {"group": "Paracel Islands", "km2": 3.2755}, "geometry": {"type": "LineString", "coordinates": [[112.3295606, 16.8400115], [112.3299479, 16.8398381], [112.3307311, 16.8398587], [112.3329627, 16.8408137], [112.3334026, 16.8412244], [112.3335179, 16.8415094], [112.3334617, 16.8416557], [112.3331649, 16.8417624], [112.3332498, 16.8419231], [112.3341, 16.8418816], [112.3350801, 16.8422809], [112.3350102, 16.8424727], [112.335118, 16.842605], [112.3353018, 16.8423589], [112.3365836, 16.8426965], [112.3365554, 16.8429186], [112.3366741, 16.8429985], [112.3368504, 16.8427386], [112.3382178, 16.8428085], [112.3381938, 16.8430459], [112.338318, 16.8431254], [112.3384376, 16.843037], [112.3384048, 16.8428109], [112.3397997, 16.8427288], [112.3399527, 16.8429713], [112.3403742, 16.8431953], [112.3404586, 16.8430091], [112.3401716, 16.842873], [112.3402417, 16.84264], [112.3407411, 16.8424977], [112.3424148, 16.8413476], [112.3437345, 16.8410806], [112.3446625, 16.8412809], [112.3454418, 16.8417389], [112.3464129, 16.8427003], [112.3463845, 16.8429547], [112.3458936, 16.8437966], [112.346237, 16.8442048], [112.3461437, 16.8444075], [112.3463001, 16.8449559], [112.3468972, 16.8458955], [112.3468231, 16.8461238], [112.3469969, 16.8461886], [112.347123, 16.8465687], [112.3475967, 16.8468588], [112.3475915, 16.8467061], [112.347818, 16.8466357], [112.347993, 16.8468621], [112.3481161, 16.8467019], [112.3479927, 16.8466627], [112.348032, 16.8464305], [112.3478479, 16.8463191], [112.3478154, 16.8459866], [112.3474702, 16.8456018], [112.3475315, 16.8454968], [112.3487274, 16.8446964], [112.3488763, 16.8447469], [112.3488565, 16.844638], [112.3497068, 16.8441057], [112.3520038, 16.8433295], [112.3524249, 16.8429187], [112.3530579, 16.8429752], [112.3543668, 16.8441201], [112.3555845, 16.8428776], [112.3541376, 16.841456], [112.3540527, 16.8410943], [112.3533582, 16.8407186], [112.3484712, 16.8359206], [112.3480259, 16.834506], [112.3475542, 16.8335245], [112.3471215, 16.832665], [112.3464349, 16.8318692], [112.3440536, 16.8300903], [112.3420875, 16.8291506], [112.3411193, 16.8289298], [112.3380616, 16.826003], [112.3384532, 16.8256051], [112.338362, 16.8255126], [112.3379409, 16.825908], [112.3355377, 16.8235768], [112.3342287, 16.8248759], [112.3332891, 16.8251624], [112.3331667, 16.825419], [112.3357927, 16.8277395], [112.3334053, 16.8303829], [112.3330003, 16.8306756], [112.3328938, 16.8311579], [112.3305521, 16.8343095], [112.3295054, 16.8334919], [112.3291516, 16.8324917], [112.3291372, 16.8320243], [112.3289628, 16.8320409], [112.329108, 16.8331591], [112.327295, 16.834239], [112.3264718, 16.8357229], [112.3261184, 16.8371079], [112.3261886, 16.8373361], [112.3263051, 16.8372899], [112.3262492, 16.8371433], [112.3264154, 16.8370681], [112.3265094, 16.836262], [112.3266676, 16.8363365], [112.3278346, 16.8343842], [112.3298091, 16.834399], [112.3298157, 16.8377234], [112.328008, 16.838929], [112.3268863, 16.838184], [112.3267025, 16.838421], [112.3266435, 16.8382285], [112.3265413, 16.8382562], [112.3273612, 16.8392862], [112.3277348, 16.8395331], [112.3281593, 16.8395802], [112.3287212, 16.8403269], [112.3290263, 16.840395], [112.329459, 16.8400289], [112.3295606, 16.8400115]]}}, {"type": "Feature", "properties": {"group": "Paracel Islands", "km2": 1.8156}, "geometry": {"type": "LineString", "coordinates": [[112.723775, 16.6648608], [112.7239637, 16.6650596], [112.7239362, 16.6652434], [112.7241457, 16.6652139], [112.724609, 16.6654583], [112.7245387, 16.6655803], [112.7247759, 16.6659646], [112.7246678, 16.6665103], [112.7236676, 16.6672024], [112.7233217, 16.6672686], [112.7228181, 16.666525], [112.7228595, 16.6659935], [112.7232471, 16.6656912], [112.7231142, 16.6654484], [112.7226112, 16.6658962], [112.7224492, 16.6667122], [112.722832, 16.6670364], [112.7211363, 16.668681], [112.7205904, 16.6697555], [112.7205003, 16.6710763], [112.7212203, 16.6728094], [112.7221199, 16.6758615], [112.7229257, 16.6758363], [112.7239557, 16.6760121], [112.7244909, 16.6759213], [112.7248634, 16.6753555], [112.7248948, 16.6748728], [112.7245652, 16.6750336], [112.7246532, 16.6753565], [112.7245017, 16.6754794], [112.7242303, 16.6754515], [112.7240112, 16.6758145], [112.7233474, 16.6757706], [112.7231214, 16.6756292], [112.722795, 16.6757537], [112.7223435, 16.6756964], [112.7222614, 16.6753676], [112.7224737, 16.6752236], [112.7224741, 16.6748485], [112.7246019, 16.6741443], [112.7290848, 16.6721761], [112.7298811, 16.6721761], [112.7300285, 16.6723731], [112.7300537, 16.6733258], [112.7305331, 16.6733093], [112.730748, 16.6737478], [112.7317512, 16.6732939], [112.7321192, 16.6728813], [112.7319866, 16.6728072], [112.7320337, 16.6724739], [112.7328158, 16.6719927], [112.7337947, 16.6710882], [112.7342535, 16.6708991], [112.7343319, 16.670751], [112.7337319, 16.6704534], [112.7336863, 16.6701389], [112.7354939, 16.6679768], [112.7352485, 16.6678757], [112.7352085, 16.6677308], [112.7354655, 16.6674048], [112.7380877, 16.6644371], [112.7386558, 16.6639499], [112.7396002, 16.6633697], [112.7400803, 16.6635755], [112.7403516, 16.6633993], [112.7402501, 16.662941], [112.7395085, 16.6614971], [112.7387441, 16.6604324], [112.7372646, 16.6595826], [112.7365456, 16.6586349], [112.736329, 16.658575], [112.7354496, 16.6593426], [112.733205, 16.6608803], [112.7298817, 16.6629209], [112.7263109, 16.665485], [112.7250065, 16.6657271], [112.7247971, 16.6653225], [112.7238771, 16.6648901], [112.723775, 16.6648608]]}}, {"type": "Feature", "properties": {"group": "Paracel Islands", "km2": 1.2445}, "geometry": {"type": "LineString", "coordinates": [[111.2095476, 15.7849338], [111.2084059, 15.7822394], [111.2079503, 15.7816716], [111.2067092, 15.7809789], [111.2056133, 15.7807499], [111.2032971, 15.7806006], [111.2003008, 15.7808769], [111.1987008, 15.7805539], [111.1984661, 15.7802279], [111.1989767, 15.7801885], [111.1989626, 15.779965], [111.198001, 15.7800731], [111.1980183, 15.7802611], [111.198288, 15.7802403], [111.1982796, 15.7804085], [111.1980532, 15.7805935], [111.1976263, 15.7804432], [111.197585, 15.7803332], [111.1978342, 15.7803035], [111.1978115, 15.7801044], [111.1969342, 15.7802045], [111.1969654, 15.7803962], [111.1972472, 15.7803656], [111.1972669, 15.7805299], [111.1968487, 15.7808667], [111.1964966, 15.7815334], [111.1953339, 15.7828149], [111.1948231, 15.7842196], [111.1949196, 15.7843485], [111.1958372, 15.7843466], [111.1963471, 15.7839762], [111.1970482, 15.783758], [111.1973535, 15.7846597], [111.1973005, 15.7847792], [111.1959877, 15.7848735], [111.1973577, 15.7848082], [111.1985111, 15.7859258], [111.1994423, 15.7871429], [111.2000113, 15.7871974], [111.2023967, 15.7883312], [111.2039253, 15.789393], [111.2059425, 15.7896771], [111.2063544, 15.7898946], [111.206636, 15.7898082], [111.2074199, 15.7900294], [111.2094895, 15.7901877], [111.2095857, 15.7907491], [111.209888, 15.790936], [111.2105316, 15.7908842], [111.2110095, 15.7905759], [111.2112744, 15.7902036], [111.211545, 15.7892698], [111.2107235, 15.7869942], [111.2095476, 15.7849338]]}}, {"type": "Feature", "properties": {"group": "Paracel Islands", "km2": 0.7314}, "geometry": {"type": "LineString", "coordinates": [[111.7092861, 16.4471748], [111.707002, 16.4473172], [111.7054504, 16.4475882], [111.7053652, 16.447508], [111.7054838, 16.4468657], [111.7058069, 16.4462566], [111.705468, 16.4461976], [111.7052906, 16.447489], [111.7051653, 16.4476817], [111.7038437, 16.447953], [111.70354, 16.4483675], [111.7032765, 16.4485021], [111.7031444, 16.4488148], [111.7020049, 16.4499083], [111.7016333, 16.4499648], [111.7009416, 16.4503673], [111.6996601, 16.451969], [111.6991103, 16.4530492], [111.6992773, 16.4532671], [111.699458, 16.4531245], [111.6998814, 16.4531082], [111.7006049, 16.4533066], [111.7014446, 16.4538778], [111.7020711, 16.4532699], [111.7027713, 16.4540648], [111.703046, 16.4541702], [111.7031177, 16.4540226], [111.7028129, 16.4539511], [111.7019849, 16.452997], [111.7025849, 16.452245], [111.7031237, 16.4519243], [111.7035036, 16.4514658], [111.7035352, 16.4508469], [111.7038026, 16.4504013], [111.7036403, 16.4492518], [111.7041686, 16.4482817], [111.705175, 16.4478978], [111.7062965, 16.4477069], [111.7083306, 16.4474142], [111.709329, 16.4474173], [111.7101346, 16.451257], [111.7069962, 16.4518325], [111.7070247, 16.451927], [111.706243, 16.4522096], [111.7059222, 16.4526402], [111.7056613, 16.4533706], [111.705623, 16.4543152], [111.7055217, 16.4549242], [111.7053996, 16.4550323], [111.7056106, 16.4553855], [111.7057909, 16.4550133], [111.7059834, 16.4549716], [111.7073649, 16.4553716], [111.7082347, 16.4554563], [111.7091463, 16.4554727], [111.7102543, 16.4553002], [111.7114365, 16.4549049], [111.7127306, 16.4541994], [111.7138125, 16.4533288], [111.7142553, 16.4525697], [111.7142332, 16.4520855], [111.714532, 16.4507678], [111.7153139, 16.4493686], [111.7153379, 16.4488187], [111.7150406, 16.448181], [111.7146883, 16.4478691], [111.7140195, 16.4478014], [111.7135865, 16.4480389], [111.7133284, 16.4480113], [111.7100522, 16.4471892], [111.7092861, 16.4471748]]}}, {"type": "Feature", "properties": {"group": "Paracel Islands", "km2": 0.4463}, "geometry": {"type": "LineString", "coordinates": [[111.5137358, 16.4476369], [111.513887, 16.4475168], [111.5137982, 16.447319], [111.5126309, 16.4463933], [111.5118917, 16.4460961], [111.5103608, 16.4461079], [111.5107088, 16.4449962], [111.5100011, 16.444357], [111.5096946, 16.4442314], [111.509553, 16.4443757], [111.5104449, 16.4451106], [111.5101168, 16.4463588], [111.5092424, 16.4462606], [111.5094097, 16.4456189], [111.509275, 16.4455894], [111.509116, 16.4462393], [111.509175, 16.4455154], [111.5090497, 16.4455013], [111.5090047, 16.4461167], [111.5086205, 16.44611], [111.5084281, 16.4459707], [111.5089195, 16.4443095], [111.5081066, 16.4446166], [111.507935, 16.4457887], [111.5076296, 16.4459177], [111.5054042, 16.4459086], [111.5031713, 16.4462591], [111.5015962, 16.4459141], [111.5006251, 16.4458832], [111.5001969, 16.4460851], [111.5001205, 16.4464987], [111.5005334, 16.4464603], [111.5009464, 16.4469522], [111.5013048, 16.4471605], [111.5030254, 16.4476945], [111.503394, 16.4479509], [111.5035835, 16.4485056], [111.5040835, 16.4493098], [111.5043974, 16.4496001], [111.5054469, 16.450148], [111.506644, 16.4502848], [111.5069796, 16.4501215], [111.5076642, 16.4501943], [111.5095966, 16.4495114], [111.5105202, 16.4488107], [111.5115582, 16.44852], [111.512895, 16.4475665], [111.5134346, 16.4474408], [111.5136674, 16.4476195], [111.5137358, 16.4476369]]}}, {"type": "Feature", "properties": {"group": "Paracel Islands", "km2": 0.3411}, "geometry": {"type": "LineString", "coordinates": [[112.3173676, 16.9607384], [112.3175487, 16.9604132], [112.3175403, 16.960126], [112.3171238, 16.9592431], [112.3168881, 16.9590083], [112.3164274, 16.9589936], [112.3160395, 16.9591288], [112.3154543, 16.9603261], [112.3143984, 16.960437], [112.3144231, 16.9605573], [112.3123099, 16.9611799], [112.3071816, 16.9637033], [112.3040829, 16.9649194], [112.3037266, 16.9652173], [112.3037592, 16.9654781], [112.3040167, 16.9658191], [112.3051214, 16.9664467], [112.3072807, 16.9661786], [112.3089124, 16.9655321], [112.3120128, 16.9638152], [112.3155546, 16.9612336], [112.3171661, 16.9608771], [112.3173676, 16.9607384]]}}, {"type": "Feature", "properties": {"group": "Paracel Islands", "km2": 0.3405}, "geometry": {"type": "LineString", "coordinates": [[111.5841613, 16.5024248], [111.5836129, 16.5026982], [111.5831519, 16.503203], [111.5828945, 16.5037925], [111.5830185, 16.505669], [111.583255, 16.5067051], [111.5836909, 16.5076298], [111.5845416, 16.5087326], [111.5850855, 16.5089807], [111.5859524, 16.5088633], [111.586776, 16.5086745], [111.5873808, 16.508054], [111.5879693, 16.5068722], [111.5881185, 16.5058318], [111.5880399, 16.5039256], [111.5878119, 16.5032779], [111.5871663, 16.5026176], [111.5856699, 16.5021515], [111.584913, 16.5022636], [111.5841613, 16.5024248]]}}, {"type": "Feature", "properties": {"group": "Paracel Islands", "km2": 0.3387}, "geometry": {"type": "LineString", "coordinates": [[111.6041433, 16.5324876], [111.6035999, 16.532713], [111.6034389, 16.5331642], [111.6031355, 16.5345975], [111.6034128, 16.5350571], [111.6043205, 16.5353323], [111.6054168, 16.5358962], [111.6079288, 16.5363025], [111.6096561, 16.5359251], [111.6107039, 16.535862], [111.6110711, 16.5339698], [111.610865, 16.5336485], [111.6108326, 16.5323489], [111.6092949, 16.5321009], [111.6080302, 16.5320451], [111.6081409, 16.5317139], [111.6079472, 16.5315736], [111.6079688, 16.5310323], [111.606931, 16.5302629], [111.6067029, 16.5304979], [111.6076496, 16.5311741], [111.6076766, 16.5322369], [111.6068086, 16.5323186], [111.6068149, 16.5322226], [111.6065388, 16.5322374], [111.6065593, 16.5314629], [111.6063685, 16.5314582], [111.6064249, 16.5322471], [111.6060558, 16.5323156], [111.6058771, 16.5312098], [111.60618, 16.5309445], [111.6061053, 16.5308707], [111.6057583, 16.5311776], [111.6058297, 16.5319784], [111.6055293, 16.5319771], [111.605565, 16.5321295], [111.6047041, 16.5321933], [111.6044815, 16.532425], [111.6041433, 16.5324876]]}}, {"type": "Feature", "properties": {"group": "Paracel Islands", "km2": 0.2932}, "geometry": {"type": "LineString", "coordinates": [[112.2707744, 16.9779062], [112.2679169, 16.9758964], [112.2678618, 16.975971], [112.2682863, 16.9762391], [112.2682865, 16.9780257], [112.2672272, 16.9780248], [112.2671961, 16.9778776], [112.267069, 16.9778776], [112.267036, 16.9780222], [112.2660952, 16.9780239], [112.2660939, 16.9762477], [112.2668844, 16.9740722], [112.2660333, 16.9762171], [112.2660453, 16.9802359], [112.2692281, 16.980265], [112.2700975, 16.9806475], [112.2709022, 16.9817582], [112.2719212, 16.9818502], [112.2734577, 16.9816975], [112.2738144, 16.9815174], [112.2740401, 16.9810745], [112.2740928, 16.9802496], [112.2737785, 16.9794572], [112.2727445, 16.9784617], [112.271994, 16.9780225], [112.2711236, 16.9778943], [112.2707744, 16.9779062]]}}, {"type": "Feature", "properties": {"group": "Paracel Islands", "km2": 0.2631}, "geometry": {"type": "LineString", "coordinates": [[112.2111972, 16.9760006], [112.209728, 16.9765829], [112.2083855, 16.9777886], [112.2078532, 16.9780689], [112.2077655, 16.9783393], [112.2079833, 16.9790343], [112.208457, 16.9793862], [112.2089615, 16.9794927], [112.2094805, 16.9794371], [112.2103651, 16.9796976], [112.2117112, 16.979667], [112.2133498, 16.9791412], [112.2150133, 16.9782999], [112.2156753, 16.9777692], [112.2158573, 16.9772048], [112.2155948, 16.9765972], [112.2150233, 16.9761976], [112.2126329, 16.975821], [112.2114573, 16.9759432], [112.2111972, 16.9760006]]}}, {"type": "Feature", "properties": {"group": "Paracel Islands", "km2": 0.2192}, "geometry": {"type": "LineString", "coordinates": [[111.7398854, 16.4601332], [111.7394624, 16.4601583], [111.7388596, 16.4607839], [111.7386328, 16.4618628], [111.7388967, 16.4616524], [111.7391072, 16.4618687], [111.7396006, 16.4633824], [111.7398462, 16.4636174], [111.7404095, 16.4648303], [111.7407004, 16.4651276], [111.743753, 16.4664854], [111.7440402, 16.4665608], [111.7442501, 16.466445], [111.7445045, 16.466052], [111.7443569, 16.4656984], [111.7441632, 16.4657043], [111.744037, 16.4655126], [111.7442676, 16.4653296], [111.7442732, 16.4651521], [111.7440022, 16.4650257], [111.7440692, 16.4646758], [111.7441879, 16.4646564], [111.7443051, 16.4643679], [111.7437529, 16.4637694], [111.7429359, 16.4625523], [111.7399925, 16.4602466], [111.7398854, 16.4601332]]}}, {"type": "Feature", "properties": {"group": "Paracel Islands", "km2": 0.1652}, "geometry": {"type": "LineString", "coordinates": [[111.527739, 16.4469825], [111.5278411, 16.446949], [111.5281645, 16.4451024], [111.5278589, 16.4424919], [111.5276931, 16.4419638], [111.5272029, 16.4420134], [111.5266261, 16.4423666], [111.5258228, 16.4426342], [111.5244812, 16.4426688], [111.523797, 16.4430445], [111.5236928, 16.4435358], [111.5239925, 16.4444331], [111.524563, 16.4450705], [111.5268138, 16.446297], [111.5275653, 16.4469329], [111.527739, 16.4469825]]}}, {"type": "Feature", "properties": {"group": "Paracel Islands", "km2": 0.1238}, "geometry": {"type": "LineString", "coordinates": [[112.3264193, 16.9532285], [112.3251123, 16.9533844], [112.3245724, 16.9536445], [112.3230413, 16.9548734], [112.3220213, 16.9559575], [112.3218538, 16.956291], [112.3221873, 16.9568979], [112.3225103, 16.9567018], [112.3227533, 16.9569464], [112.3234328, 16.9570379], [112.3245054, 16.9565595], [112.3257313, 16.9556506], [112.3266863, 16.9545506], [112.3268482, 16.9540365], [112.3267263, 16.9534466], [112.3264193, 16.9532285]]}}, {"type": "Feature", "properties": {"group": "Paracel Islands", "km2": 0.1219}, "geometry": {"type": "LineString", "coordinates": [[112.3370408, 16.9434584], [112.3368847, 16.9434611], [112.3356388, 16.9448365], [112.334358, 16.9456241], [112.3318738, 16.9480571], [112.3318159, 16.9490341], [112.3321031, 16.9498842], [112.3323903, 16.9498323], [112.3329574, 16.9493302], [112.3331104, 16.9490403], [112.3338244, 16.9484603], [112.3361807, 16.9459224], [112.3363089, 16.9455937], [112.3369852, 16.9450096], [112.3371613, 16.9443722], [112.3370218, 16.9439188], [112.3371216, 16.9435465], [112.3370408, 16.9434584]]}}, {"type": "Feature", "properties": {"group": "Paracel Islands", "km2": 0.0839}, "geometry": {"type": "LineString", "coordinates": [[111.7646388, 16.0550958], [111.7645629, 16.0546003], [111.7644103, 16.0545406], [111.7640253, 16.0547063], [111.7640491, 16.0549647], [111.7629382, 16.0554376], [111.7616108, 16.0553959], [111.7611017, 16.0551535], [111.7604448, 16.0561373], [111.7600528, 16.0564101], [111.7598114, 16.0568924], [111.7587133, 16.0570791], [111.7588467, 16.0573549], [111.7596883, 16.057433], [111.7612449, 16.0572044], [111.7632662, 16.0566059], [111.7643175, 16.0557518], [111.7646388, 16.0550958]]}}, {"type": "Feature", "properties": {"group": "Paracel Islands", "km2": 0.0547}, "geometry": {"type": "LineString", "coordinates": [[112.3466447, 16.9297121], [112.346123, 16.9284894], [112.3461478, 16.9276407], [112.3463503, 16.9273668], [112.3462223, 16.9273347], [112.3449911, 16.9287984], [112.3447296, 16.9296248], [112.3446974, 16.9308424], [112.344817, 16.930886], [112.3450743, 16.9305871], [112.3453224, 16.930546], [112.3459581, 16.9306794], [112.3467547, 16.930564], [112.3473474, 16.9307872], [112.3475459, 16.9305742], [112.3474789, 16.9302997], [112.3467681, 16.929884], [112.3466447, 16.9297121]]}}, {"type": "Feature", "properties": {"group": "Paracel Islands", "km2": 0.0545}, "geometry": {"type": "LineString", "coordinates": [[111.673323, 16.5755593], [111.674102, 16.5755273], [111.6743833, 16.5753993], [111.6746278, 16.5750775], [111.6748213, 16.5744333], [111.6745707, 16.574176], [111.6733722, 16.5740031], [111.673089, 16.5740866], [111.6730275, 16.5742647], [111.671188, 16.5734413], [111.6710446, 16.5737225], [111.6714436, 16.5746949], [111.6718815, 16.5750035], [111.6730585, 16.5754233], [111.673323, 16.5755593]]}}, {"type": "Feature", "properties": {"group": "Paracel Islands", "km2": 0.0348}, "geometry": {"type": "LineString", "coordinates": [[112.344342, 16.932627], [112.3430693, 16.9335097], [112.3427206, 16.9354007], [112.3427971, 16.9355688], [112.3437466, 16.9353853], [112.3441918, 16.9350839], [112.3443903, 16.934409], [112.3439518, 16.9340947], [112.3437895, 16.9336675], [112.3438472, 16.9334802], [112.3440322, 16.9333904], [112.3444104, 16.9334186], [112.3443903, 16.9326334], [112.344342, 16.932627]]}}, {"type": "Feature", "properties": {"group": "Paracel Islands", "km2": 0.0159}, "geometry": {"type": "LineString", "coordinates": [[111.7042964, 16.5782633], [111.7042564, 16.5789469], [111.7037262, 16.57951], [111.7031707, 16.5796929], [111.7037814, 16.579635], [111.704094, 16.5803049], [111.7051405, 16.5796437], [111.7046155, 16.579087], [111.7044897, 16.5783976], [111.7043439, 16.5782527], [111.7042964, 16.5782633]]}}, {"type": "Feature", "properties": {"group": "Paracel Islands", "km2": 0.0143}, "geometry": {"type": "LineString", "coordinates": [[111.6860304, 16.5662709], [111.6861195, 16.5669665], [111.6860071, 16.5670016], [111.6858432, 16.5667588], [111.6856761, 16.5668631], [111.685916, 16.5671505], [111.686526, 16.5671284], [111.6869385, 16.5666209], [111.6866678, 16.5656113], [111.6864264, 16.5656058], [111.6860589, 16.5661759], [111.6860304, 16.5662709]]}}, {"type": "Feature", "properties": {"group": "Paracel Islands", "km2": 0.014}, "geometry": {"type": "LineString", "coordinates": [[112.3420273, 16.9369403], [112.3417456, 16.9371455], [112.3410201, 16.9383233], [112.3409732, 16.9387146], [112.3412025, 16.9388993], [112.34206, 16.9380689], [112.3420467, 16.9372163], [112.3422036, 16.9369666], [112.3420655, 16.9369223], [112.3420273, 16.9369403]]}}, {"type": "Feature", "properties": {"group": "Paracel Islands", "km2": 0.0129}, "geometry": {"type": "LineString", "coordinates": [[111.5229701, 16.4445767], [111.523084, 16.4444773], [111.5230616, 16.4428494], [111.5226998, 16.4423542], [111.5224701, 16.4424556], [111.5224132, 16.4430463], [111.5228665, 16.444528], [111.5229701, 16.4445767]]}}, {"type": "Feature", "properties": {"group": "Paracel Islands", "km2": 0.0088}, "geometry": {"type": "LineString", "coordinates": [[111.61961, 16.5428871], [111.6203487, 16.5427059], [111.6202983, 16.5422782], [111.6200041, 16.5417058], [111.6193349, 16.5424788], [111.6195394, 16.5428535], [111.61961, 16.5428871]]}}, {"type": "Feature", "properties": {"group": "Pratas", "km2": 1.2605}, "geometry": {"type": "LineString", "coordinates": [[116.7330903, 20.6973059], [116.7321268, 20.6974211], [116.73086, 20.6971482], [116.7294587, 20.6975528], [116.7291811, 20.6974399], [116.7292036, 20.6977005], [116.7279172, 20.6978963], [116.7277894, 20.6973659], [116.7276818, 20.6973998], [116.7277944, 20.6979367], [116.7253664, 20.6986581], [116.7251431, 20.698564], [116.7250076, 20.6980823], [116.7248748, 20.6981099], [116.7249781, 20.6986041], [116.724852, 20.6987108], [116.7210595, 20.6998378], [116.7182615, 20.7011287], [116.7175496, 20.7013413], [116.7152796, 20.7016181], [116.7115465, 20.7031485], [116.7107946, 20.7031731], [116.7102045, 20.7038769], [116.7102461, 20.7048002], [116.7109694, 20.7050959], [116.7125152, 20.7053264], [116.7129765, 20.7048407], [116.7127369, 20.7039448], [116.7131522, 20.7036188], [116.7133367, 20.7038408], [116.713191, 20.7035973], [116.7133793, 20.7034933], [116.7135623, 20.7037268], [116.7134172, 20.7034724], [116.7145819, 20.7026379], [116.7151399, 20.7031754], [116.7157124, 20.7032821], [116.7167431, 20.7020866], [116.7182074, 20.701771], [116.7191912, 20.7014073], [116.7200885, 20.7014264], [116.721185, 20.7009876], [116.7221303, 20.7001091], [116.7231037, 20.6997927], [116.7238789, 20.7007204], [116.724009, 20.7010672], [116.7238087, 20.7016352], [116.7230399, 20.7021044], [116.7224045, 20.7021043], [116.7220088, 20.701705], [116.7210646, 20.7016862], [116.720824, 20.7018427], [116.721709, 20.7024028], [116.7229516, 20.7025968], [116.7242954, 20.7030111], [116.7249893, 20.7034496], [116.7264239, 20.7032928], [116.7267995, 20.7034579], [116.7267693, 20.7038299], [116.7259792, 20.7046415], [116.7260496, 20.7047431], [116.7259203, 20.7048995], [116.7251645, 20.704994], [116.7246482, 20.7049131], [116.7244878, 20.7047966], [116.7241681, 20.7039327], [116.7239283, 20.7050147], [116.7226376, 20.7056662], [116.7220109, 20.7057235], [116.721631, 20.7055656], [116.7205565, 20.7057887], [116.7192393, 20.705566], [116.7182524, 20.70525], [116.7179849, 20.7053371], [116.7184443, 20.7055345], [116.7185362, 20.7057066], [116.7183946, 20.705915], [116.717539, 20.7059493], [116.7167452, 20.7061782], [116.7160006, 20.7068692], [116.7158543, 20.7068613], [116.7156829, 20.7064517], [116.7154066, 20.7064312], [116.7155199, 20.7073361], [116.7153269, 20.7074306], [116.7140783, 20.7074315], [116.7133594, 20.7076724], [116.7124428, 20.7073514], [116.7120009, 20.7074622], [116.7119485, 20.7075295], [116.712076, 20.7075575], [116.7118689, 20.7076273], [116.7116823, 20.7069425], [116.7119538, 20.7065183], [116.7123225, 20.7062595], [116.7125051, 20.7062686], [116.7125492, 20.7059927], [116.7123073, 20.7057699], [116.711909, 20.7057317], [116.7110892, 20.7060853], [116.7107553, 20.7064809], [116.7107745, 20.7070231], [116.7114733, 20.7081569], [116.7118593, 20.7084872], [116.7126742, 20.7087035], [116.7134891, 20.709305], [116.7138492, 20.70942], [116.7153296, 20.7094363], [116.7163591, 20.7097011], [116.7183685, 20.709315], [116.7195886, 20.7084045], [116.7225638, 20.7068386], [116.72549, 20.7060059], [116.7257124, 20.7060006], [116.7257445, 20.7061638], [116.7271555, 20.7059116], [116.7274497, 20.7060183], [116.7276789, 20.7059294], [116.7292012, 20.705016], [116.7306907, 20.7035109], [116.731921, 20.7033061], [116.7325567, 20.7021695], [116.7333969, 20.7021977], [116.7334154, 20.7021022], [116.7326385, 20.7019475], [116.7328649, 20.7005573], [116.7331772, 20.6997147], [116.733879, 20.6997332], [116.7338844, 20.6996166], [116.7334995, 20.6995827], [116.7334696, 20.6993189], [116.7341153, 20.697787], [116.7342788, 20.6975577], [116.7348463, 20.6975658], [116.734873, 20.6974397], [116.7339984, 20.6973785], [116.7330903, 20.6973059]]}}, {"type": "Feature", "properties": {"group": "Pratas", "km2": 0.064}, "geometry": {"type": "LineString", "coordinates": [[116.732466, 20.7113859], [116.7324984, 20.7107644], [116.7319652, 20.7101104], [116.7317238, 20.7101497], [116.7314692, 20.7106417], [116.7313, 20.7106975], [116.7303988, 20.7104945], [116.7301214, 20.7099858], [116.7299643, 20.7099297], [116.7291543, 20.70999], [116.7288861, 20.7104265], [116.7289182, 20.7108831], [116.7293117, 20.7112034], [116.7301316, 20.7111744], [116.7300126, 20.7118465], [116.7300857, 20.7121929], [116.7307643, 20.7125063], [116.7312128, 20.7124662], [116.7314288, 20.7123132], [116.732466, 20.7113859]]}}]}