{
"type": "FeatureCollection",
"name": "taiwan_1930_station_names_v1",
"crs": { "type": "name", "properties": { "name": "urn:ogc:def:crs:EPSG::3826" } },
"features": [
{ "type": "Feature", "properties": { "fid": 1, "CLASS": 30, "PAGE": 56, "NOTE": "大甲驛", "ROMAJI": null, "START": null, "END": null, "Comments": null }, "geometry": { "type": "Point", "coordinates": [ 212167.896961637190543, 2693205.811718034092337 ] } },
{ "type": "Feature", "properties": { "fid": 2, "CLASS": 30, "PAGE": 57, "NOTE": "日南驛", "ROMAJI": null, "START": null, "END": null, "Comments": null }, "geometry": { "type": "Point", "coordinates": [ 214891.02593212199281, 2696883.053301182109863 ] } },
{ "type": "Feature", "properties": { "fid": 3, "CLASS": 30, "PAGE": 60, "NOTE": "清水驛", "ROMAJI": null, "START": null, "END": null, "Comments": null }, "geometry": { "type": "Point", "coordinates": [ 206260.156140531034907, 2684357.714704900979996 ] } },
{ "type": "Feature", "properties": { "fid": 4, "CLASS": 30, "PAGE": 60, "NOTE": "甲南驛", "ROMAJI": null, "START": null, "END": null, "Comments": null }, "geometry": { "type": "Point", "coordinates": [ 209652.612352066644235, 2688697.738035031128675 ] } },
{ "type": "Feature", "properties": { "fid": 5, "CLASS": 30, "PAGE": 61, "NOTE": "後里驛", "ROMAJI": null, "START": null, "END": null, "Comments": null }, "geometry": { "type": "Point", "coordinates": [ 222903.852225682814606, 2689272.936701219994575 ] } },
{ "type": "Feature", "properties": { "fid": 6, "CLASS": 30, "PAGE": 61, "NOTE": "大安驛", "ROMAJI": null, "START": null, "END": null, "Comments": null }, "geometry": { "type": "Point", "coordinates": [ 224637.446416803868487, 2690764.638562014792114 ] } },
{ "type": "Feature", "properties": { "fid": 7, "CLASS": 30, "PAGE": 61, "NOTE": "豐原驛", "ROMAJI": null, "START": null, "END": null, "Comments": null }, "geometry": { "type": "Point", "coordinates": [ 221868.582669616735075, 2683167.163358145859092 ] } },
{ "type": "Feature", "properties": { "fid": 8, "CLASS": 30, "PAGE": 64, "NOTE": "沙鹿驛", "ROMAJI": null, "START": null, "END": null, "Comments": null }, "geometry": { "type": "Point", "coordinates": [ 205042.422565421817126, 2681329.866928569506854 ] } },
{ "type": "Feature", "properties": { "fid": 9, "CLASS": 30, "PAGE": 64, "NOTE": "龍井驛", "ROMAJI": null, "START": null, "END": null, "Comments": null }, "geometry": { "type": "Point", "coordinates": [ 203581.641442245047074, 2676979.335473721381277 ] } },
{ "type": "Feature", "properties": { "fid": 10, "CLASS": 30, "PAGE": 65, "NOTE": "潭子驛", "ROMAJI": null, "START": null, "END": null, "Comments": null }, "geometry": { "type": "Point", "coordinates": [ 220128.357799086777959, 2678634.334483080543578 ] } },
{ "type": "Feature", "properties": { "fid": 11, "CLASS": 30, "PAGE": 68, "NOTE": "彰化驛", "ROMAJI": null, "START": null, "END": null, "Comments": null }, "geometry": { "type": "Point", "coordinates": [ 203063.904045809147647, 2664142.522713921964169 ] } },
{ "type": "Feature", "properties": { "fid": 12, "CLASS": 30, "PAGE": 68, "NOTE": "大肚驛", "ROMAJI": null, "START": null, "END": null, "Comments": null }, "geometry": { "type": "Point", "coordinates": [ 203495.087738381960662, 2672173.083139548543841 ] } },
{ "type": "Feature", "properties": { "fid": 13, "CLASS": 30, "PAGE": 68, "NOTE": "追分驛", "ROMAJI": null, "START": null, "END": null, "Comments": null }, "geometry": { "type": "Point", "coordinates": [ 206280.586865020886762, 2668397.612885159906 ] } },
{ "type": "Feature", "properties": { "fid": 14, "CLASS": 30, "PAGE": 68, "NOTE": "王田驛", "ROMAJI": null, "START": null, "END": null, "Comments": null }, "geometry": { "type": "Point", "coordinates": [ 208165.480110724311089, 2667817.857741374988109 ] } },
{ "type": "Feature", "properties": { "fid": 15, "CLASS": 30, "PAGE": 68, "NOTE": "烏日驛", "ROMAJI": null, "START": null, "END": null, "Comments": null }, "geometry": { "type": "Point", "coordinates": [ 211627.464018746512011, 2667126.309378552716225 ] } },
{ "type": "Feature", "properties": { "fid": 16, "CLASS": 30, "PAGE": 69, "NOTE": "台中驛", "ROMAJI": null, "START": null, "END": null, "Comments": null }, "geometry": { "type": "Point", "coordinates": [ 217979.633066753012827, 2670199.692792557645589 ] } },
{ "type": "Feature", "properties": { "fid": 17, "CLASS": 30, "PAGE": 76, "NOTE": "員林驛", "ROMAJI": null, "START": null, "END": null, "Comments": null }, "geometry": { "type": "Point", "coordinates": [ 206175.048162445280468, 2650609.718371809460223 ] } },
{ "type": "Feature", "properties": { "fid": 18, "CLASS": 30, "PAGE": 10, "NOTE": "唭里岸驛", "ROMAJI": null, "START": null, "END": null, "Comments": null }, "geometry": { "type": "Point", "coordinates": [ 302204.085511639073957, 2778234.090700554661453 ] } },
{ "type": "Feature", "properties": { "fid": 19, "CLASS": 30, "PAGE": 10, "NOTE": "士林驛", "ROMAJI": null, "START": null, "END": null, "Comments": null }, "geometry": { "type": "Point", "coordinates": [ 303095.231649457535241, 2776081.832127060275525 ] } },
{ "type": "Feature", "properties": { "fid": 20, "CLASS": 30, "PAGE": 11, "NOTE": "七堵驛", "ROMAJI": null, "START": null, "END": null, "Comments": null }, "geometry": { "type": "Point", "coordinates": [ 322206.072847989213187, 2776731.231093479320407 ] } },
{ "type": "Feature", "properties": { "fid": 21, "CLASS": 30, "PAGE": 11, "NOTE": "八堵驛", "ROMAJI": null, "START": null, "END": null, "Comments": null }, "geometry": { "type": "Point", "coordinates": [ 323538.232269760512281, 2778034.553786389529705 ] } },
{ "type": "Feature", "properties": { "fid": 22, "CLASS": 30, "PAGE": 11, "NOTE": "八堵驛", "ROMAJI": null, "START": null, "END": null, "Comments": null }, "geometry": { "type": "Point", "coordinates": [ 323542.891560624411795, 2777987.764120640233159 ] } },
{ "type": "Feature", "properties": { "fid": 23, "CLASS": 30, "PAGE": 11, "NOTE": "暖暖驛", "ROMAJI": null, "START": null, "END": null, "Comments": null }, "geometry": { "type": "Point", "coordinates": [ 324696.077237105229869, 2777288.523143858648837 ] } },
{ "type": "Feature", "properties": { "fid": 24, "CLASS": 30, "PAGE": 11, "NOTE": "基隆驛", "ROMAJI": null, "START": null, "END": null, "Comments": null }, "geometry": { "type": "Point", "coordinates": [ 324551.743473119859118, 2780664.857226356398314 ] } },
{ "type": "Feature", "properties": { "fid": 25, "CLASS": 30, "PAGE": 18, "NOTE": "宮下乘降場", "ROMAJI": null, "START": null, "END": null, "Comments": null }, "geometry": { "type": "Point", "coordinates": [ 302793.485751419386361, 2774550.098619309253991 ] } },
{ "type": "Feature", "properties": { "fid": 26, "CLASS": 30, "PAGE": 18, "NOTE": "圓山驛", "ROMAJI": null, "START": null, "END": null, "Comments": null }, "geometry": { "type": "Point", "coordinates": [ 302491.748368665517773, 2773780.357550814282149 ] } },
{ "type": "Feature", "properties": { "fid": 27, "CLASS": 30, "PAGE": 18, "NOTE": "雙連驛", "ROMAJI": null, "START": null, "END": null, "Comments": null }, "geometry": { "type": "Point", "coordinates": [ 302540.55485008150572, 2772386.720151666086167 ] } },
{ "type": "Feature", "properties": { "fid": 28, "CLASS": 30, "PAGE": 18, "NOTE": "大正街驛", "ROMAJI": null, "START": null, "END": null, "Comments": null }, "geometry": { "type": "Point", "coordinates": [ 302500.478829134255648, 2771474.611634961329401 ] } },
{ "type": "Feature", "properties": { "fid": 29, "CLASS": 30, "PAGE": 18, "NOTE": "台北驛", "ROMAJI": null, "START": null, "END": null, "Comments": null }, "geometry": { "type": "Point", "coordinates": [ 302037.133067952061538, 2771210.031460481695831 ] } },
{ "type": "Feature", "properties": { "fid": 30, "CLASS": 30, "PAGE": 18, "NOTE": "螢橋驛", "ROMAJI": null, "START": null, "END": null, "Comments": null }, "geometry": { "type": "Point", "coordinates": [ 302177.128474258061033, 2768709.652638204861432 ] } },
{ "type": "Feature", "properties": { "fid": 31, "CLASS": 30, "PAGE": 18, "NOTE": "十五份乘降場", "ROMAJI": null, "START": null, "END": null, "Comments": null }, "geometry": { "type": "Point", "coordinates": [ 304455.888784855313133, 2765898.91169399721548 ] } },
{ "type": "Feature", "properties": { "fid": 32, "CLASS": 30, "PAGE": 18, "NOTE": "公館驛", "ROMAJI": null, "START": null, "END": null, "Comments": null }, "geometry": { "type": "Point", "coordinates": [ 304095.400791243533604, 2767139.989785118959844 ] } },
{ "type": "Feature", "properties": { "fid": 33, "CLASS": 30, "PAGE": 18, "NOTE": "水源地乘降場", "ROMAJI": null, "START": null, "END": null, "Comments": null }, "geometry": { "type": "Point", "coordinates": [ 303683.659051385475323, 2767576.448506653308868 ] } },
{ "type": "Feature", "properties": { "fid": 34, "CLASS": 30, "PAGE": 18, "NOTE": "南港假乘降場", "ROMAJI": null, "START": null, "END": null, "Comments": null }, "geometry": { "type": "Point", "coordinates": [ 311731.091285947419237, 2771883.033118962775916 ] } },
{ "type": "Feature", "properties": { "fid": 35, "CLASS": 30, "PAGE": 18, "NOTE": "松山驛", "ROMAJI": null, "START": null, "END": null, "Comments": null }, "geometry": { "type": "Point", "coordinates": [ 308276.258120789076202, 2771346.363945526070893 ] } },
{ "type": "Feature", "properties": { "fid": 36, "CLASS": 30, "PAGE": 17, "NOTE": "板橋驛", "ROMAJI": null, "START": null, "END": null, "Comments": null }, "geometry": { "type": "Point", "coordinates": [ 296361.769087245629635, 2766777.010144213680178 ] } },
{ "type": "Feature", "properties": { "fid": 37, "CLASS": 30, "PAGE": 17, "NOTE": "萬華驛", "ROMAJI": null, "START": null, "END": null, "Comments": null }, "geometry": { "type": "Point", "coordinates": [ 300557.356853023695294, 2769549.227475153282285 ] } },
{ "type": "Feature", "properties": { "fid": 38, "CLASS": 30, "PAGE": 32, "NOTE": "紅毛驛", "ROMAJI": null, "START": null, "END": null, "Comments": null }, "geometry": { "type": "Point", "coordinates": [ 250946.11454734072322, 2747945.852301404811442 ] } },
{ "type": "Feature", "properties": { "fid": 39, "CLASS": 30, "PAGE": 32, "NOTE": "湖口驛", "ROMAJI": null, "START": null, "END": null, "Comments": null }, "geometry": { "type": "Point", "coordinates": [ 255553.42399078203016, 2752082.155012072063982 ] } },
{ "type": "Feature", "properties": { "fid": 40, "CLASS": 30, "PAGE": 33, "NOTE": "楊梅驛", "ROMAJI": null, "START": null, "END": null, "Comments": null }, "geometry": { "type": "Point", "coordinates": [ 264762.30442512530135, 2755590.773922684136778 ] } },
{ "type": "Feature", "properties": { "fid": 41, "CLASS": 30, "PAGE": 35, "NOTE": "龜山驛", "ROMAJI": null, "START": null, "END": null, "Comments": null }, "geometry": { "type": "Point", "coordinates": [ 335462.675555513880681, 2753182.940773340407759 ] } },
{ "type": "Feature", "properties": { "fid": 42, "CLASS": 30, "PAGE": 35, "NOTE": "外澳驛", "ROMAJI": null, "START": null, "END": null, "Comments": null }, "geometry": { "type": "Point", "coordinates": [ 333137.083095321373548, 2750384.09443384129554 ] } },
{ "type": "Feature", "properties": { "fid": 43, "CLASS": 30, "PAGE": 36, "NOTE": "香山驛", "ROMAJI": null, "START": null, "END": null, "Comments": null }, "geometry": { "type": "Point", "coordinates": [ 241341.949876651808154, 2739620.518549330998212 ] } },
{ "type": "Feature", "properties": { "fid": 44, "CLASS": 30, "PAGE": 36, "NOTE": "新竹驛", "ROMAJI": null, "START": null, "END": null, "Comments": null }, "geometry": { "type": "Point", "coordinates": [ 247154.617925213940907, 2743759.482491065748036 ] } },
{ "type": "Feature", "properties": { "fid": 45, "CLASS": 30, "PAGE": 40, "NOTE": "礁溪驛", "ROMAJI": null, "START": null, "END": null, "Comments": null }, "geometry": { "type": "Point", "coordinates": [ 327149.0974103413173, 2742396.774509679526091 ] } },
{ "type": "Feature", "properties": { "fid": 46, "CLASS": 30, "PAGE": 40, "NOTE": "頭圍驛", "ROMAJI": null, "START": null, "END": null, "Comments": null }, "geometry": { "type": "Point", "coordinates": [ 328393.949577389808837, 2746808.588237132877111 ] } },
{ "type": "Feature", "properties": { "fid": 47, "CLASS": 30, "PAGE": 41, "NOTE": "竹南驛", "ROMAJI": null, "START": null, "END": null, "Comments": null }, "geometry": { "type": "Point", "coordinates": [ 237924.196923444251297, 2731111.614224351942539 ] } },
{ "type": "Feature", "properties": { "fid": 48, "CLASS": 30, "PAGE": 45, "NOTE": "羅東驛", "ROMAJI": null, "START": null, "END": null, "Comments": null }, "geometry": { "type": "Point", "coordinates": [ 328369.434342485386878, 2730356.86570328194648 ] } },
{ "type": "Feature", "properties": { "fid": 49, "CLASS": 30, "PAGE": 45, "NOTE": "二結驛", "ROMAJI": null, "START": null, "END": null, "Comments": null }, "geometry": { "type": "Point", "coordinates": [ 328331.430987299012486, 2733456.434756705071777 ] } },
{ "type": "Feature", "properties": { "fid": 50, "CLASS": 30, "PAGE": 47, "NOTE": "公司寮驛", "ROMAJI": null, "START": null, "END": null, "Comments": null }, "geometry": { "type": "Point", "coordinates": [ 225631.582303145027254, 2722788.923478084616363 ] } },
{ "type": "Feature", "properties": { "fid": 51, "CLASS": 30, "PAGE": 47, "NOTE": "後龍驛", "ROMAJI": null, "START": null, "END": null, "Comments": null }, "geometry": { "type": "Point", "coordinates": [ 228401.972451578214532, 2723267.593512699007988 ] } },
{ "type": "Feature", "properties": { "fid": 52, "CLASS": 30, "PAGE": 47, "NOTE": "大山腳驛", "ROMAJI": null, "START": null, "END": null, "Comments": null }, "geometry": { "type": "Point", "coordinates": [ 230110.058691374375485, 2726581.381733648944646 ] } },
{ "type": "Feature", "properties": { "fid": 53, "CLASS": 30, "PAGE": 47, "NOTE": "北勢驛", "ROMAJI": null, "START": null, "END": null, "Comments": null }, "geometry": { "type": "Point", "coordinates": [ 232136.052438215934671, 2721586.296818552073091 ] } },
{ "type": "Feature", "properties": { "fid": 54, "CLASS": 30, "PAGE": 47, "NOTE": "造橋驛", "ROMAJI": null, "START": null, "END": null, "Comments": null }, "geometry": { "type": "Point", "coordinates": [ 236551.920914471469587, 2726118.895341522991657 ] } },
{ "type": "Feature", "properties": { "fid": 55, "CLASS": 30, "PAGE": 47, "NOTE": "淡文湖驛", "ROMAJI": null, "START": null, "END": null, "Comments": null }, "geometry": { "type": "Point", "coordinates": [ 235676.01692913196166, 2727808.426034658681601 ] } },
{ "type": "Feature", "properties": { "fid": 56, "CLASS": 30, "PAGE": 49, "NOTE": "冬山驛", "ROMAJI": null, "START": null, "END": null, "Comments": null }, "geometry": { "type": "Point", "coordinates": [ 330199.796676205820404, 2725762.583242800086737 ] } },
{ "type": "Feature", "properties": { "fid": 57, "CLASS": 30, "PAGE": 49, "NOTE": "新城驛", "ROMAJI": null, "START": null, "END": null, "Comments": null }, "geometry": { "type": "Point", "coordinates": [ 333284.760161887970753, 2723472.883959194645286 ] } },
{ "type": "Feature", "properties": { "fid": 58, "CLASS": 30, "PAGE": 49, "NOTE": "蘇澳驛", "ROMAJI": null, "START": null, "END": null, "Comments": null }, "geometry": { "type": "Point", "coordinates": [ 336254.893090917321388, 2721183.135352972894907 ] } },
{ "type": "Feature", "properties": { "fid": 59, "CLASS": 30, "PAGE": 50, "NOTE": "白沙屯驛", "ROMAJI": null, "START": null, "END": null, "Comments": null }, "geometry": { "type": "Point", "coordinates": [ 220412.452520584425656, 2717602.854787096381187 ] } },
{ "type": "Feature", "properties": { "fid": 60, "CLASS": 30, "PAGE": 50, "NOTE": "新埔驛", "ROMAJI": null, "START": null, "END": null, "Comments": null }, "geometry": { "type": "Point", "coordinates": [ 219126.659931547357701, 2714856.867166818585247 ] } },
{ "type": "Feature", "properties": { "fid": 61, "CLASS": 30, "PAGE": 51, "NOTE": "苗栗驛", "ROMAJI": null, "START": null, "END": null, "Comments": null }, "geometry": { "type": "Point", "coordinates": [ 232000.373763739829883, 2718156.524603232741356 ] } },
{ "type": "Feature", "properties": { "fid": 62, "CLASS": 30, "PAGE": 51, "NOTE": "南勢驛", "ROMAJI": null, "START": null, "END": null, "Comments": null }, "geometry": { "type": "Point", "coordinates": [ 228852.897197644168045, 2712865.813982902560383 ] } },
{ "type": "Feature", "properties": { "fid": 63, "CLASS": 30, "PAGE": 54, "NOTE": "通霄驛", "ROMAJI": null, "START": null, "END": null, "Comments": null }, "geometry": { "type": "Point", "coordinates": [ 217378.162181958352448, 2709503.054406895302236 ] } },
{ "type": "Feature", "properties": { "fid": 64, "CLASS": 30, "PAGE": 54, "NOTE": "苑裡驛", "ROMAJI": null, "START": null, "END": null, "Comments": null }, "geometry": { "type": "Point", "coordinates": [ 214620.381816956039984, 2704228.85685932636261 ] } },
{ "type": "Feature", "properties": { "fid": 65, "CLASS": 30, "PAGE": 55, "NOTE": "銅鑼驛", "ROMAJI": null, "START": null, "END": null, "Comments": null }, "geometry": { "type": "Point", "coordinates": [ 228311.736973555322038, 2708891.280563407577574 ] } },
{ "type": "Feature", "properties": { "fid": 66, "CLASS": 30, "PAGE": 55, "NOTE": "三叉驛", "ROMAJI": null, "START": null, "END": null, "Comments": null }, "geometry": { "type": "Point", "coordinates": [ 227099.724005733354716, 2701660.544006471522152 ] } },
{ "type": "Feature", "properties": { "fid": 67, "CLASS": 30, "PAGE": 3, "NOTE": "淡水驛", "ROMAJI": null, "START": null, "END": null, "Comments": null }, "geometry": { "type": "Point", "coordinates": [ 294844.609486022556666, 2784547.612149736378342 ] } },
{ "type": "Feature", "properties": { "fid": 68, "CLASS": 30, "PAGE": 9, "NOTE": "新北投驛", "ROMAJI": null, "START": null, "END": null, "Comments": null }, "geometry": { "type": "Point", "coordinates": [ 300798.537578713789117, 2781047.278728869277984 ] } },
{ "type": "Feature", "properties": { "fid": 69, "CLASS": 30, "PAGE": 9, "NOTE": "北投驛", "ROMAJI": null, "START": null, "END": null, "Comments": null }, "geometry": { "type": "Point", "coordinates": [ 300267.723273651383352, 2780538.814709634054452 ] } },
{ "type": "Feature", "properties": { "fid": 70, "CLASS": 30, "PAGE": 9, "NOTE": "江頭驛", "ROMAJI": null, "START": null, "END": null, "Comments": null }, "geometry": { "type": "Point", "coordinates": [ 297418.361053333675954, 2780121.688673471100628 ] } },
{ "type": "Feature", "properties": { "fid": 71, "CLASS": 30, "PAGE": 24, "NOTE": "平鎮驛", "ROMAJI": null, "START": null, "END": null, "Comments": null }, "geometry": { "type": "Point", "coordinates": [ 268555.408935150771867, 2756894.059745366685092 ] } },
{ "type": "Feature", "properties": { "fid": 72, "CLASS": 30, "PAGE": 24, "NOTE": "中壢驛", "ROMAJI": null, "START": null, "END": null, "Comments": null }, "geometry": { "type": "Point", "coordinates": [ 272823.437976429471746, 2760656.80953292036429 ] } },
{ "type": "Feature", "properties": { "fid": 73, "CLASS": 30, "PAGE": 25, "NOTE": "崁子腳驛", "ROMAJI": null, "START": null, "END": null, "Comments": null }, "geometry": { "type": "Point", "coordinates": [ 276113.724158785189502, 2762789.616478258743882 ] } },
{ "type": "Feature", "properties": { "fid": 74, "CLASS": 30, "PAGE": 25, "NOTE": "桃園驛", "ROMAJI": null, "START": null, "END": null, "Comments": null }, "geometry": { "type": "Point", "coordinates": [ 281672.32957355043618, 2764600.27117276750505 ] } },
{ "type": "Feature", "properties": { "fid": 75, "CLASS": 30, "PAGE": 25, "NOTE": "鶯歌驛", "ROMAJI": null, "START": null, "END": null, "Comments": null }, "geometry": { "type": "Point", "coordinates": [ 285899.265403645636979, 2760836.205450084991753 ] } },
{ "type": "Feature", "properties": { "fid": 76, "CLASS": 30, "PAGE": 26, "NOTE": "山子腳驛", "ROMAJI": null, "START": null, "END": null, "Comments": null }, "geometry": { "type": "Point", "coordinates": [ 289723.365537077945191, 2762863.721580238081515 ] } },
{ "type": "Feature", "properties": { "fid": 77, "CLASS": 30, "PAGE": 26, "NOTE": "樹林驛", "ROMAJI": null, "START": null, "END": null, "Comments": null }, "geometry": { "type": "Point", "coordinates": [ 292877.616974169795867, 2764931.97277396870777 ] } },
{ "type": "Feature", "properties": { "fid": 78, "CLASS": 30, "PAGE": 27, "NOTE": "新店驛", "ROMAJI": null, "START": null, "END": null, "Comments": null }, "geometry": { "type": "Point", "coordinates": [ 304356.020187917165458, 2761495.854546586051583 ] } },
{ "type": "Feature", "properties": { "fid": 79, "CLASS": 30, "PAGE": 27, "NOTE": "大坪林乘降場", "ROMAJI": null, "START": null, "END": null, "Comments": null }, "geometry": { "type": "Point", "coordinates": [ 304763.324515593529213, 2763184.061104128137231 ] } },
{ "type": "Feature", "properties": { "fid": 80, "CLASS": 30, "PAGE": 27, "NOTE": "景尾驛", "ROMAJI": null, "START": null, "END": null, "Comments": null }, "geometry": { "type": "Point", "coordinates": [ 304519.947118224634323, 2764934.587700785137713 ] } },
{ "type": "Feature", "properties": { "fid": 81, "CLASS": 30, "PAGE": 30, "NOTE": "大里驛", "ROMAJI": null, "START": null, "END": null, "Comments": null }, "geometry": { "type": "Point", "coordinates": [ 343163.06561195361428, 2762421.880718432832509 ] } },
{ "type": "Feature", "properties": { "fid": 82, "CLASS": 30, "PAGE": 30, "NOTE": "大溪驛", "ROMAJI": null, "START": null, "END": null, "Comments": null }, "geometry": { "type": "Point", "coordinates": [ 339893.717508575879037, 2759305.584794310852885 ] } },
{ "type": "Feature", "properties": { "fid": 83, "CLASS": 30, "PAGE": 82, "NOTE": "田中驛", "ROMAJI": null, "START": null, "END": null, "Comments": null }, "geometry": { "type": "Point", "coordinates": [ 208363.276157063228311, 2639408.822686230298132 ] } },
{ "type": "Feature", "properties": { "fid": 84, "CLASS": 30, "PAGE": 82, "NOTE": "社頭驛", "ROMAJI": null, "START": null, "END": null, "Comments": null }, "geometry": { "type": "Point", "coordinates": [ 207277.95580227181199, 2643535.186092036776245 ] } },
{ "type": "Feature", "properties": { "fid": 85, "CLASS": 30, "PAGE": 89, "NOTE": "林內驛", "ROMAJI": null, "START": null, "END": null, "Comments": null }, "geometry": { "type": "Point", "coordinates": [ 210728.067020334652625, 2628444.437775874510407 ] } },
{ "type": "Feature", "properties": { "fid": 86, "CLASS": 30, "PAGE": 93, "NOTE": "斗南驛", "ROMAJI": null, "START": null, "END": null, "Comments": null }, "geometry": { "type": "Point", "coordinates": [ 197057.715640193637228, 2618891.099795006681234 ] } },
{ "type": "Feature", "properties": { "fid": 87, "CLASS": 30, "PAGE": 94, "NOTE": "斗六驛", "ROMAJI": null, "START": null, "END": null, "Comments": null }, "geometry": { "type": "Point", "coordinates": [ 203196.160841234406689, 2623194.661257926840335 ] } },
{ "type": "Feature", "properties": { "fid": 88, "CLASS": 30, "PAGE": 98, "NOTE": "大林驛", "ROMAJI": null, "START": null, "END": null, "Comments": null }, "geometry": { "type": "Point", "coordinates": [ 194455.024901205411879, 2610897.607340063434094 ] } },
{ "type": "Feature", "properties": { "fid": 89, "CLASS": 30, "PAGE": 103, "NOTE": "民雄驛", "ROMAJI": null, "START": null, "END": null, "Comments": null }, "geometry": { "type": "Point", "coordinates": [ 191970.167283338989364, 2605834.164316032081842 ] } },
{ "type": "Feature", "properties": { "fid": 90, "CLASS": 30, "PAGE": 108, "NOTE": "嘉義驛", "ROMAJI": null, "START": null, "END": null, "Comments": null }, "geometry": { "type": "Point", "coordinates": [ 192918.497534403140889, 2597475.77673339471221 ] } },
{ "type": "Feature", "properties": { "fid": 91, "CLASS": 30, "PAGE": 112, "NOTE": "後壁驛", "ROMAJI": null, "START": null, "END": null, "Comments": null }, "geometry": { "type": "Point", "coordinates": [ 184603.258035624574404, 2584945.290086204186082 ] } },
{ "type": "Feature", "properties": { "fid": 92, "CLASS": 30, "PAGE": 113, "NOTE": "水上驛", "ROMAJI": null, "START": null, "END": null, "Comments": null }, "geometry": { "type": "Point", "coordinates": [ 187334.812166277930373, 2590227.291188560426235 ] } },
{ "type": "Feature", "properties": { "fid": 93, "CLASS": 30, "PAGE": 116, "NOTE": "新營驛", "ROMAJI": null, "START": null, "END": null, "Comments": null }, "geometry": { "type": "Point", "coordinates": [ 180766.40925451964722, 2578313.894238963723183 ] } },
{ "type": "Feature", "properties": { "fid": 94, "CLASS": 30, "PAGE": 120, "NOTE": "林鳳營驛", "ROMAJI": null, "START": null, "END": null, "Comments": null }, "geometry": { "type": "Point", "coordinates": [ 180525.200513346935622, 2571285.950878094416112 ] } },
{ "type": "Feature", "properties": { "fid": 95, "CLASS": 30, "PAGE": 120, "NOTE": "番子l田驛", "ROMAJI": null, "START": null, "END": null, "Comments": null }, "geometry": { "type": "Point", "coordinates": [ 180307.407991818938171, 2565784.325999167747796 ] } },
{ "type": "Feature", "properties": { "fid": 96, "CLASS": 30, "PAGE": 123, "NOTE": "善化驛", "ROMAJI": null, "START": null, "END": null, "Comments": null }, "geometry": { "type": "Point", "coordinates": [ 178982.31164282336249, 2559193.461092688143253 ] } },
{ "type": "Feature", "properties": { "fid": 97, "CLASS": 30, "PAGE": 125, "NOTE": "永康驛", "ROMAJI": null, "START": null, "END": null, "Comments": null }, "geometry": { "type": "Point", "coordinates": [ 173505.010952870303299, 2548735.084330063313246 ] } },
{ "type": "Feature", "properties": { "fid": 98, "CLASS": 30, "PAGE": 126, "NOTE": "新市驛", "ROMAJI": null, "START": null, "END": null, "Comments": null }, "geometry": { "type": "Point", "coordinates": [ 177225.699442194221774, 2551988.089415868278593 ] } },
{ "type": "Feature", "properties": { "fid": 99, "CLASS": 30, "PAGE": 127, "NOTE": "車路墘驛", "ROMAJI": null, "START": null, "END": null, "Comments": null }, "geometry": { "type": "Point", "coordinates": [ 171198.838715631718514, 2537064.877944715786725 ] } },
{ "type": "Feature", "properties": { "fid": 100, "CLASS": 30, "PAGE": 127, "NOTE": "台南驛", "ROMAJI": null, "START": null, "END": null, "Comments": null }, "geometry": { "type": "Point", "coordinates": [ 169295.600244846282294, 2544153.209536525420845 ] } },
{ "type": "Feature", "properties": { "fid": 101, "CLASS": 30, "PAGE": 129, "NOTE": "大湖驛", "ROMAJI": null, "START": null, "END": null, "Comments": null }, "geometry": { "type": "Point", "coordinates": [ 173412.972106444794917, 2531032.204780802130699 ] } },
{ "type": "Feature", "properties": { "fid": 102, "CLASS": 30, "PAGE": 129, "NOTE": "中洲繹", "ROMAJI": null, "START": null, "END": null, "Comments": null }, "geometry": { "type": "Point", "coordinates": [ 173327.71994791412726, 2533827.655872335657477 ] } },
{ "type": "Feature", "properties": { "fid": 103, "CLASS": 30, "PAGE": 130, "NOTE": "路竹驛", "ROMAJI": null, "START": null, "END": null, "Comments": null }, "geometry": { "type": "Point", "coordinates": [ 174731.883273826126242, 2528276.534468167461455 ] } },
{ "type": "Feature", "properties": { "fid": 104, "CLASS": 30, "PAGE": 134, "NOTE": "橋子頭驛", "ROMAJI": null, "START": null, "END": null, "Comments": null }, "geometry": { "type": "Point", "coordinates": [ 179213.082372426200891, 2517923.392811900936067 ] } },
{ "type": "Feature", "properties": { "fid": 105, "CLASS": 30, "PAGE": 134, "NOTE": "岡山驛", "ROMAJI": null, "START": null, "END": null, "Comments": null }, "geometry": { "type": "Point", "coordinates": [ 177806.577369720092975, 2521645.713551757857203 ] } },
{ "type": "Feature", "properties": { "fid": 106, "CLASS": 30, "PAGE": 138, "NOTE": "楠梓驛", "ROMAJI": null, "START": null, "END": null, "Comments": null }, "geometry": { "type": "Point", "coordinates": [ 180556.488958882080624, 2514203.453863373957574 ] } },
{ "type": "Feature", "properties": { "fid": 107, "CLASS": 30, "PAGE": 138, "NOTE": "舊城停車場", "ROMAJI": null, "START": null, "END": null, "Comments": null }, "geometry": { "type": "Point", "coordinates": [ 177550.97614491530112, 2508505.106584532186389 ] } },
{ "type": "Feature", "properties": { "fid": 108, "CLASS": 30, "PAGE": 139, "NOTE": "屏東驛", "ROMAJI": null, "START": null, "END": null, "Comments": null }, "geometry": { "type": "Point", "coordinates": [ 197183.697034060198348, 2507766.337962903082371 ] } },
{ "type": "Feature", "properties": { "fid": 109, "CLASS": 30, "PAGE": 139, "NOTE": "六塊厝繹", "ROMAJI": null, "START": null, "END": null, "Comments": null }, "geometry": { "type": "Point", "coordinates": [ 195010.031559592462145, 2507361.70951331499964 ] } },
{ "type": "Feature", "properties": { "fid": 110, "CLASS": 30, "PAGE": 142, "NOTE": "高雄驛", "ROMAJI": null, "START": null, "END": null, "Comments": null }, "geometry": { "type": "Point", "coordinates": [ 178312.504893585515674, 2504530.05103951646015 ] } },
{ "type": "Feature", "properties": { "fid": 111, "CLASS": 30, "PAGE": 142, "NOTE": "鳳山驛", "ROMAJI": null, "START": null, "END": null, "Comments": null }, "geometry": { "type": "Point", "coordinates": [ 183940.338220184319653, 2503604.278072291985154 ] } },
{ "type": "Feature", "properties": { "fid": 112, "CLASS": 30, "PAGE": 143, "NOTE": "後庄驛", "ROMAJI": null, "START": null, "END": null, "Comments": null }, "geometry": { "type": "Point", "coordinates": [ 187422.600515563855879, 2504628.812972225714475 ] } },
{ "type": "Feature", "properties": { "fid": 113, "CLASS": 30, "PAGE": 143, "NOTE": "九曲堂驛", "ROMAJI": null, "START": null, "END": null, "Comments": null }, "geometry": { "type": "Point", "coordinates": [ 190543.935116429493064, 2506362.986241865903139 ] } },
{ "type": "Feature", "properties": { "fid": 114, "CLASS": 30, "PAGE": 144, "NOTE": "竹田驛", "ROMAJI": null, "START": null, "END": null, "Comments": null }, "geometry": { "type": "Point", "coordinates": [ 202691.249144095781958, 2498505.249886099714786 ] } },
{ "type": "Feature", "properties": { "fid": 115, "CLASS": 30, "PAGE": 147, "NOTE": "潮州驛", "ROMAJI": null, "START": null, "END": null, "Comments": null }, "geometry": { "type": "Point", "coordinates": [ 202304.202453113975935, 2494512.419282917864621 ] } },
{ "type": "Feature", "properties": { "fid": 116, "CLASS": 30, "PAGE": 149, "NOTE": "溪州停車場", "ROMAJI": null, "START": null, "END": null, "Comments": null }, "geometry": { "type": "Point", "coordinates": [ 199781.839409754582448, 2488088.167334748897702 ] } },
{ "type": "Feature", "properties": { "fid": 117, "CLASS": 30, "PAGE": 149, "NOTE": "社邊驛", "ROMAJI": null, "START": null, "END": null, "Comments": null }, "geometry": { "type": "Point", "coordinates": [ 199711.79430405551102, 2484406.817344832234085 ] } },
{ "type": "Feature", "properties": { "fid": 118, "CLASS": 30, "PAGE": 149, "NOTE": "林邊驛", "ROMAJI": null, "START": null, "END": null, "Comments": null }, "geometry": { "type": "Point", "coordinates": [ 200087.58745165928849, 2481433.816642644815147 ] } },
{ "type": "Feature", "properties": { "fid": 119, "CLASS": 30, "PAGE": 151, "NOTE": "佳冬驛", "ROMAJI": null, "START": null, "END": null, "Comments": null }, "geometry": { "type": "Point", "coordinates": [ 203439.646217900590273, 2479446.540465326048434 ] } },
{ "type": "Feature", "properties": { "fid": 120, "CLASS": 30, "PAGE": 151, "NOTE": "枋寮驛", "ROMAJI": null, "START": null, "END": null, "Comments": null }, "geometry": { "type": "Point", "coordinates": [ 208323.390832585719181, 2474344.323555503971875 ] } },
{ "type": "Feature", "properties": { "fid": 121, "CLASS": 30, "PAGE": 144, "NOTE": "西勢驛", "ROMAJI": null, "START": null, "END": null, "Comments": null }, "geometry": { "type": "Point", "coordinates": [ 201334.143020892777713, 2501874.962518759537488 ] } },
{ "type": "Feature", "properties": { "fid": 122, "CLASS": 30, "PAGE": 89, "NOTE": "二水驛", "ROMAJI": null, "START": null, "END": null, "Comments": null }, "geometry": { "type": "Point", "coordinates": [ 211109.498778432724066, 2634351.968080237042159 ] } },
{ "type": "Feature", "properties": { "fid": 123, "CLASS": 30, "PAGE": 72, "NOTE": "花壇驛", "ROMAJI": null, "START": null, "END": null, "Comments": null }, "geometry": { "type": "Point", "coordinates": [ 202908.153736006934196, 2657801.059703602455556 ] } },
{ "type": "Feature", "properties": { "fid": 124, "CLASS": 30, "PAGE": 40, "NOTE": "宜蘭驛", "ROMAJI": null, "START": null, "END": null, "Comments": null }, "geometry": { "type": "Point", "coordinates": [ 326711.596648209029809, 2738811.353982978966087 ] } },
{ "type": "Feature", "properties": { "fid": 125, "CLASS": 30, "PAGE": 19, "NOTE": "水返腳驛", "ROMAJI": null, "START": null, "END": null, "Comments": null }, "geometry": { "type": "Point", "coordinates": [ 316854.104206262563821, 2773630.926257543731481 ] } },
{ "type": "Feature", "properties": { "fid": 126, "CLASS": 30, "PAGE": null, "NOTE": null, "ROMAJI": "Sekijōshi", "START": null, "END": null, "Comments": null }, "geometry": { "type": "Point", "coordinates": [ 346446.575224997533951, 2764317.544855734333396 ] } },
{ "type": "Feature", "properties": { "fid": 127, "CLASS": 30, "PAGE": null, "NOTE": null, "ROMAJI": "Ōtei", "START": null, "END": null, "Comments": null }, "geometry": { "type": "Point", "coordinates": [ 345364.4985821506707, 2767794.40380159439519 ] } },
{ "type": "Feature", "properties": { "fid": 128, "CLASS": 40, "PAGE": null, "NOTE": null, "ROMAJI": "Kōryosho", "START": null, "END": null, "Comments": null }, "geometry": { "type": "Point", "coordinates": [ 341542.051535677281208, 2768524.865784566383809 ] } },
{ "type": "Feature", "properties": { "fid": 129, "CLASS": 30, "PAGE": null, "NOTE": null, "ROMAJI": "Chō-sōkei", "START": null, "END": null, "Comments": null }, "geometry": { "type": "Point", "coordinates": [ 337450.215226754778996, 2770386.949166187550873 ] } },
{ "type": "Feature", "properties": { "fid": 130, "CLASS": 30, "PAGE": null, "NOTE": null, "ROMAJI": "Butankō", "START": null, "END": null, "Comments": null }, "geometry": { "type": "Point", "coordinates": [ 335814.987540949950926, 2772435.290173465386033 ] } },
{ "type": "Feature", "properties": { "fid": 131, "CLASS": 30, "PAGE": null, "NOTE": null, "ROMAJI": "Sanshōrei", "START": null, "END": null, "Comments": null }, "geometry": { "type": "Point", "coordinates": [ 332765.016443089698441, 2773263.094160937704146 ] } },
{ "type": "Feature", "properties": { "fid": 132, "CLASS": 30, "PAGE": null, "NOTE": null, "ROMAJI": "Ryūtanto", "START": null, "END": null, "Comments": null }, "geometry": { "type": "Point", "coordinates": [ 331847.774236705328804, 2777986.26274384977296 ] } },
{ "type": "Feature", "properties": { "fid": 133, "CLASS": 30, "PAGE": null, "NOTE": null, "ROMAJI": "Taikōho", "START": null, "END": null, "Comments": null }, "geometry": { "type": "Point", "coordinates": [ 326879.194179740559775, 2777375.726982987020165 ] } },
{ "type": "Feature", "properties": { "fid": 134, "CLASS": null, "PAGE": null, "NOTE": "菁桐坑", "ROMAJI": "Seidōkō", "START": null, "END": null, "Comments": null }, "geometry": { "type": "Point", "coordinates": [ 322987.182276901206933, 2768645.34038715204224 ] } },
{ "type": "Feature", "properties": { "fid": 135, "CLASS": null, "PAGE": null, "NOTE": "石底", "ROMAJI": "Sekitei", "START": null, "END": null, "Comments": null }, "geometry": { "type": "Point", "coordinates": [ 324556.065291158098262, 2768889.124817979056388 ] } },
{ "type": "Feature", "properties": { "fid": 136, "CLASS": null, "PAGE": null, "NOTE": "嶺腳寮", "ROMAJI": "Reikyakuryō", "START": null, "END": null, "Comments": null }, "geometry": { "type": "Point", "coordinates": [ 325470.481713304820005, 2769311.020953326486051 ] } },
{ "type": "Feature", "properties": { "fid": 137, "CLASS": null, "PAGE": null, "NOTE": "十分寮", "ROMAJI": "Jippunryō", "START": null, "END": null, "Comments": null }, "geometry": { "type": "Point", "coordinates": [ 328151.787076993612573, 2770692.533972813747823 ] } },
{ "type": "Feature", "properties": { "fid": 138, "CLASS": null, "PAGE": null, "NOTE": "鼻仔頭", "ROMAJI": "Bishitō", "START": null, "END": null, "Comments": null }, "geometry": { "type": "Point", "coordinates": [ 213560.794497408554889, 2632765.043931688647717 ] } },
{ "type": "Feature", "properties": { "fid": 139, "CLASS": null, "PAGE": null, "NOTE": "濁水", "ROMAJI": "Dakusui", "START": null, "END": null, "Comments": null }, "geometry": { "type": "Point", "coordinates": [ 219906.089435364323435, 2636697.007966367993504 ] } },
{ "type": "Feature", "properties": { "fid": 140, "CLASS": null, "PAGE": null, "NOTE": "名間", "ROMAJI": "Nama", "START": null, "END": null, "Comments": null }, "geometry": { "type": "Point", "coordinates": [ 219601.68859584123129, 2637119.572759065777063 ] } },
{ "type": "Feature", "properties": { "fid": 141, "CLASS": null, "PAGE": null, "NOTE": "新街", "ROMAJI": "Shingai", "START": null, "END": null, "Comments": null }, "geometry": { "type": "Point", "coordinates": [ 218535.159449536993634, 2641640.011910617817193 ] } },
{ "type": "Feature", "properties": { "fid": 142, "CLASS": null, "PAGE": null, "NOTE": "隘寮", "ROMAJI": "Airyō", "START": null, "END": null, "Comments": null }, "geometry": { "type": "Point", "coordinates": [ 224565.723182662244653, 2636780.146606982219964 ] } },
{ "type": "Feature", "properties": { "fid": 143, "CLASS": null, "PAGE": null, "NOTE": "集集", "ROMAJI": "Shūshū", "START": null, "END": null, "Comments": null }, "geometry": { "type": "Point", "coordinates": [ 228086.344486330752261, 2635797.781704056542367 ] } },
{ "type": "Feature", "properties": { "fid": 144, "CLASS": null, "PAGE": null, "NOTE": "水裡坑", "ROMAJI": "Suirikō", "START": null, "END": null, "Comments": null }, "geometry": { "type": "Point", "coordinates": [ 235035.891315787623171, 2634969.499564161524177 ] } },
{ "type": "Feature", "properties": { "fid": 145, "CLASS": null, "PAGE": null, "NOTE": "外車埕", "ROMAJI": "Gaishatei", "START": null, "END": null, "Comments": null }, "geometry": { "type": "Point", "coordinates": [ 236658.445147049496882, 2638600.637691490352154 ] } },
{ "type": "Feature", "properties": { "fid": 146, "CLASS": null, "PAGE": null, "NOTE": "會社前", "ROMAJI": "Kaisha-mae", "START": null, "END": null, "Comments": null }, "geometry": { "type": "Point", "coordinates": [ 218352.847371756186476, 2644481.711291745770723 ] } },
{ "type": "Feature", "properties": { "fid": 147, "CLASS": null, "PAGE": null, "NOTE": "南投", "ROMAJI": "Nantō", "START": null, "END": null, "Comments": null }, "geometry": { "type": "Point", "coordinates": [ 218434.554097703628941, 2645068.119916842784733 ] } },
{ "type": "Feature", "properties": { "fid": 148, "CLASS": null, "PAGE": null, "NOTE": "半山", "ROMAJI": "Hanzan", "START": null, "END": null, "Comments": null }, "geometry": { "type": "Point", "coordinates": [ 217363.203038242150797, 2647120.552723141387105 ] } },
{ "type": "Feature", "properties": { "fid": 149, "CLASS": null, "PAGE": null, "NOTE": "林庄", "ROMAJI": "Rinshō", "START": null, "END": null, "Comments": null }, "geometry": { "type": "Point", "coordinates": [ 216797.439353360328823, 2647903.968964559491724 ] } },
{ "type": "Feature", "properties": { "fid": 150, "CLASS": null, "PAGE": null, "NOTE": "營盤口", "ROMAJI": "Eibankō", "START": null, "END": null, "Comments": null }, "geometry": { "type": "Point", "coordinates": [ 216563.939694696658989, 2649183.177069960627705 ] } },
{ "type": "Feature", "properties": { "fid": 151, "CLASS": null, "PAGE": null, "NOTE": "林子頭", "ROMAJI": "Rinshitō", "START": null, "END": null, "Comments": null }, "geometry": { "type": "Point", "coordinates": [ 217528.403009254136123, 2651154.281819383148104 ] } },
{ "type": "Feature", "properties": { "fid": 152, "CLASS": null, "PAGE": null, "NOTE": "草屯", "ROMAJI": "Sōton", "START": null, "END": null, "Comments": null }, "geometry": { "type": "Point", "coordinates": [ 217662.022432681696955, 2652717.445316738449037 ] } },
{ "type": "Feature", "properties": { "fid": 153, "CLASS": null, "PAGE": null, "NOTE": "新豐", "ROMAJI": "Shinpō", "START": null, "END": null, "Comments": null }, "geometry": { "type": "Point", "coordinates": [ 218220.324164065998048, 2654340.487086978275329 ] } },
{ "type": "Feature", "properties": { "fid": 154, "CLASS": null, "PAGE": null, "NOTE": "萬斗六", "ROMAJI": "Mantōroku", "START": null, "END": null, "Comments": null }, "geometry": { "type": "Point", "coordinates": [ 218987.896706983097829, 2657453.878104547969997 ] } },
{ "type": "Feature", "properties": { "fid": 155, "CLASS": null, "PAGE": null, "NOTE": "六股", "ROMAJI": "Rokkō", "START": null, "END": null, "Comments": null }, "geometry": { "type": "Point", "coordinates": [ 218575.694496847892879, 2659600.719704403076321 ] } },
{ "type": "Feature", "properties": { "fid": 156, "CLASS": null, "PAGE": null, "NOTE": "霧峰", "ROMAJI": "Muhō", "START": null, "END": null, "Comments": null }, "geometry": { "type": "Point", "coordinates": [ 219309.296443663130049, 2662326.296438659075648 ] } },
{ "type": "Feature", "properties": { "fid": 157, "CLASS": null, "PAGE": null, "NOTE": "北溝", "ROMAJI": "Hokukō", "START": null, "END": null, "Comments": null }, "geometry": { "type": "Point", "coordinates": [ 220338.006992371607339, 2663672.112939853686839 ] } },
{ "type": "Feature", "properties": { "fid": 158, "CLASS": null, "PAGE": null, "NOTE": "塗城", "ROMAJI": "Tojō", "START": null, "END": null, "Comments": null }, "geometry": { "type": "Point", "coordinates": [ 220439.72072890761774, 2664881.122215828392655 ] } },
{ "type": "Feature", "properties": { "fid": 159, "CLASS": null, "PAGE": null, "NOTE": "車籠埔", "ROMAJI": "Sharampo", "START": null, "END": null, "Comments": null }, "geometry": { "type": "Point", "coordinates": [ 221964.711771912465338, 2666864.254878673702478 ] } },
{ "type": "Feature", "properties": { "fid": 160, "CLASS": null, "PAGE": null, "NOTE": "太平", "ROMAJI": "Taihei", "START": null, "END": null, "Comments": null }, "geometry": { "type": "Point", "coordinates": [ 220938.953256739041535, 2668780.485389794688672 ] } },
{ "type": "Feature", "properties": { "fid": 161, "CLASS": null, "PAGE": null, "NOTE": "番子寮", "ROMAJI": "Banshiryō", "START": null, "END": null, "Comments": null }, "geometry": { "type": "Point", "coordinates": [ 221149.031501179677434, 2665537.074012978933752 ] } },
{ "type": "Feature", "properties": { "fid": 162, "CLASS": null, "PAGE": null, "NOTE": "花蓮港", "ROMAJI": "Karenkō", "START": null, "END": null, "Comments": null }, "geometry": { "type": "Point", "coordinates": [ 312385.24074878252577, 2652041.509947112295777 ] } },
{ "type": "Feature", "properties": { "fid": 163, "CLASS": null, "PAGE": null, "NOTE": "海岸", "ROMAJI": "Kaigan", "START": null, "END": 1941, "Comments": null }, "geometry": { "type": "Point", "coordinates": [ 311967.866149190289434, 2651242.10786668676883 ] } },
{ "type": "Feature", "properties": { "fid": 164, "CLASS": null, "PAGE": null, "NOTE": "東花蓮港", "ROMAJI": "Higashi-Karenkō", "START": 1939, "END": null, "Comments": null }, "geometry": { "type": "Point", "coordinates": [ 314671.35786326410016, 2654967.129920842126012 ] } },
{ "type": "Feature", "properties": { "fid": 165, "CLASS": null, "PAGE": null, "NOTE": "臺東", "ROMAJI": "Taitō", "START": null, "END": null, "Comments": null }, "geometry": { "type": "Point", "coordinates": [ 265139.106928176945075, 2516783.078757856972516 ] } },
{ "type": "Feature", "properties": { "fid": 166, "CLASS": null, "PAGE": null, "NOTE": "馬蘭", "ROMAJI": "Baran", "START": null, "END": null, "Comments": null }, "geometry": { "type": "Point", "coordinates": [ 263238.669210398104042, 2518335.003530896734446 ] } },
{ "type": "Feature", "properties": { "fid": 167, "CLASS": null, "PAGE": null, "NOTE": "日奈敷", "ROMAJI": "Hinanki", "START": null, "END": null, "Comments": null }, "geometry": { "type": "Point", "coordinates": [ 259523.764955414837459, 2523121.942517274059355 ] } },
{ "type": "Feature", "properties": { "fid": 168, "CLASS": null, "PAGE": null, "NOTE": "初鹿尾", "ROMAJI": "Hashikō", "START": null, "END": null, "Comments": null }, "geometry": { "type": "Point", "coordinates": [ 259515.447591620439198, 2528770.856032927520573 ] } },
{ "type": "Feature", "properties": { "fid": 169, "CLASS": null, "PAGE": null, "NOTE": "稻葉", "ROMAJI": "Inaba", "START": null, "END": null, "Comments": null }, "geometry": { "type": "Point", "coordinates": [ 263136.959065916133113, 2531093.854819506872445 ] } },
{ "type": "Feature", "properties": { "fid": 170, "CLASS": null, "PAGE": null, "NOTE": "鹿野", "ROMAJI": "Shikano", "START": null, "END": null, "Comments": null }, "geometry": { "type": "Point", "coordinates": [ 264034.727940603275783, 2534546.81078775273636 ] } },
{ "type": "Feature", "properties": { "fid": 171, "CLASS": null, "PAGE": null, "NOTE": "大原", "ROMAJI": "Ōhara", "START": null, "END": null, "Comments": null }, "geometry": { "type": "Point", "coordinates": [ 266307.653890657587908, 2539369.78395413979888 ] } },
{ "type": "Feature", "properties": { "fid": 172, "CLASS": null, "PAGE": null, "NOTE": "大埔", "ROMAJI": "Taiho", "START": null, "END": null, "Comments": null }, "geometry": { "type": "Point", "coordinates": [ 265761.364817565132398, 2542368.640562932472676 ] } },
{ "type": "Feature", "properties": { "fid": 173, "CLASS": null, "PAGE": null, "NOTE": "月野", "ROMAJI": "Tsukino", "START": null, "END": null, "Comments": null }, "geometry": { "type": "Point", "coordinates": [ 265458.047098768875003, 2545496.395259477198124 ] } },
{ "type": "Feature", "properties": { "fid": 174, "CLASS": null, "PAGE": null, "NOTE": "里壠", "ROMAJI": "Riran", "START": null, "END": null, "Comments": null }, "geometry": { "type": "Point", "coordinates": [ 266853.791353582812008, 2549449.160254890564829 ] } },
{ "type": "Feature", "properties": { "fid": 175, "CLASS": null, "PAGE": null, "NOTE": "新武呂", "ROMAJI": "Shimburo", "START": null, "END": null, "Comments": null }, "geometry": { "type": "Point", "coordinates": [ 268117.549610552436206, 2555650.248094245791435 ] } },
{ "type": "Feature", "properties": { "fid": 176, "CLASS": null, "PAGE": null, "NOTE": "池上", "ROMAJI": "Ikegami", "START": null, "END": null, "Comments": null }, "geometry": { "type": "Point", "coordinates": [ 272477.893668951001018, 2558274.943420681171119 ] } },
{ "type": "Feature", "properties": { "fid": 177, "CLASS": null, "PAGE": null, "NOTE": "公埔", "ROMAJI": "Kōho", "START": null, "END": null, "Comments": null }, "geometry": { "type": "Point", "coordinates": [ 275619.583511193050072, 2564483.163928324356675 ] } },
{ "type": "Feature", "properties": { "fid": 178, "CLASS": null, "PAGE": null, "NOTE": "頭人埔", "ROMAJI": "Tōjinpo", "START": null, "END": null, "Comments": null }, "geometry": { "type": "Point", "coordinates": [ 278454.747957970597781, 2569314.345628161448985 ] } },
{ "type": "Feature", "properties": { "fid": 179, "CLASS": null, "PAGE": null, "NOTE": "大庄", "ROMAJI": "Taishō", "START": null, "END": null, "Comments": null }, "geometry": { "type": "Point", "coordinates": [ 281406.890209509816486, 2574295.672582709696144 ] } },
{ "type": "Feature", "properties": { "fid": 180, "CLASS": null, "PAGE": null, "NOTE": "安通", "ROMAJI": "Antsū", "START": null, "END": null, "Comments": null }, "geometry": { "type": "Point", "coordinates": [ 284126.866632235818543, 2577980.433444405905902 ] } },
{ "type": "Feature", "properties": { "fid": 181, "CLASS": null, "PAGE": null, "NOTE": "玉里", "ROMAJI": "Tamazato", "START": null, "END": null, "Comments": null }, "geometry": { "type": "Point", "coordinates": [ 281839.065219915704802, 2581108.717017524410039 ] } },
{ "type": "Feature", "properties": { "fid": 182, "CLASS": null, "PAGE": null, "NOTE": "末廣", "ROMAJI": "Suehiro", "START": null, "END": null, "Comments": null }, "geometry": { "type": "Point", "coordinates": [ 283366.346765269234311, 2586473.331266656052321 ] } },
{ "type": "Feature", "properties": { "fid": 183, "CLASS": null, "PAGE": null, "NOTE": "三笠", "ROMAJI": "Mikasa", "START": null, "END": null, "Comments": null }, "geometry": { "type": "Point", "coordinates": [ 285244.881481926713604, 2591396.501471624709666 ] } },
{ "type": "Feature", "properties": { "fid": 184, "CLASS": null, "PAGE": null, "NOTE": "瑞穗", "ROMAJI": "Mizuho", "START": null, "END": null, "Comments": null }, "geometry": { "type": "Point", "coordinates": [ 288481.21704209165182, 2599323.139393084216863 ] } },
{ "type": "Feature", "properties": { "fid": 185, "CLASS": null, "PAGE": null, "NOTE": "拔子", "ROMAJI": "Basshi", "START": null, "END": null, "Comments": null }, "geometry": { "type": "Point", "coordinates": [ 288803.073071278748102, 2608590.675095221493393 ] } },
{ "type": "Feature", "properties": { "fid": 186, "CLASS": null, "PAGE": null, "NOTE": "大和", "ROMAJI": "Yamato", "START": null, "END": null, "Comments": null }, "geometry": { "type": "Point", "coordinates": [ 289758.168778206221759, 2611387.162911613006145 ] } },
{ "type": "Feature", "properties": { "fid": 187, "CLASS": null, "PAGE": null, "NOTE": "馬太鞍", "ROMAJI": "Mataan", "START": null, "END": null, "Comments": null }, "geometry": { "type": "Point", "coordinates": [ 292929.443884716136381, 2618095.442477690987289 ] } },
{ "type": "Feature", "properties": { "fid": 188, "CLASS": null, "PAGE": null, "NOTE": "萬里橋", "ROMAJI": "Maribashi", "START": null, "END": null, "Comments": null }, "geometry": { "type": "Point", "coordinates": [ 292701.307776372821536, 2623157.870445631444454 ] } },
{ "type": "Feature", "properties": { "fid": 189, "CLASS": null, "PAGE": null, "NOTE": "鳳林", "ROMAJI": "Hōrin", "START": null, "END": null, "Comments": null }, "geometry": { "type": "Point", "coordinates": [ 295508.301016588462517, 2626963.749733193777502 ] } },
{ "type": "Feature", "properties": { "fid": 190, "CLASS": null, "PAGE": null, "NOTE": "林田", "ROMAJI": "Hayashida", "START": null, "END": null, "Comments": null }, "geometry": { "type": "Point", "coordinates": [ 296660.468749737134203, 2631001.484641965012997 ] } },
{ "type": "Feature", "properties": { "fid": 191, "CLASS": null, "PAGE": null, "NOTE": "平林", "ROMAJI": "Hirabayashi", "START": null, "END": null, "Comments": null }, "geometry": { "type": "Point", "coordinates": [ 296009.248262552893721, 2633278.864843578543514 ] } },
{ "type": "Feature", "properties": { "fid": 192, "CLASS": null, "PAGE": null, "NOTE": "溪口", "ROMAJI": "Keikō", "START": null, "END": null, "Comments": null }, "geometry": { "type": "Point", "coordinates": [ 298191.135814007604495, 2634901.670222088228911 ] } },
{ "type": "Feature", "properties": { "fid": 193, "CLASS": null, "PAGE": null, "NOTE": "豐田", "ROMAJI": "Toyoda", "START": null, "END": null, "Comments": null }, "geometry": { "type": "Point", "coordinates": [ 300555.508711362606846, 2638341.846141769085079 ] } },
{ "type": "Feature", "properties": { "fid": 194, "CLASS": null, "PAGE": null, "NOTE": "壽", "ROMAJI": "Kotobuki", "START": null, "END": null, "Comments": null }, "geometry": { "type": "Point", "coordinates": [ 302047.705960644059815, 2640585.488418986089528 ] } },
{ "type": "Feature", "properties": { "fid": 195, "CLASS": null, "PAGE": null, "NOTE": "賀田", "ROMAJI": "Kada", "START": null, "END": null, "Comments": null }, "geometry": { "type": "Point", "coordinates": [ 303891.267797216074541, 2644899.161760098766536 ] } },
{ "type": "Feature", "properties": { "fid": 196, "CLASS": null, "PAGE": null, "NOTE": "池南", "ROMAJI": "Chinan", "START": null, "END": null, "Comments": "Not on 1944 map but on 1936 schedule, placed where settlement is today" }, "geometry": { "type": "Point", "coordinates": [ 303026.50931509322254, 2642070.994551485870034 ] } },
{ "type": "Feature", "properties": { "fid": 197, "CLASS": null, "PAGE": null, "NOTE": "初音", "ROMAJI": "Hatsune", "START": null, "END": null, "Comments": null }, "geometry": { "type": "Point", "coordinates": [ 305508.603591202467214, 2648718.256142340134829 ] } },
{ "type": "Feature", "properties": { "fid": 198, "CLASS": null, "PAGE": null, "NOTE": "吉野", "ROMAJI": "Yoshino", "START": null, "END": null, "Comments": null }, "geometry": { "type": "Point", "coordinates": [ 308338.90402138850186, 2650833.529641744215041 ] } },
{ "type": "Feature", "properties": { "fid": 199, "CLASS": null, "PAGE": null, "NOTE": "荳蘭", "ROMAJI": "Tōran", "START": null, "END": null, "Comments": null }, "geometry": { "type": "Point", "coordinates": [ 310252.781179679150227, 2652261.660531092900783 ] } }
]
}
