{"type": "FeatureCollection", "features": [{"type": "Feature", "properties": {"fid": 1}, "geometry": {"type": "Polygon", "coordinates": [[[89.94041186269601, 50.560056540694], [89.61897937514154, 50.66359960840274], [89.37575949994938, 50.816738048338536], [89.16857219885976, 50.94285205769743], [89.03345004597524, 51.09599049763323], [89.02444190244961, 51.35722665987666], [89.01543375892396, 51.52838138686373], [88.96138489777016, 51.62747096564571], [89.13253962475723, 51.67251168327389], [89.37575949994938, 51.59143839154317], [89.57393865751335, 51.555405817440636], [89.72707709744915, 51.64548725269699], [89.90723996796186, 51.726560544427706], [90.15946798667966, 51.81664197968406], [90.24954942193601, 51.960772276094225], [90.25855756546164, 52.249032868914554], [90.35764714424363, 52.393163165324715], [90.5558263018076, 52.393163165324715], [90.69094845469213, 52.41117945237599], [90.81706246405103, 52.366138734747814], [90.99722533456374, 52.29407358654273], [91.15036377449954, 52.23101658186328], [91.34854293206351, 52.104902572504386], [91.40259179321733, 51.960772276094225], [91.48366508494804, 51.8526745537866], [91.6007709507813, 51.834658266735325], [91.78093382129401, 51.8526745537866], [92.2313409975758, 51.906723414940416], [92.6186911691781, 52.032837424299316], [92.91595990552408, 52.17696772070948], [93.1771960677675, 52.18597586423511], [93.44744037353657, 52.18597586423511], [93.609586956998, 52.30308173006837], [93.68165210520307, 52.411179452376], [93.88883940629269, 52.609358609939974], [94.16809185558738, 52.78952148045268], [94.35726286962573, 52.96968435096539], [94.56445017071533, 53.104806503849915], [94.97882477289455, 53.3570345225677], [95.4472482362276, 53.60926254128549], [95.69947625494538, 53.72636840711875], [96.03277756539389, 53.8164498423751], [96.33905444526549, 53.807441698849466], [96.65433946866273, 53.771409124746924], [97.02367335321377, 53.654303258913664], [97.17681179314957, 53.483148531926595], [97.35697466366227, 53.34802637904207], [97.59118639532879, 53.30298566141389], [97.87944698814913, 53.248936800260076], [98.0776261457131, 53.18587979558063], [98.33886230795652, 53.077782073273006], [98.52803332199487, 53.00571692506792], [98.76224505366139, 52.88861105923466], [98.79827762776392, 52.753488906350135], [98.78026134071266, 52.57332603583743], [98.76224505366139, 52.36613873474782], [98.87935091949464, 52.21300029481202], [99.0955463641099, 52.14994329013257], [99.37479881340458, 52.077878141927485], [99.55496168391728, 52.00581299372241], [99.77102352386368, 51.9189842548209], [99.54131586396, 51.855927250141455], [99.37016113697294, 51.61721144671213], [99.30710413229349, 51.27940606450083], [99.13144533354362, 50.90556810818699], [98.96029060655655, 50.6218115871295], [98.74859923370414, 50.36057542488609], [98.42430606678128, 50.00475375562352], [98.1675739763007, 49.86512753097618], [97.91534595758291, 49.8426071721621], [97.6766301541536, 49.87863974626463], [97.37936141780766, 50.063306688540145], [97.02353974854508, 50.17590848261058], [97.00730045855649, 50.14117786675198], [96.65598286105673, 50.20873894319424], [96.40375484233896, 50.348365167841585], [96.16954311067245, 50.52852803835428], [95.98487616839694, 50.62311354537344], [95.67409521676254, 50.60059318655936], [95.35881019336533, 50.60960133008499], [94.99398038057711, 50.767243841783596], [94.50754063019282, 50.929390425245025], [94.10217417153925, 50.99244742992447], [93.69680771288569, 51.037488147552644], [93.24640053660396, 51.019471860501376], [92.81400964737348, 51.00145557345011], [92.53475719807881, 51.037488147552644], [92.3545943275661, 51.037488147552644], [91.74204056782295, 50.87984563585403], [91.40423518561165, 50.7942682723605], [91.16551938218234, 50.76273977002078], [90.98535651166964, 50.72220312415542], [90.74664070824032, 50.564560612456816], [90.62953484240707, 50.4564628901492], [90.24218467080478, 50.4564628901492], [89.94041186269601, 50.560056540694]]]}}, {"type": "Feature", "properties": {"fid": 2}, "geometry": {"type": "Polygon", "coordinates": [[[89.94041186269601, 50.560056540694], [89.61897937514154, 50.66359960840274], [89.37575949994938, 50.816738048338536], [89.16857219885976, 50.94285205769743], [89.03345004597524, 51.09599049763323], [89.02444190244961, 51.35722665987666], [89.01543375892396, 51.52838138686373], [88.96138489777016, 51.62747096564571], [89.13253962475723, 51.67251168327389], [89.37575949994938, 51.59143839154317], [89.57393865751335, 51.555405817440636], [89.72707709744915, 51.64548725269699], [89.90723996796186, 51.726560544427706], [90.15946798667966, 51.81664197968406], [90.24954942193601, 51.960772276094225], [90.25855756546164, 52.249032868914554], [90.35764714424363, 52.393163165324715], [90.5558263018076, 52.393163165324715], [90.69094845469213, 52.41117945237599], [90.81706246405103, 52.366138734747814], [90.99722533456374, 52.29407358654273], [91.15036377449954, 52.23101658186328], [91.34854293206351, 52.104902572504386], [91.40259179321733, 51.960772276094225], [91.48366508494804, 51.8526745537866], [91.6007709507813, 51.834658266735325], [91.78093382129401, 51.8526745537866], [92.2313409975758, 51.906723414940416], [92.6186911691781, 52.032837424299316], [92.91595990552408, 52.17696772070948], [93.1771960677675, 52.18597586423511], [93.44744037353657, 52.18597586423511], [93.609586956998, 52.30308173006837], [93.68165210520307, 52.411179452376], [93.88883940629269, 52.609358609939974], [94.16809185558738, 52.78952148045268], [94.35726286962573, 52.96968435096539], [94.56445017071533, 53.104806503849915], [94.97882477289455, 53.3570345225677], [95.4472482362276, 53.60926254128549], [95.69947625494538, 53.72636840711875], [96.03277756539389, 53.8164498423751], [96.33905444526549, 53.807441698849466], [96.65433946866273, 53.771409124746924], [97.02367335321377, 53.654303258913664], [97.17681179314957, 53.483148531926595], [97.35697466366227, 53.34802637904207], [97.59118639532879, 53.30298566141389], [97.87944698814913, 53.248936800260076], [98.0776261457131, 53.18587979558063], [98.33886230795652, 53.077782073273006], [98.52803332199487, 53.00571692506792], [98.76224505366139, 52.88861105923466], [98.79827762776392, 52.753488906350135], [98.78026134071266, 52.57332603583743], [98.76224505366139, 52.36613873474782], [98.87935091949464, 52.21300029481202], [99.0955463641099, 52.14994329013257], [99.37479881340458, 52.077878141927485], [99.55496168391728, 52.00581299372241], [99.77102352386368, 51.9189842548209], [99.54131586396, 51.855927250141455], [99.37016113697294, 51.61721144671213], [99.30710413229349, 51.27940606450083], [99.13144533354362, 50.90556810818699], [98.96029060655655, 50.6218115871295], [98.74859923370414, 50.36057542488609], [98.42430606678128, 50.00475375562352], [98.1675739763007, 49.86512753097618], [97.91534595758291, 49.8426071721621], [97.6766301541536, 49.87863974626463], [97.37936141780766, 50.063306688540145], [97.02353974854508, 50.17590848261058], [97.00730045855649, 50.14117786675198], [96.65598286105673, 50.20873894319424], [96.40375484233896, 50.348365167841585], [96.16954311067245, 50.52852803835428], [95.98487616839694, 50.62311354537344], [95.67409521676254, 50.60059318655936], [95.35881019336533, 50.60960133008499], [94.99398038057711, 50.767243841783596], [94.50754063019282, 50.929390425245025], [94.10217417153925, 50.99244742992447], [93.69680771288569, 51.037488147552644], [93.24640053660396, 51.019471860501376], [92.81400964737348, 51.00145557345011], [92.53475719807881, 51.037488147552644], [92.3545943275661, 51.037488147552644], [91.74204056782295, 50.87984563585403], [91.40423518561165, 50.7942682723605], [91.16551938218234, 50.76273977002078], [90.98535651166964, 50.72220312415542], [90.74664070824032, 50.564560612456816], [90.62953484240707, 50.4564628901492], [90.24218467080478, 50.4564628901492], [89.94041186269601, 50.560056540694]]]}}]}