{
"type": "FeatureCollection",
"name": "tannu-tuva-v3",
"crs": { "type": "name", "properties": { "name": "urn:ogc:def:crs:OGC:1.3:CRS84" } },
"features": [
{ "type": "Feature", "properties": { "fid": 1 }, "geometry": { "type": "Polygon", "coordinates": [ [ [ 88.961384897770159, 51.627470965645713 ], [ 89.132539624757229, 51.672511683273889 ], [ 89.375759499949382, 51.591438391543171 ], [ 89.573938657513352, 51.555405817440636 ], [ 89.727077097449154, 51.645487252696988 ], [ 89.907239967961857, 51.726560544427706 ], [ 90.159467986679658, 51.816641979684057 ], [ 90.24954942193601, 51.960772276094225 ], [ 90.258557565461643, 52.249032868914554 ], [ 90.357647144243629, 52.393163165324715 ], [ 90.555826301807599, 52.393163165324715 ], [ 90.690948454692133, 52.41117945237599 ], [ 90.817062464051034, 52.366138734747814 ], [ 90.997225334563737, 52.29407358654273 ], [ 91.150363774499539, 52.23101658186328 ], [ 91.348542932063509, 52.104902572504386 ], [ 91.402591793217326, 51.960772276094225 ], [ 91.483665084948043, 51.852674553786599 ], [ 91.600770950781296, 51.834658266735325 ], [ 91.780933821294013, 51.852674553786599 ], [ 92.231340997575799, 51.906723414940416 ], [ 92.618691169178106, 52.032837424299316 ], [ 92.915959905524076, 52.176967720709477 ], [ 93.177196067767497, 52.185975864235111 ], [ 93.408886493231094, 52.147200250897868 ], [ 93.604930273514285, 52.152359297747431 ], [ 93.770019772700138, 52.265858328437702 ], [ 93.919632131337309, 52.523810670915587 ], [ 93.806133100647045, 52.596037326809395 ], [ 93.82676928804527, 52.69405921695099 ], [ 94.168091855587377, 52.789521480452677 ], [ 94.208538754912539, 52.890102997234187 ], [ 94.342673973001041, 52.884943950384631 ], [ 94.579990128080709, 52.931375372030651 ], [ 94.60578536232849, 53.148055339712073 ], [ 94.714125346169197, 53.406007682189966 ], [ 95.028827203992222, 53.467916244384654 ], [ 95.5086185610011, 53.498870525482005 ], [ 95.843956606222349, 53.555620040827137 ], [ 96.251521307337413, 53.591733368774044 ], [ 96.643608867903808, 53.648482884119176 ], [ 96.654339468662727, 53.771409124746924 ], [ 97.023673353213766, 53.654303258913664 ], [ 97.176811793149568, 53.483148531926595 ], [ 97.290646044461411, 53.367062924233835 ], [ 97.551177910364075, 53.13490581600373 ], [ 97.785914542018944, 53.072997253809042 ], [ 97.837505010514533, 52.956918699693993 ], [ 98.214160773717438, 52.965191311927391 ], [ 98.528033321994869, 53.005716925067922 ], [ 98.84093962275351, 52.923384895171864 ], [ 98.962177223718115, 52.853737762702835 ], [ 98.895154957859063, 52.717557063148618 ], [ 98.807405818231388, 52.606103513924062 ], [ 98.843519146178295, 52.497763530083347 ], [ 98.745497256036685, 52.417798303915205 ], [ 98.762245053661388, 52.366138734747821 ], [ 98.879350919494641, 52.213000294812019 ], [ 99.011611371850819, 52.07497359500406 ], [ 99.305677042275619, 51.997587892260697 ], [ 99.554961683917284, 52.005812993722408 ], [ 99.771023523863676, 51.918984254820899 ], [ 99.541315863959994, 51.855927250141455 ], [ 99.370161136972939, 51.617211446712133 ], [ 99.307104132293489, 51.279406064500833 ], [ 99.131445333543624, 50.905568108186991 ], [ 98.960290606556555, 50.6218115871295 ], [ 98.748599233704141, 50.360575424886093 ], [ 98.424306066781284, 50.004753755623518 ], [ 98.167573976300702, 49.865127530976181 ], [ 97.915345957582915, 49.842607172162097 ], [ 97.6766301541536, 49.878639746264632 ], [ 97.379361417807658, 50.063306688540145 ], [ 97.023539748545076, 50.175908482610581 ], [ 97.007300458556486, 50.141177866751981 ], [ 96.655982861056728, 50.208738943194241 ], [ 96.403754842338955, 50.348365167841585 ], [ 96.16954311067245, 50.528528038354281 ], [ 95.984876168396937, 50.623113545373442 ], [ 95.674095216762538, 50.600593186559358 ], [ 95.358810193365329, 50.609601330084992 ], [ 94.993980380577113, 50.767243841783596 ], [ 94.507540630192821, 50.929390425245025 ], [ 94.102174171539247, 50.992447429924468 ], [ 93.696807712885686, 51.037488147552644 ], [ 93.246400536603957, 51.019471860501376 ], [ 92.814009647373481, 51.001455573450109 ], [ 92.534757198078808, 51.037488147552644 ], [ 92.354594327566105, 51.037488147552644 ], [ 91.742040567822954, 50.879845635854032 ], [ 91.404235185611654, 50.794268272360497 ], [ 91.165519382182339, 50.762739770020779 ], [ 90.985356511669636, 50.722203124155421 ], [ 90.746640708240321, 50.564560612456816 ], [ 90.629534842407068, 50.456462890149197 ], [ 90.242184670804775, 50.456462890149197 ], [ 89.94041186269601, 50.560056540693999 ], [ 89.618979375141535, 50.663599608402741 ], [ 89.375759499949382, 50.816738048338536 ], [ 89.168572198859763, 50.942852057697429 ], [ 89.033450045975243, 51.095990497633231 ], [ 89.02444190244961, 51.357226659876659 ], [ 89.015433758923962, 51.528381386863728 ], [ 88.961384897770159, 51.627470965645713 ] ] ] } },
{ "type": "Feature", "properties": { "fid": 2 }, "geometry": { "type": "Polygon", "coordinates": [ ] } }
]
}
