{"type":"FeatureCollection","crs":{"type":"name","properties":{"name":"urn:ogc:def:crs:OGC:1.3:CRS84"}},"features":[{"type":"Feature","properties":{"name":"North China and the Yangtze valley","date":"December 1942","note":"Traced from a period map of the occupation and adjusted to December 1942. Approximate, and generous: Japanese control ran along the railways and around the cities. Clip to the land to get what the map draws."},"geometry":{"type":"Polygon","coordinates":[[[113.3,40.5],[113.25,40.40625],[113.15,40.21875],[113.0,39.9375],[112.8,39.5625],[112.6125,39.25625],[112.4375,39.01875],[112.275,38.85],[112.125,38.75],[111.99375,38.64375],[111.88125,38.53125],[111.7875,38.4125],[111.7125,38.2875],[111.65625,38.1625],[111.61875,38.0375],[111.6,37.9125],[111.6,37.7875],[111.61875,37.6625],[111.65625,37.5375],[111.7125,37.4125],[111.7875,37.2875],[111.8375,37.16875],[111.8625,37.05625],[111.8625,36.95],[111.8375,36.85],[111.8,36.75],[111.75,36.65],[111.6875,36.55],[111.6125,36.45],[111.54375,36.35],[111.48125,36.25],[111.425,36.15],[111.375,36.05],[111.3125,35.95],[111.2375,35.85],[111.15,35.75],[111.05,35.65],[110.953125,35.546875],[110.859375,35.440625],[110.76875,35.33125],[110.68125,35.21875],[110.60125,35.11375],[110.52875,35.01625],[110.46375,34.92625],[110.40625,34.84375],[110.363125,34.773125],[110.334375,34.714375],[110.32,34.6675],[110.32,34.6325],[110.35625,34.61625],[110.42875,34.61875],[110.5375,34.64],[110.6825,34.68],[110.82875,34.715],[110.97625,34.745],[111.125,34.77],[111.275,34.79],[111.43125,34.80875],[111.59375,34.82625],[111.7625,34.8425],[111.9375,34.8575],[112.1125,34.87125],[112.2875,34.88375],[112.4625,34.895],[112.6375,34.905],[112.803125,34.9125],[112.959375,34.9175],[113.10625,34.92],[113.24375,34.92],[113.384375,34.896875],[113.528125,34.850625],[113.675,34.78125],[113.825,34.68875],[113.965625,34.588125],[114.096875,34.479375],[114.21875,34.3625],[114.33125,34.2375],[114.446875,34.115625],[114.565625,33.996875],[114.6875,33.88125],[114.8125,33.76875],[114.94375,33.659375],[115.08125,33.553125],[115.225,33.45],[115.375,33.35],[115.525,33.25625],[115.675,33.16875],[115.825,33.0875],[115.975,33.0125],[116.11875,32.9375],[116.25625,32.8625],[116.3875,32.7875],[116.5125,32.7125],[116.625,32.625],[116.725,32.525],[116.8125,32.4125],[116.8875,32.2875],[116.9375,32.16875],[116.9625,32.05625],[116.9625,31.95],[116.9375,31.85],[116.89375,31.75625],[116.83125,31.66875],[116.75,31.5875],[116.65,31.5125],[116.5375,31.44375],[116.4125,31.38125],[116.275,31.325],[116.125,31.275],[115.9625,31.234375],[115.7875,31.203125],[115.6,31.18125],[115.4,31.16875],[115.21875,31.16875],[115.05625,31.18125],[114.9125,31.20625],[114.7875,31.24375],[114.690625,31.309375],[114.621875,31.403125],[114.58125,31.525],[114.56875,31.675],[114.55625,31.8125],[114.54375,31.9375],[114.53125,32.05],[114.51875,32.15],[114.465625,32.221875],[114.371875,32.265625],[114.2375,32.28125],[114.0625,32.26875],[113.928125,32.23125],[113.834375,32.16875],[113.78125,32.08125],[113.76875,31.96875],[113.7375,31.871875],[113.6875,31.790625],[113.61875,31.725],[113.53125,31.675],[113.415625,31.6125],[113.271875,31.5375],[113.1,31.45],[112.9,31.35],[112.70625,31.265625],[112.51875,31.196875],[112.3375,31.14375],[112.1625,31.10625],[111.978125,31.0675],[111.784375,31.0275],[111.58125,30.98625],[111.36875,30.94375],[111.22,30.895625],[111.135,30.841875],[111.11375,30.7825],[111.15625,30.7175],[111.2025,30.66125],[111.2525,30.61375],[111.30625,30.575],[111.36375,30.545],[111.42375,30.52125],[111.48625,30.50375],[111.55125,30.4925],[111.61875,30.4875],[111.68375,30.48],[111.74625,30.47],[111.80625,30.4575],[111.86375,30.4425],[111.919375,30.42625],[111.973125,30.40875],[112.025,30.39],[112.075,30.37],[112.121875,30.35125],[112.165625,30.33375],[112.20625,30.3175],[112.24375,30.3025],[112.271875,30.28125],[112.290625,30.25375],[112.3,30.22],[112.3,30.18],[112.31125,30.14625],[112.33375,30.11875],[112.3675,30.0975],[112.4125,30.0825],[112.4475,30.058125],[112.4725,30.024375],[112.4875,29.98125],[112.4925,29.92875],[112.5075,29.8925],[112.5325,29.8725],[112.5675,29.86875],[112.6125,29.88125],[112.66,29.888125],[112.71,29.889375],[112.7625,29.885],[112.8175,29.875],[112.868125,29.865],[112.914375,29.855],[112.95625,29.845],[112.99375,29.835],[113.025,29.810625],[113.05,29.771875],[113.06875,29.71875],[113.08125,29.65125],[113.090625,29.5725],[113.096875,29.4825],[113.1,29.38125],[113.1,29.26875],[113.115625,29.171875],[113.146875,29.090625],[113.19375,29.025],[113.25625,28.975],[113.3375,28.934375],[113.4375,28.903125],[113.55625,28.88125],[113.69375,28.86875],[113.828125,28.86875],[113.959375,28.88125],[114.0875,28.90625],[114.2125,28.94375],[114.34375,28.975],[114.48125,29.0],[114.625,29.01875],[114.775,29.03125],[114.9125,29.0125],[115.0375,28.9625],[115.15,28.88125],[115.25,28.76875],[115.35,28.65625],[115.45,28.54375],[115.55,28.43125],[115.65,28.31875],[115.75,28.2375],[115.85,28.1875],[115.95,28.16875],[116.05,28.18125],[116.15,28.215625],[116.25,28.271875],[116.35,28.35],[116.45,28.45],[116.55625,28.55625],[116.66875,28.66875],[116.7875,28.7875],[116.9125,28.9125],[117.0375,29.0375],[117.1625,29.1625],[117.2875,29.2875],[117.4125,29.4125],[117.54375,29.521875],[117.68125,29.615625],[117.825,29.69375],[117.975,29.75625],[118.125,29.7875],[118.275,29.7875],[118.425,29.75625],[118.575,29.69375],[118.7125,29.63125],[118.8375,29.56875],[118.95,29.50625],[119.05,29.44375],[119.15,29.36875],[119.25,29.28125],[119.35,29.18125],[119.45,29.06875],[119.55625,28.990625],[119.66875,28.946875],[119.7875,28.9375],[119.9125,28.9625],[120.11875,28.99375],[120.40625,29.03125],[120.775,29.075],[121.225,29.125],[121.5875,29.171875],[121.8625,29.215625],[122.05,29.25625],[122.15,29.29375],[122.24375,29.340625],[122.33125,29.396875],[122.4125,29.4625],[122.4875,29.5375],[122.5625,29.61875],[122.6375,29.70625],[122.7125,29.8],[122.7875,29.9],[122.85,30.0],[122.9,30.1],[122.9375,30.2],[122.9625,30.3],[122.98125,30.40625],[122.99375,30.51875],[123.0,30.6375],[123.0,30.7625],[122.99375,30.903125],[122.98125,31.059375],[122.9625,31.23125],[122.9375,31.41875],[122.8875,31.609375],[122.8125,31.803125],[122.7125,32.0],[122.5875,32.2],[122.45625,32.4125],[122.31875,32.6375],[122.175,32.875],[122.025,33.125],[121.875,33.375],[121.725,33.625],[121.575,33.875],[121.425,34.125],[121.3,34.34375],[121.2,34.53125],[121.125,34.6875],[121.075,34.8125],[121.05625,34.975],[121.06875,35.175],[121.1125,35.4125],[121.1875,35.6875],[121.2875,35.93125],[121.4125,36.14375],[121.5625,36.325],[121.7375,36.475],[121.90625,36.60625],[122.06875,36.71875],[122.225,36.8125],[122.375,36.8875],[122.53125,36.965625],[122.69375,37.046875],[122.8625,37.13125],[123.0375,37.21875],[123.1625,37.31875],[123.2375,37.43125],[123.2625,37.55625],[123.2375,37.69375],[123.09375,37.809375],[122.83125,37.903125],[122.45,37.975],[121.95,38.025],[121.596875,38.13125],[121.390625,38.29375],[121.33125,38.5125],[121.41875,38.7875],[121.4625,39.05],[121.4625,39.3],[121.41875,39.5375],[121.33125,39.7625],[121.209375,39.946875],[121.053125,40.090625],[120.8625,40.19375],[120.6375,40.25625],[120.3875,40.3],[120.1125,40.325],[119.8125,40.33125],[119.4875,40.31875],[119.13125,40.334375],[118.74375,40.378125],[118.325,40.45],[117.875,40.55],[117.4,40.625],[116.9,40.675],[116.375,40.7],[115.825,40.7],[115.4125,40.7],[115.1375,40.7],[115.0,40.7],[113.3,40.5]]]}},{"type":"Feature","properties":{"name":"The Canton delta","date":"December 1942","note":"Traced from a period map of the occupation and adjusted to December 1942. Approximate, and generous: Japanese control ran along the railways and around the cities. Clip to the land to get what the map draws."},"geometry":{"type":"Polygon","coordinates":[[[112.65,22.35],[112.684375,22.31875],[112.753125,22.25625],[112.85625,22.1625],[112.99375,22.0375],[113.140625,21.940625],[113.296875,21.871875],[113.4625,21.83125],[113.6375,21.81875],[113.80625,21.83125],[113.96875,21.86875],[114.125,21.93125],[114.275,22.01875],[114.39375,22.109375],[114.48125,22.203125],[114.5375,22.3],[114.5625,22.4],[114.578125,22.509375],[114.584375,22.628125],[114.58125,22.75625],[114.56875,22.89375],[114.51875,23.028125],[114.43125,23.159375],[114.30625,23.2875],[114.14375,23.4125],[113.975,23.521875],[113.8,23.615625],[113.61875,23.69375],[113.43125,23.75625],[113.271875,23.78125],[113.140625,23.76875],[113.0375,23.71875],[112.9625,23.63125],[112.890625,23.534375],[112.821875,23.428125],[112.75625,23.3125],[112.69375,23.1875],[112.646875,23.09375],[112.615625,23.03125],[112.6,23.0],[112.65,22.35]]]}},{"type":"Feature","properties":{"name":"Hainan","date":"December 1942","note":"Traced from a period map of the occupation and adjusted to December 1942. Approximate, and generous: Japanese control ran along the railways and around the cities. Clip to the land to get what the map draws."},"geometry":{"type":"Polygon","coordinates":[[[108.6,18.2],[108.6625,18.19375],[108.7875,18.18125],[108.975,18.1625],[109.225,18.1375],[109.475,18.15],[109.725,18.2],[109.975,18.2875],[110.225,18.4125],[110.446875,18.5625],[110.640625,18.7375],[110.80625,18.9375],[110.94375,19.1625],[111.040625,19.3625],[111.096875,19.5375],[111.1125,19.6875],[111.0875,19.8125],[111.053125,19.921875],[111.009375,20.015625],[110.95625,20.09375],[110.89375,20.15625],[110.790625,20.2],[110.646875,20.225],[110.4625,20.23125],[110.2375,20.21875],[110.0125,20.184375],[109.7875,20.128125],[109.5625,20.05],[109.3375,19.95],[109.1375,19.825],[108.9625,19.675],[108.8125,19.5],[108.6875,19.3],[108.59375,19.15],[108.53125,19.05],[108.5,19.0],[108.6,18.2]]]}},{"type":"Feature","properties":{"name":"Amoy and Kinmen","date":"December 1942","note":"Traced from a period map of the occupation and adjusted to December 1942. Approximate, and generous: Japanese control ran along the railways and around the cities. Clip to the land to get what the map draws."},"geometry":{"type":"Polygon","coordinates":[[[118.58,24.48],[118.57775,24.485437],[118.57325,24.496313],[118.5665,24.512625],[118.5575,24.534375],[118.5445,24.555],[118.5275,24.5745],[118.5065,24.592875],[118.4815,24.610125],[118.45375,24.6255],[118.42325,24.639],[118.39,24.650625],[118.354,24.660375],[118.317,24.667687],[118.279,24.672563],[118.24,24.675],[118.2,24.675],[118.161,24.672563],[118.123,24.667687],[118.086,24.660375],[118.05,24.650625],[118.01675,24.639],[117.98625,24.6255],[117.9585,24.610125],[117.9335,24.592875],[117.9125,24.5745],[117.8955,24.555],[117.8825,24.534375],[117.8735,24.512625],[117.869,24.490875],[117.869,24.469125],[117.8735,24.447375],[117.8825,24.425625],[117.8955,24.405],[117.9125,24.3855],[117.9335,24.367125],[117.9585,24.349875],[117.98625,24.3345],[118.01675,24.321],[118.05,24.309375],[118.086,24.299625],[118.123,24.292313],[118.161,24.287438],[118.2,24.285],[118.24,24.285],[118.279,24.287438],[118.317,24.292313],[118.354,24.299625],[118.39,24.309375],[118.42325,24.321],[118.45375,24.3345],[118.4815,24.349875],[118.5065,24.367125],[118.52525,24.380063],[118.53775,24.388687],[118.544,24.393],[118.58,24.48]]]}},{"type":"Feature","properties":{"name":"Swatow and Chaochow","date":"December 1942","note":"Traced from a period map of the occupation and adjusted to December 1942. Approximate, and generous: Japanese control ran along the railways and around the cities. Clip to the land to get what the map draws."},"geometry":{"type":"Polygon","coordinates":[[[116.98,23.45],[116.97775,23.458937],[116.97325,23.476813],[116.9665,23.503625],[116.9575,23.539375],[116.9445,23.573375],[116.9275,23.605625],[116.9065,23.636125],[116.8815,23.664875],[116.85375,23.690438],[116.82325,23.712812],[116.79,23.732],[116.754,23.748],[116.717,23.76],[116.679,23.768],[116.64,23.772],[116.6,23.772],[116.561,23.768],[116.523,23.76],[116.486,23.748],[116.45,23.732],[116.41675,23.712812],[116.38625,23.690438],[116.3585,23.664875],[116.3335,23.636125],[116.3125,23.605625],[116.2955,23.573375],[116.2825,23.539375],[116.2735,23.503625],[116.269,23.467875],[116.269,23.432125],[116.2735,23.396375],[116.2825,23.360625],[116.2955,23.326625],[116.3125,23.294375],[116.3335,23.263875],[116.3585,23.235125],[116.38625,23.209563],[116.41675,23.187187],[116.45,23.168],[116.486,23.152],[116.523,23.14],[116.561,23.132],[116.6,23.128],[116.64,23.128],[116.679,23.132],[116.717,23.14],[116.754,23.152],[116.79,23.168],[116.82325,23.187187],[116.85375,23.209563],[116.8815,23.235125],[116.9065,23.263875],[116.92525,23.285438],[116.93775,23.299812],[116.944,23.307],[116.98,23.45]]]}}]}