{"type": "FeatureCollection", "name": "karafuto-1935-stations", "crs": {"type": "name", "properties": {"name": "urn:ogc:def:crs:OGC:1.3:CRS84"}}, "features": [{"type": "Feature", "properties": {"fid": 1, "name_ja": "大泊港", "name_1935_printed": "大泊港", "name_kana": "おおどまりみなと", "name_romaji": "Ōdomari-minato", "name_ru_station": "Порт Корсаков", "name_ru_place": "Корсаков-порт", "name_en_place": "Korsakov-Port", "lines_1935": "東海岸線", "lines_1935_en": "East Coast Line (Tōkaigan-sen)", "km_1935": "東海岸線 0.0", "opened_year": 1924, "opened_date": "", "closed_year": null, "jp_operation_ended": null, "closed_note": "1944年（昭和19年）1月：王子製紙大泊工場の操業中止に伴い樺太拓殖鉄道の貨物輸送休止（事実上の廃線）。", "status": "no longer an active railway point", "coord_source": "ja.wikipedia station infobox", "coord_precision": "station", "position_confidence": "high", "position_note": "", "ja_wikipedia": "https://ja.wikipedia.org/wiki/%E5%A4%A7%E6%B3%8A%E6%B8%AF%E9%A7%85"}, "geometry": {"type": "Point", "coordinates": [142.76582311775087, 46.61957056031719]}}, {"type": "Feature", "properties": {"fid": 2, "name_ja": "栄町", "name_1935_printed": "榮町", "name_kana": "さかえまち", "name_romaji": "Sakaemachi", "name_ru_station": "Пристань", "name_ru_place": "Корсаков", "name_en_place": "Korsakov", "lines_1935": "東海岸線", "lines_1935_en": "East Coast Line (Tōkaigan-sen)", "km_1935": "東海岸線 1.4", "opened_year": 1931, "opened_date": "1931年4月1日", "closed_year": 1944, "jp_operation_ended": null, "closed_note": "1944年（昭和19年）9月30日：廃駅|廃止。", "status": "abolished 1944, before the end of Japanese rule", "coord_source": "ja.wikipedia station infobox", "coord_precision": "station", "position_confidence": "high", "position_note": "", "ja_wikipedia": "https://ja.wikipedia.org/wiki/%E6%A0%84%E7%94%BA%E9%A7%85_%28%E6%A8%BA%E5%A4%AA%29"}, "geometry": {"type": "Point", "coordinates": [142.770833, 46.624722]}}, {"type": "Feature", "properties": {"fid": 3, "name_ja": "大泊", "name_1935_printed": "大泊", "name_kana": "おおどまり", "name_romaji": "Ōtomari", "name_ru_station": "Корсаков", "name_ru_place": "Корсаков", "name_en_place": "Korsakov", "lines_1935": "東海岸線", "lines_1935_en": "East Coast Line (Tōkaigan-sen)", "km_1935": "東海岸線 2.6", "opened_year": 1908, "opened_date": "1908年6月1日", "closed_year": null, "jp_operation_ended": null, "closed_note": "1912年（明治45年）1月21日 - 休止。", "status": "still an active railway point (OSM: Корсаков)", "coord_source": "ja.wikipedia station infobox", "coord_precision": "station", "position_confidence": "high", "position_note": "", "ja_wikipedia": "https://ja.wikipedia.org/wiki/%E5%A4%A7%E6%B3%8A%E9%A7%85_%28%E6%A8%BA%E5%A4%AA%29"}, "geometry": {"type": "Point", "coordinates": [142.76255220057666, 46.63333935938005]}}, {"type": "Feature", "properties": {"fid": 4, "name_ja": "楠渓町", "name_1935_printed": "楠溪町", "name_kana": "なんけいちょう", "name_romaji": "Nankei-chō", "name_ru_station": "Старый вокзал", "name_ru_place": "Старый вокзал", "name_en_place": "Stary Vokzal", "lines_1935": "東海岸線", "lines_1935_en": "East Coast Line (Tōkaigan-sen)", "km_1935": "東海岸線 3.9", "opened_year": 1906, "opened_date": "1906年12月1日", "closed_year": null, "jp_operation_ended": null, "closed_note": "", "status": "no longer an active railway point", "coord_source": "ja.wikipedia station infobox", "coord_precision": "station", "position_confidence": "high", "position_note": "", "ja_wikipedia": "https://ja.wikipedia.org/wiki/%E6%A5%A0%E6%B8%93%E7%94%BA%E9%A7%85"}, "geometry": {"type": "Point", "coordinates": [142.76238760028835, 46.64501007958189]}}, {"type": "Feature", "properties": {"fid": 5, "name_ja": "一ノ沢", "name_1935_printed": "一ノ澤", "name_kana": "いちのさわ", "name_romaji": "Ichinosawa", "name_ru_station": "ст. Первая Падь", "name_ru_place": "Первая Падь", "name_en_place": "Pervaya Pad", "lines_1935": "東海岸線", "lines_1935_en": "East Coast Line (Tōkaigan-sen)", "km_1935": "東海岸線 7.4", "opened_year": 1909, "opened_date": "1909年", "closed_year": null, "jp_operation_ended": null, "closed_note": "", "status": "still an active railway point (OSM: Первая Падь)", "coord_source": "ja.wikipedia station infobox", "coord_precision": "station", "position_confidence": "high", "position_note": "", "ja_wikipedia": "https://ja.wikipedia.org/wiki/%E4%B8%80%E3%83%8E%E6%B2%A2%E9%A7%85"}, "geometry": {"type": "Point", "coordinates": [142.75202371912056, 46.67095320093714]}}, {"type": "Feature", "properties": {"fid": 6, "name_ja": "二ノ沢", "name_1935_printed": "二ノ澤", "name_kana": "にのさわ", "name_romaji": "Ninosawa", "name_ru_station": "Вторая Падь", "name_ru_place": "Корсаковский городской округ", "name_en_place": "Korsakov Urban Okrug", "lines_1935": "東海岸線", "lines_1935_en": "East Coast Line (Tōkaigan-sen)", "km_1935": "東海岸線 8.5", "opened_year": 1932, "opened_date": "1932年7月1日", "closed_year": 1941, "jp_operation_ended": null, "closed_note": "1943年4月1日：南樺太の内地化により、鉄道省に編入と同時に廃駅|廃止。", "status": "abolished 1941, before the end of Japanese rule", "coord_source": "ja.wikipedia station infobox", "coord_precision": "station", "position_confidence": "high", "position_note": "", "ja_wikipedia": "https://ja.wikipedia.org/wiki/%E4%BA%8C%E3%83%8E%E6%B2%A2%E9%A7%85"}, "geometry": {"type": "Point", "coordinates": [142.74777327979814, 46.67953624054787]}}, {"type": "Feature", "properties": {"fid": 7, "name_ja": "三ノ沢", "name_1935_printed": "三ノ澤", "name_kana": "さんのさわ", "name_romaji": "Sannosawa", "name_ru_station": "Третья Падь", "name_ru_place": "Третья Падь", "name_en_place": "Tretya Pad", "lines_1935": "東海岸線", "lines_1935_en": "East Coast Line (Tōkaigan-sen)", "km_1935": "東海岸線 10.7", "opened_year": 1906, "opened_date": "1906年12月1日", "closed_year": null, "jp_operation_ended": null, "closed_note": "", "status": "still an active railway point (OSM: Третья Падь)", "coord_source": "ja.wikipedia station infobox", "coord_precision": "station", "position_confidence": "high", "position_note": "", "ja_wikipedia": "https://ja.wikipedia.org/wiki/%E4%B8%89%E3%83%8E%E6%B2%A2%E9%A7%85"}, "geometry": {"type": "Point", "coordinates": [142.7409696398991, 46.69634996002884]}}, {"type": "Feature", "properties": {"fid": 8, "name_ja": "貝塚", "name_1935_printed": "貝塚", "name_kana": "かいづか", "name_romaji": "Kaizuka", "name_ru_station": "Соловьёвка", "name_ru_place": "Соловьёвка", "name_en_place": "Solovyovka", "lines_1935": "東海岸線", "lines_1935_en": "East Coast Line (Tōkaigan-sen)", "km_1935": "東海岸線 14.3", "opened_year": 1906, "opened_date": "1906年12月1日", "closed_year": null, "jp_operation_ended": null, "closed_note": "", "status": "still an active railway point (OSM: Соловьёвка)", "coord_source": "ja.wikipedia station infobox", "coord_precision": "station", "position_confidence": "high", "position_note": "", "ja_wikipedia": "https://ja.wikipedia.org/wiki/%E8%B2%9D%E5%A1%9A%E9%A7%85_%28%E6%A8%BA%E5%A4%AA%29"}, "geometry": {"type": "Point", "coordinates": [142.73735328051902, 46.72642187792388]}}, {"type": "Feature", "properties": {"fid": 9, "name_ja": "新場", "name_1935_printed": "新場", "name_kana": "しんば", "name_romaji": "Shinba", "name_ru_station": "Дачное", "name_ru_place": "Дачное", "name_en_place": "Dachnoye", "lines_1935": "東海岸線; 南樺鉄道線", "lines_1935_en": "East Coast Line (Tōkaigan-sen); Nanka Railway Line", "km_1935": "東海岸線 17.7; 南樺鉄道線 0.0", "opened_year": 1926, "opened_date": "1926年10月1日", "closed_year": null, "jp_operation_ended": null, "closed_note": "9月1日 - 新場仮信号場廃止。", "status": "still an active railway point (OSM: Дачное)", "coord_source": "ja.wikipedia station infobox", "coord_precision": "station", "position_confidence": "high", "position_note": "", "ja_wikipedia": "https://ja.wikipedia.org/wiki/%E6%96%B0%E5%A0%B4%E9%A7%85"}, "geometry": {"type": "Point", "coordinates": [142.735338199135, 46.7565498800865]}}, {"type": "Feature", "properties": {"fid": 10, "name_ja": "中里", "name_1935_printed": "中里", "name_kana": "なかさと", "name_romaji": "Nakasato", "name_ru_station": "Мицулевка", "name_ru_place": "Мацулёвка", "name_en_place": "Matsulyovka", "lines_1935": "東海岸線", "lines_1935_en": "East Coast Line (Tōkaigan-sen)", "km_1935": "東海岸線 23.4", "opened_year": 1906, "opened_date": "1906年12月1日", "closed_year": null, "jp_operation_ended": null, "closed_note": "", "status": "still an active railway point (OSM: Мицулевка)", "coord_source": "ja.wikipedia station infobox", "coord_precision": "station", "position_confidence": "high", "position_note": "", "ja_wikipedia": "https://ja.wikipedia.org/wiki/%E4%B8%AD%E9%87%8C%E9%A7%85_%28%E6%A8%BA%E5%A4%AA%29"}, "geometry": {"type": "Point", "coordinates": [142.73146707994232, 46.80637955959631]}}, {"type": "Feature", "properties": {"fid": 11, "name_ja": "豊南", "name_1935_printed": "豐南", "name_kana": "とよなみ", "name_romaji": "Toyonami", "name_ru_station": "Христофоровка", "name_ru_place": "Христофоровка", "name_en_place": "Khristoforovka", "lines_1935": "東海岸線", "lines_1935_en": "East Coast Line (Tōkaigan-sen)", "km_1935": "東海岸線 31.5", "opened_year": 1922, "opened_date": "1922年9月16日", "closed_year": null, "jp_operation_ended": null, "closed_note": "1922年（大正11年）9月16日 - 樺太庁鉄道の駅として当駅が開業。同時に唐松駅廃止。", "status": "still an active railway point (OSM: Христофоровка)", "coord_source": "ja.wikipedia station infobox", "coord_precision": "station", "position_confidence": "high", "position_note": "", "ja_wikipedia": "https://ja.wikipedia.org/wiki/%E8%B1%8A%E5%8D%97%E9%A7%85"}, "geometry": {"type": "Point", "coordinates": [142.74664748001442, 46.87015143968282]}}, {"type": "Feature", "properties": {"fid": 12, "name_ja": "大沢", "name_1935_printed": "大澤", "name_kana": "おおさわ", "name_romaji": "Ōsawa", "name_ru_station": "Большая Елань", "name_ru_place": "Большая Елань", "name_en_place": "Bolshaya Yelan", "lines_1935": "東海岸線", "lines_1935_en": "East Coast Line (Tōkaigan-sen)", "km_1935": "東海岸線 37.5", "opened_year": 1906, "opened_date": "1911年1月1日", "closed_year": null, "jp_operation_ended": null, "closed_note": "", "status": "still an active railway point (OSM: Большая Елань)", "coord_source": "ja.wikipedia station infobox", "coord_precision": "station", "position_confidence": "high", "position_note": "", "ja_wikipedia": "https://ja.wikipedia.org/wiki/%E5%A4%A7%E6%B2%A2%E9%A7%85_%28%E6%A8%BA%E5%A4%AA%29"}, "geometry": {"type": "Point", "coordinates": [142.73380619985582, 46.922222]}}, {"type": "Feature", "properties": {"fid": 13, "name_ja": "豊原", "name_1935_printed": "豐原", "name_kana": "とよはら", "name_romaji": "Toyohara", "name_ru_station": "Южно-Сахалинск", "name_ru_place": "Южно-Сахалинск", "name_en_place": "Yuzhno-Sakhalinsk", "lines_1935": "東海岸線; 川上線; 豊真線", "lines_1935_en": "East Coast Line (Tōkaigan-sen); Kawakami Line; Hōshin Line", "km_1935": "東海岸線 41.6; 川上線 0.0; 豊真線 0.0", "opened_year": 1906, "opened_date": "1906年12月1日", "closed_year": null, "jp_operation_ended": null, "closed_note": "7月15日 - 豊真線が小沼駅起点に変更され、当駅 - 奥鈴谷駅間が廃止される。", "status": "still an active railway point (OSM: Южно-Сахалинск)", "coord_source": "ja.wikipedia station infobox", "coord_precision": "station", "position_confidence": "high", "position_note": "", "ja_wikipedia": "https://ja.wikipedia.org/wiki/%E8%B1%8A%E5%8E%9F%E9%A7%85_%28%E6%A8%BA%E5%A4%AA%29"}, "geometry": {"type": "Point", "coordinates": [142.7259110799423, 46.95777327979816]}}, {"type": "Feature", "properties": {"fid": 14, "name_ja": "北豊原", "name_1935_printed": "北豐原", "name_kana": "きたとよはら", "name_romaji": "Kita-Toyohara", "name_ru_station": "Южно-Сахалинск-Грузовой", "name_ru_place": "Южно-Сахалинск-Грузовой", "name_en_place": "Yuzhno-Sakhalinsk-Gruzovoy", "lines_1935": "東海岸線; 川上線", "lines_1935_en": "East Coast Line (Tōkaigan-sen); Kawakami Line", "km_1935": "東海岸線 43.8; 川上線 2.2", "opened_year": 1923, "opened_date": "1925年6月20日", "closed_year": null, "jp_operation_ended": null, "closed_note": "", "status": "still an active railway point (OSM: Южно-Сахалинск-Грузовой)", "coord_source": "ja.wikipedia station infobox", "coord_precision": "station", "position_confidence": "high", "position_note": "", "ja_wikipedia": "https://ja.wikipedia.org/wiki/%E5%8C%97%E8%B1%8A%E5%8E%9F%E9%A7%85"}, "geometry": {"type": "Point", "coordinates": [142.726111, 46.978056]}}, {"type": "Feature", "properties": {"fid": 15, "name_ja": "草野", "name_1935_printed": "草野", "name_kana": "くさの", "name_romaji": "Kusano", "name_ru_station": "Луговое", "name_ru_place": "Луговое", "name_en_place": "Lugovoe", "lines_1935": "東海岸線; 川上線", "lines_1935_en": "East Coast Line (Tōkaigan-sen); Kawakami Line", "km_1935": "東海岸線 47.5; 川上線 5.9", "opened_year": 1911, "opened_date": "1911年7月20日", "closed_year": null, "jp_operation_ended": null, "closed_note": "", "status": "still an active railway point (OSM: Луговое)", "coord_source": "ja.wikipedia station infobox", "coord_precision": "station", "position_confidence": "high", "position_note": "", "ja_wikipedia": "https://ja.wikipedia.org/wiki/%E8%B1%8A%E5%8C%97%E9%A7%85"}, "geometry": {"type": "Point", "coordinates": [142.724722, 47.012778]}}, {"type": "Feature", "properties": {"fid": 16, "name_ja": "小沼", "name_1935_printed": "小沼", "name_kana": "こぬま", "name_romaji": "Konuma", "name_ru_station": "Новоалександровка", "name_ru_place": "Новоалександровка", "name_en_place": "Novoaleksandrovka", "lines_1935": "東海岸線; 川上線", "lines_1935_en": "East Coast Line (Tōkaigan-sen); Kawakami Line", "km_1935": "東海岸線 52.5; 川上線 10.9", "opened_year": 1911, "opened_date": "1908年6月1日", "closed_year": 1997, "jp_operation_ended": null, "closed_note": "2004年 - シネゴルスク線が正式に廃止。", "status": "closed 1997", "coord_source": "ja.wikipedia station infobox", "coord_precision": "station", "position_confidence": "high", "position_note": "", "ja_wikipedia": "https://ja.wikipedia.org/wiki/%E5%B0%8F%E6%B2%BC%E9%A7%85"}, "geometry": {"type": "Point", "coordinates": [142.7262, 47.0533]}}, {"type": "Feature", "properties": {"fid": 17, "name_ja": "富岡", "name_1935_printed": "富岡", "name_kana": "とみおか", "name_romaji": "Tomioka", "name_ru_station": "Березняки", "name_ru_place": "Березняки", "name_en_place": "Bereznyaki", "lines_1935": "東海岸線", "lines_1935_en": "East Coast Line (Tōkaigan-sen)", "km_1935": "東海岸線 61.4", "opened_year": 1911, "opened_date": "1911年9月10日", "closed_year": null, "jp_operation_ended": null, "closed_note": "", "status": "still an active railway point (OSM: Березняки)", "coord_source": "ja.wikipedia station infobox", "coord_precision": "station", "position_confidence": "high", "position_note": "", "ja_wikipedia": "https://ja.wikipedia.org/wiki/%E5%AF%8C%E5%B2%A1%E9%A7%85_%28%E6%A8%BA%E5%A4%AA%29"}, "geometry": {"type": "Point", "coordinates": [142.751389, 47.128611]}}, {"type": "Feature", "properties": {"fid": 18, "name_ja": "深雪", "name_1935_printed": "深雪", "name_kana": "みゆき", "name_romaji": "Miyuki", "name_ru_station": "Старорусское", "name_ru_place": "Старорусское", "name_en_place": "Starorusskoe", "lines_1935": "東海岸線", "lines_1935_en": "East Coast Line (Tōkaigan-sen)", "km_1935": "東海岸線 66.7", "opened_year": 1911, "opened_date": "1911年12月2日", "closed_year": null, "jp_operation_ended": null, "closed_note": "", "status": "still an active railway point (OSM: Старорусское)", "coord_source": "ja.wikipedia station infobox", "coord_precision": "station", "position_confidence": "high", "position_note": "", "ja_wikipedia": "https://ja.wikipedia.org/wiki/%E6%B7%B1%E9%9B%AA%E9%A7%85"}, "geometry": {"type": "Point", "coordinates": [142.750556, 47.175]}}, {"type": "Feature", "properties": {"fid": 19, "name_ja": "大谷", "name_1935_printed": "大谷", "name_kana": "おおたに", "name_romaji": "Ōtani", "name_ru_station": "Сокол", "name_ru_place": "Сокол", "name_en_place": "Sokol", "lines_1935": "東海岸線", "lines_1935_en": "East Coast Line (Tōkaigan-sen)", "km_1935": "東海岸線 73.8", "opened_year": 1911, "opened_date": "1911年12月2日", "closed_year": null, "jp_operation_ended": null, "closed_note": "2019年5月31日：ソコル - ブイコフ間が廃止。", "status": "still an active railway point (OSM: Сокол)", "coord_source": "ja.wikipedia station infobox", "coord_precision": "station", "position_confidence": "high", "position_note": "", "ja_wikipedia": "https://ja.wikipedia.org/wiki/%E5%A4%A7%E8%B0%B7%E9%A7%85_%28%E6%A8%BA%E5%A4%AA%29"}, "geometry": {"type": "Point", "coordinates": [142.745278, 47.239444]}}, {"type": "Feature", "properties": {"fid": 20, "name_ja": "小谷", "name_1935_printed": "小谷", "name_kana": "こたに", "name_romaji": "Kotani", "name_ru_station": "Такое", "name_ru_place": "Долинский городской округ", "name_en_place": "Dolinsky Urban Okrug", "lines_1935": "東海岸線", "lines_1935_en": "East Coast Line (Tōkaigan-sen)", "km_1935": "東海岸線 78.7", "opened_year": 1911, "opened_date": "", "closed_year": null, "jp_operation_ended": null, "closed_note": "", "status": "no longer an active railway point", "coord_source": "OSM locality «Такое»", "coord_precision": "settlement", "position_confidence": "medium", "position_note": "", "ja_wikipedia": "https://ja.wikipedia.org/wiki/%E5%B0%8F%E8%B0%B7%E9%A7%85"}, "geometry": {"type": "Point", "coordinates": [142.75832628772775, 47.281385928708175]}}, {"type": "Feature", "properties": {"fid": 21, "name_ja": "落合", "name_1935_printed": "落合", "name_kana": "おちあい", "name_romaji": "Ochiai", "name_ru_station": "Долинск", "name_ru_place": "Долинск", "name_en_place": "Dolinsk", "lines_1935": "東海岸線; 樺太鉄道線", "lines_1935_en": "East Coast Line (Tōkaigan-sen); Karafuto Railway Line", "km_1935": "東海岸線 84.8; 樺太鉄道線 84.8", "opened_year": 1913, "opened_date": "1913年12月17日", "closed_year": null, "jp_operation_ended": null, "closed_note": "1995年 - ドリンスク-スタロドゥブスコエ線が廃止。", "status": "still an active railway point (OSM: Долинск)", "coord_source": "OSM station «Долинск»", "coord_precision": "station", "position_confidence": "high", "position_note": "", "ja_wikipedia": "https://ja.wikipedia.org/wiki/%E8%90%BD%E5%90%88%E9%A7%85_%28%E6%A8%BA%E5%A4%AA%29"}, "geometry": {"type": "Point", "coordinates": [142.790424, 47.32712]}}, {"type": "Feature", "properties": {"fid": 22, "name_ja": "栄浜", "name_1935_printed": "榮濱", "name_kana": "さかえはま", "name_romaji": "Sakaehama", "name_ru_station": "Стародубское", "name_ru_place": "Стародубское", "name_en_place": "Starodubskoe", "lines_1935": "東海岸線", "lines_1935_en": "East Coast Line (Tōkaigan-sen)", "km_1935": "東海岸線 95.1", "opened_year": 1913, "opened_date": "1906年12月2日", "closed_year": 1995, "jp_operation_ended": null, "closed_note": "1995年（平成7年）- 廃止される。", "status": "closed 1995", "coord_source": "ja.wikipedia station infobox", "coord_precision": "station", "position_confidence": "high", "position_note": "", "ja_wikipedia": "https://ja.wikipedia.org/wiki/%E6%A0%84%E6%B5%9C%E9%A7%85"}, "geometry": {"type": "Point", "coordinates": [142.808333, 47.41137111919262]}}, {"type": "Feature", "properties": {"fid": 23, "name_ja": "川上", "name_1935_printed": "川上", "name_kana": "かわかみ", "name_romaji": "Kawakami", "name_ru_station": "Ключи", "name_ru_place": "Ключи", "name_en_place": "Klyuchi", "lines_1935": "川上線", "lines_1935_en": "Kawakami Line", "km_1935": "川上線 16.5", "opened_year": 1914, "opened_date": "", "closed_year": 2004, "jp_operation_ended": null, "closed_note": "2004年 - 廃止。", "status": "closed 2004", "coord_source": "ja.wikipedia station infobox", "coord_precision": "station", "position_confidence": "high", "position_note": "", "ja_wikipedia": "https://ja.wikipedia.org/wiki/%E6%9C%AC%E5%B7%9D%E4%B8%8A%E9%A7%85"}, "geometry": {"type": "Point", "coordinates": [142.69893189698968, 47.066562251360985]}}, {"type": "Feature", "properties": {"fid": 24, "name_ja": "川上温泉", "name_1935_printed": "川上温泉", "name_kana": "かわかみおんせん", "name_romaji": "Kawakami Onsen", "name_ru_station": "10 км", "name_ru_place": "городской округ Южно-Сахалинск", "name_en_place": "Yuzhno-Sakhalinsk Urban Okrug", "lines_1935": "川上線", "lines_1935_en": "Kawakami Line", "km_1935": "川上線 21.8", "opened_year": 1922, "opened_date": "", "closed_year": 2004, "jp_operation_ended": null, "closed_note": "2004年 - 廃止。", "status": "closed 2004", "coord_source": "ja.wikipedia station infobox", "coord_precision": "station", "position_confidence": "high", "position_note": "", "ja_wikipedia": "https://ja.wikipedia.org/wiki/%E4%B8%B8%E5%B1%B1%E9%A7%85_%28%E6%A8%BA%E5%A4%AA%29"}, "geometry": {"type": "Point", "coordinates": [142.6286763140023, 47.10529443896195]}}, {"type": "Feature", "properties": {"fid": 25, "name_ja": "奥川上", "name_1935_printed": "奧川上", "name_kana": "おくかわかみ", "name_romaji": "Oku-Kawakami", "name_ru_station": "Тепловодская", "name_ru_place": "Тепловодская", "name_en_place": "Teplovodskaya", "lines_1935": "川上線", "lines_1935_en": "Kawakami Line", "km_1935": "川上線 24.1", "opened_year": 1914, "opened_date": "", "closed_year": 2004, "jp_operation_ended": null, "closed_note": "1997年 - 旅客運輸廃止。", "status": "closed 2004", "coord_source": "ja.wikipedia station infobox", "coord_precision": "station", "position_confidence": "high", "position_note": "", "ja_wikipedia": "https://ja.wikipedia.org/wiki/%E5%A5%A5%E5%B7%9D%E4%B8%8A%E9%A7%85"}, "geometry": {"type": "Point", "coordinates": [142.5872767401649, 47.11390481437306]}}, {"type": "Feature", "properties": {"fid": 26, "name_ja": "中山", "name_1935_printed": "中山", "name_kana": "なかやま", "name_romaji": "Nakayama", "name_ru_station": "", "name_ru_place": "17 км", "name_en_place": "17 km railway point", "lines_1935": "川上線", "lines_1935_en": "Kawakami Line", "km_1935": "川上線 29.6", "opened_year": 1922, "opened_date": "", "closed_year": null, "jp_operation_ended": null, "closed_note": "", "status": "no longer an active railway point", "coord_source": "ja.wikipedia station infobox", "coord_precision": "station", "position_confidence": "high", "position_note": "", "ja_wikipedia": "https://ja.wikipedia.org/wiki/%E4%B8%AD%E5%B1%B1%E9%A7%85_%28%E6%A8%BA%E5%A4%AA%29"}, "geometry": {"type": "Point", "coordinates": [142.55549847388698, 47.13956316709341]}}, {"type": "Feature", "properties": {"fid": 27, "name_ja": "川上炭山", "name_1935_printed": "川上炭山", "name_kana": "かわかみたんざん", "name_romaji": "Kawakami Tanzan", "name_ru_station": "Синегорск", "name_ru_place": "Синегорск", "name_en_place": "Sinegorsk", "lines_1935": "川上線", "lines_1935_en": "Kawakami Line", "km_1935": "川上線 32.8", "opened_year": 1922, "opened_date": "1922年10月1日", "closed_year": 2004, "jp_operation_ended": null, "closed_note": "2004年廃止。", "status": "closed 2004", "coord_source": "ja.wikipedia station infobox", "coord_precision": "station", "position_confidence": "high", "position_note": "", "ja_wikipedia": "https://ja.wikipedia.org/wiki/%E5%B7%9D%E4%B8%8A%E7%82%AD%E5%B1%B1%E9%A7%85"}, "geometry": {"type": "Point", "coordinates": [142.521111, 47.171111]}}, {"type": "Feature", "properties": {"fid": 28, "name_ja": "西久保", "name_1935_printed": "西久保", "name_kana": "にしくぼ", "name_romaji": "Nishikubo", "name_ru_station": "Алые Розы", "name_ru_place": "Дальнее", "name_en_place": "Dalneye", "lines_1935": "豊真線", "lines_1935_en": "Hōshin Line", "km_1935": "豊真線 5.2", "opened_year": 1925, "opened_date": "1925年10月1日", "closed_year": 1945, "jp_operation_ended": null, "closed_note": "", "status": "closed 1945", "coord_source": "ja.wikipedia station infobox", "coord_precision": "station", "position_confidence": "high", "position_note": "", "ja_wikipedia": "https://ja.wikipedia.org/wiki/%E8%A5%BF%E4%B9%85%E4%BF%9D%E9%A7%85"}, "geometry": {"type": "Point", "coordinates": [142.68207383867357, 46.9917714011534]}}, {"type": "Feature", "properties": {"fid": 29, "name_ja": "鈴谷", "name_1935_printed": "鈴谷", "name_kana": "すすや", "name_romaji": "Suzuya", "name_ru_station": "Курская-Сахалинская", "name_ru_place": "Курская-Сахалинская", "name_en_place": "Kurskaya-Sakhalinskaya", "lines_1935": "豊真線", "lines_1935_en": "Hōshin Line", "km_1935": "豊真線 9.9", "opened_year": 1925, "opened_date": "", "closed_year": 1945, "jp_operation_ended": null, "closed_note": "1945年（昭和20年）7月15日 - 豊原駅 - 奥鈴谷駅間が新線付替えにともない廃止となり、代わって小沼駅～奥鈴谷駅が開業する。それにともない当駅は廃止される。", "status": "closed 1945", "coord_source": "ja.wikipedia station infobox", "coord_precision": "station", "position_confidence": "high", "position_note": "", "ja_wikipedia": "https://ja.wikipedia.org/wiki/%E9%88%B4%E8%B0%B7%E9%A7%85"}, "geometry": {"type": "Point", "coordinates": [142.66765615988467, 47.03125871948097]}}, {"type": "Feature", "properties": {"fid": 30, "name_ja": "奥鈴谷", "name_1935_printed": "奧鈴谷", "name_kana": "おくすすや", "name_romaji": "Oku-Suzuya", "name_ru_station": "Новодеревенская", "name_ru_place": "Новодеревенская", "name_en_place": "Novoderevenskaya", "lines_1935": "豊真線", "lines_1935_en": "Hōshin Line", "km_1935": "豊真線 16.2", "opened_year": 1928, "opened_date": "1928年9月3日", "closed_year": 2019, "jp_operation_ended": null, "closed_note": "11月10日 - 同年夏季運行の終了に伴い廃止。", "status": "closed 2019", "coord_source": "ja.wikipedia station infobox", "coord_precision": "station", "position_confidence": "high", "position_note": "", "ja_wikipedia": "https://ja.wikipedia.org/wiki/%E5%A5%A5%E9%88%B4%E8%B0%B7%E9%A7%85"}, "geometry": {"type": "Point", "coordinates": [142.63050751962513, 47.06968132085063]}}, {"type": "Feature", "properties": {"fid": 31, "name_ja": "瀧ノ沢", "name_1935_printed": "瀧ノ澤", "name_kana": "たきのさわ", "name_romaji": "Takinosawa", "name_ru_station": "Перевал-Сахалинский", "name_ru_place": "Перевал", "name_en_place": "Pereval", "lines_1935": "豊真線", "lines_1935_en": "Hōshin Line", "km_1935": "豊真線 29.6", "opened_year": 1928, "opened_date": "1928年9月3日", "closed_year": 1994, "jp_operation_ended": null, "closed_note": "", "status": "closed 1994", "coord_source": "ja.wikipedia station infobox", "coord_precision": "station", "position_confidence": "high", "position_note": "", "ja_wikipedia": "https://ja.wikipedia.org/wiki/%E7%80%A7%E3%83%8E%E6%B2%A2%E9%A7%85"}, "geometry": {"type": "Point", "coordinates": [142.51882408066317, 47.06621967950981]}}, {"type": "Feature", "properties": {"fid": 32, "name_ja": "中野", "name_1935_printed": "中野", "name_kana": "なかの", "name_romaji": "Nakano", "name_ru_station": "Ожидаево", "name_ru_place": "Ожидаево", "name_en_place": "Ozhidayevo", "lines_1935": "豊真線", "lines_1935_en": "Hōshin Line", "km_1935": "豊真線 42.5", "opened_year": 1928, "opened_date": "1928年9月3日", "closed_year": 1994, "jp_operation_ended": null, "closed_note": "1994年 - 廃止。", "status": "closed 1994", "coord_source": "ja.wikipedia station infobox", "coord_precision": "station", "position_confidence": "high", "position_note": "", "ja_wikipedia": "https://ja.wikipedia.org/wiki/%E4%B8%AD%E9%87%8E%E9%A7%85_%28%E6%A8%BA%E5%A4%AA%29"}, "geometry": {"type": "Point", "coordinates": [142.39134523982696, 47.02928784011534]}}, {"type": "Feature", "properties": {"fid": 33, "name_ja": "清水", "name_1935_printed": "淸水", "name_kana": "しみず", "name_romaji": "Shimizu", "name_ru_station": "Чистоводное", "name_ru_place": "Чистоводное", "name_en_place": "Chistovodnoye", "lines_1935": "豊真線", "lines_1935_en": "Hōshin Line", "km_1935": "豊真線 47.8", "opened_year": 1928, "opened_date": "1928年9月3日", "closed_year": 1994, "jp_operation_ended": null, "closed_note": "1994年廃止。", "status": "closed 1994", "coord_source": "ja.wikipedia station infobox", "coord_precision": "station", "position_confidence": "high", "position_note": "", "ja_wikipedia": "https://ja.wikipedia.org/wiki/%E6%B8%85%E6%B0%B4%E9%A7%85_%28%E6%A8%BA%E5%A4%AA%29"}, "geometry": {"type": "Point", "coordinates": [142.32928784011534, 47.02095956031719]}}, {"type": "Feature", "properties": {"fid": 34, "name_ja": "逢坂", "name_1935_printed": "逢坂", "name_kana": "おおさか", "name_romaji": "Ōsaka", "name_ru_station": "Пятиречье", "name_ru_place": "Пятиречье", "name_en_place": "Pyatirechye", "lines_1935": "豊真線", "lines_1935_en": "Hōshin Line", "km_1935": "豊真線 52.6", "opened_year": 1926, "opened_date": "1926年11月15日", "closed_year": 1994, "jp_operation_ended": null, "closed_note": "1994年廃止。", "status": "closed 1994", "coord_source": "ja.wikipedia station infobox", "coord_precision": "station", "position_confidence": "high", "position_note": "", "ja_wikipedia": "https://ja.wikipedia.org/wiki/%E9%80%A2%E5%9D%82%E9%A7%85"}, "geometry": {"type": "Point", "coordinates": [142.27338148037487, 47.01380619985583]}}, {"type": "Feature", "properties": {"fid": 35, "name_ja": "二股", "name_1935_printed": "二股", "name_kana": "ふたまた", "name_romaji": "Futamata", "name_ru_station": "Чапланово", "name_ru_place": "Чапланово", "name_en_place": "Chaplanovo", "lines_1935": "豊真線", "lines_1935_en": "Hōshin Line", "km_1935": "豊真線 60.0", "opened_year": 1926, "opened_date": "1926年11月15日", "closed_year": 1994, "jp_operation_ended": null, "closed_note": "1994年 - 廃止。", "status": "closed 1994", "coord_source": "ja.wikipedia station infobox", "coord_precision": "station", "position_confidence": "high", "position_note": "", "ja_wikipedia": "https://ja.wikipedia.org/wiki/%E4%BA%8C%E8%82%A1%E9%A7%85_%28%E6%A8%BA%E5%A4%AA%29"}, "geometry": {"type": "Point", "coordinates": [142.22759124054784, 46.96420976017301]}}, {"type": "Feature", "properties": {"fid": 36, "name_ja": "宝台", "name_1935_printed": "寶臺", "name_kana": "たからだい", "name_romaji": "Takaradai", "name_ru_station": "Камышево-Сахалинское", "name_ru_place": "Камышево", "name_en_place": "Kamyshevo", "lines_1935": "豊真線", "lines_1935_en": "Hōshin Line", "km_1935": "豊真線 69.1", "opened_year": 1926, "opened_date": "1926年11月15日", "closed_year": 1994, "jp_operation_ended": null, "closed_note": "1994年 - 廃止。", "status": "closed 1994", "coord_source": "ja.wikipedia station infobox", "coord_precision": "station", "position_confidence": "high", "position_note": "", "ja_wikipedia": "https://ja.wikipedia.org/wiki/%E5%AE%9D%E5%8F%B0%E9%A7%85"}, "geometry": {"type": "Point", "coordinates": [142.151111, 46.97309031976932]}}, {"type": "Feature", "properties": {"fid": 37, "name_ja": "池ノ端", "name_1935_printed": "池ノ端", "name_kana": "いけのはた", "name_romaji": "Ikenohata", "name_ru_station": "Николайчук", "name_ru_place": "Николайчук", "name_en_place": "Nikolaychuk", "lines_1935": "豊真線", "lines_1935_en": "Hōshin Line", "km_1935": "豊真線 78.3", "opened_year": 1926, "opened_date": "1926年11月15日", "closed_year": null, "jp_operation_ended": null, "closed_note": "", "status": "still an active railway point (OSM: Николайчук)", "coord_source": "ja.wikipedia station infobox", "coord_precision": "station", "position_confidence": "high", "position_note": "", "ja_wikipedia": "https://ja.wikipedia.org/wiki/%E6%B1%A0%E3%83%8E%E7%AB%AF%E9%A7%85"}, "geometry": {"type": "Point", "coordinates": [142.08857668023066, 47.003056]}}, {"type": "Feature", "properties": {"fid": 38, "name_ja": "手井", "name_1935_printed": "手井", "name_kana": "てい", "name_romaji": "Tei", "name_ru_station": "Холмск-Сортировочный", "name_ru_place": "Холмск-Сортировочный", "name_en_place": "Kholmsk-Sortirovochny", "lines_1935": "豊真線; 西海岸線", "lines_1935_en": "Hōshin Line; West Coast Line (Nishikaigan-sen)", "km_1935": "豊真線 83.8; 西海岸線 44.2", "opened_year": 1920, "opened_date": "1920年10月11日", "closed_year": null, "jp_operation_ended": null, "closed_note": "1999年：シャフタ＝サハリンスカヤ - アルセンチェフカ線シャフタ＝サハリンスカヤ - ホルムスク＝ソルチローヴォチヌイ間旅客列車休止。", "status": "no longer an active railway point", "coord_source": "ja.wikipedia station infobox", "coord_precision": "station", "position_confidence": "high", "position_note": "", "ja_wikipedia": "https://ja.wikipedia.org/wiki/%E6%89%8B%E4%BA%95%E9%A7%85"}, "geometry": {"type": "Point", "coordinates": [142.03257663809688, 47.01831944472893]}}, {"type": "Feature", "properties": {"fid": 39, "name_ja": "真岡", "name_1935_printed": "眞岡", "name_kana": "まおか", "name_romaji": "Maoka", "name_ru_station": "Холмск-Южный", "name_ru_place": "Холмск-Южный", "name_en_place": "Kholmsk-Yuzhny", "lines_1935": "豊真線; 西海岸線", "lines_1935_en": "Hōshin Line; West Coast Line (Nishikaigan-sen)", "km_1935": "豊真線 86.9; 西海岸線 47.3", "opened_year": 1920, "opened_date": "1920年10月11日", "closed_year": null, "jp_operation_ended": null, "closed_note": "1997年：シャフタ＝サハリンスカヤ─ホルムスク＝ソルチローヴォチヌイ間旅客列車休止にともないネヴェリスク方面への定期旅客列車消滅。", "status": "no longer an active railway point", "coord_source": "ja.wikipedia station infobox", "coord_precision": "station", "position_confidence": "high", "position_note": "", "ja_wikipedia": "https://ja.wikipedia.org/wiki/%E7%9C%9F%E5%B2%A1%E9%A7%85_%28%E6%A8%BA%E5%A4%AA%29"}, "geometry": {"type": "Point", "coordinates": [142.04076416234625, 47.04221340709643]}}, {"type": "Feature", "properties": {"fid": 40, "name_ja": "北真岡", "name_1935_printed": "北眞岡", "name_kana": "きたまおか", "name_romaji": "Kita-Maoka", "name_ru_station": "ст. Холмск-Северный", "name_ru_place": "Холмск-Северный", "name_en_place": "Kholmsk-Severny", "lines_1935": "豊真線; 西海岸線", "lines_1935_en": "Hōshin Line; West Coast Line (Nishikaigan-sen)", "km_1935": "豊真線 89.8; 西海岸線 50.2", "opened_year": 1921, "opened_date": "1921年11月11日", "closed_year": null, "jp_operation_ended": null, "closed_note": "", "status": "still an active railway point (OSM: Холмск-Северный)", "coord_source": "ja.wikipedia station infobox", "coord_precision": "station", "position_confidence": "high", "position_note": "", "ja_wikipedia": "https://ja.wikipedia.org/wiki/%E5%8C%97%E7%9C%9F%E5%B2%A1%E9%A7%85_%28%E6%A8%BA%E5%A4%AA%29"}, "geometry": {"type": "Point", "coordinates": [142.05251631019328, 47.064914714242406]}}, {"type": "Feature", "properties": {"fid": 41, "name_ja": "本斗", "name_1935_printed": "本斗", "name_kana": "ほんと", "name_romaji": "Honto", "name_ru_station": "Невельск", "name_ru_place": "Невельск", "name_en_place": "Nevelsk", "lines_1935": "西海岸線; 南樺太炭礦鉄道線", "lines_1935_en": "West Coast Line (Nishikaigan-sen); South Karafuto Coal-Mining Railway Line", "km_1935": "西海岸線 0.0; 南樺太炭礦鉄道線 0.0", "opened_year": 1920, "opened_date": "1920年10月11日", "closed_year": null, "jp_operation_ended": null, "closed_note": "", "status": "still an active railway point (OSM: Невельск)", "coord_source": "ja.wikipedia station infobox", "coord_precision": "station", "position_confidence": "high", "position_note": "", "ja_wikipedia": "https://ja.wikipedia.org/wiki/%E6%9C%AC%E6%96%97%E9%A7%85"}, "geometry": {"type": "Point", "coordinates": [141.85713547965395, 46.674653360461356]}}, {"type": "Feature", "properties": {"fid": 42, "name_ja": "遠節", "name_1935_printed": "遠節", "name_kana": "とおぶし", "name_romaji": "Tōbushi", "name_ru_station": "Ловецкая", "name_ru_place": "Ловецкая", "name_en_place": "Lovetskaya", "lines_1935": "西海岸線", "lines_1935_en": "West Coast Line (Nishikaigan-sen)", "km_1935": "西海岸線 4.3", "opened_year": 1920, "opened_date": "", "closed_year": null, "jp_operation_ended": null, "closed_note": "", "status": "no longer an active railway point", "coord_source": "ja.wikipedia station infobox", "coord_precision": "station", "position_confidence": "high", "position_note": "", "ja_wikipedia": "https://ja.wikipedia.org/wiki/%E9%81%A0%E7%AF%80%E9%A7%85"}, "geometry": {"type": "Point", "coordinates": [141.87547792005765, 46.70908892005767]}}, {"type": "Feature", "properties": {"fid": 43, "name_ja": "阿幸", "name_1935_printed": "阿幸", "name_kana": "おこう", "name_romaji": "Okō", "name_ru_station": "Ясноморский", "name_ru_place": "Ясноморский", "name_en_place": "Yasnomorsky", "lines_1935": "西海岸線", "lines_1935_en": "West Coast Line (Nishikaigan-sen)", "km_1935": "西海岸線 11.3", "opened_year": 1920, "opened_date": "", "closed_year": null, "jp_operation_ended": null, "closed_note": "", "status": "no longer an active railway point", "coord_source": "ja.wikipedia station infobox", "coord_precision": "station", "position_confidence": "high", "position_note": "", "ja_wikipedia": "https://ja.wikipedia.org/wiki/%E9%98%BF%E5%B9%B8%E9%A7%85"}, "geometry": {"type": "Point", "coordinates": [141.89789328340254, 46.7602557936563]}}, {"type": "Feature", "properties": {"fid": 44, "name_ja": "麻内", "name_1935_printed": "麻內", "name_kana": "あさない", "name_romaji": "Asanai", "name_ru_station": "Заветы Ильича", "name_ru_place": "Заветы Ильича", "name_en_place": "Zavety Ilicha", "lines_1935": "西海岸線", "lines_1935_en": "West Coast Line (Nishikaigan-sen)", "km_1935": "西海岸線 16.4", "opened_year": 1920, "opened_date": "", "closed_year": null, "jp_operation_ended": null, "closed_note": "", "status": "no longer an active railway point", "coord_source": "ja.wikipedia station infobox", "coord_precision": "station", "position_confidence": "high", "position_note": "", "ja_wikipedia": "https://ja.wikipedia.org/wiki/%E9%BA%BB%E5%86%85%E9%A7%85"}, "geometry": {"type": "Point", "coordinates": [141.91896707994235, 46.79943555959632]}}, {"type": "Feature", "properties": {"fid": 45, "name_ja": "知根平", "name_1935_printed": "知根平", "name_kana": "ちねひら", "name_romaji": "Chinehira", "name_ru_station": "Светляки", "name_ru_place": "Светляки", "name_en_place": "Svetlyaki", "lines_1935": "西海岸線", "lines_1935_en": "West Coast Line (Nishikaigan-sen)", "km_1935": "西海岸線 21.4", "opened_year": 1920, "opened_date": "", "closed_year": null, "jp_operation_ended": null, "closed_note": "1999年：旅客営業休止。", "status": "no longer an active railway point", "coord_source": "ja.wikipedia station infobox", "coord_precision": "station", "position_confidence": "high", "position_note": "", "ja_wikipedia": "https://ja.wikipedia.org/wiki/%E7%9F%A5%E6%A0%B9%E5%B9%B3%E9%A7%85"}, "geometry": {"type": "Point", "coordinates": [141.9400108822491, 46.841027363344864]}}, {"type": "Feature", "properties": {"fid": 46, "name_ja": "多蘭泊", "name_1935_printed": "多蘭泊", "name_kana": "たらんとまり", "name_romaji": "Tarantomari", "name_ru_station": "Калинино", "name_ru_place": "Калинино", "name_en_place": "Kalinino", "lines_1935": "西海岸線", "lines_1935_en": "West Coast Line (Nishikaigan-sen)", "km_1935": "西海岸線 25.4", "opened_year": 1920, "opened_date": "", "closed_year": null, "jp_operation_ended": null, "closed_note": "1999年：旅客営業休止。", "status": "no longer an active railway point", "coord_source": "ja.wikipedia station infobox", "coord_precision": "station", "position_confidence": "high", "position_note": "", "ja_wikipedia": "https://ja.wikipedia.org/wiki/%E5%A4%9A%E8%98%AD%E6%B3%8A%E9%A7%85"}, "geometry": {"type": "Point", "coordinates": [141.96174507994232, 46.87014671948097]}}, {"type": "Feature", "properties": {"fid": 47, "name_ja": "大穂泊", "name_1935_printed": "大穗泊", "name_kana": "おほとまり", "name_romaji": "Ohodomari", "name_ru_station": "Зырянская", "name_ru_place": "Зырянская", "name_en_place": "Zyryanskaya", "lines_1935": "西海岸線", "lines_1935_en": "West Coast Line (Nishikaigan-sen)", "km_1935": "西海岸線 31.0", "opened_year": 1920, "opened_date": "", "closed_year": null, "jp_operation_ended": null, "closed_note": "", "status": "no longer an active railway point", "coord_source": "ja.wikipedia station infobox", "coord_precision": "station", "position_confidence": "high", "position_note": "", "ja_wikipedia": "https://ja.wikipedia.org/wiki/%E5%A4%A7%E7%A9%82%E6%B3%8A%E9%A7%85"}, "geometry": {"type": "Point", "coordinates": [141.99230952034603, 46.908020680230685]}}, {"type": "Feature", "properties": {"fid": 48, "name_ja": "広地", "name_1935_printed": "廣地", "name_kana": "ひろち", "name_romaji": "Hirochi", "name_ru_station": "Правда", "name_ru_place": "Правда", "name_en_place": "Pravda", "lines_1935": "西海岸線", "lines_1935_en": "West Coast Line (Nishikaigan-sen)", "km_1935": "西海岸線 34.6", "opened_year": 1920, "opened_date": "", "closed_year": null, "jp_operation_ended": null, "closed_note": "", "status": "no longer an active railway point", "coord_source": "ja.wikipedia station infobox", "coord_precision": "station", "position_confidence": "high", "position_note": "", "ja_wikipedia": "https://ja.wikipedia.org/wiki/%E5%BA%83%E5%9C%B0%E9%A7%85"}, "geometry": {"type": "Point", "coordinates": [142.002543760173, 46.939045159884664]}}, {"type": "Feature", "properties": {"fid": 49, "name_ja": "明牛", "name_1935_printed": "明牛", "name_kana": "あけうし", "name_romaji": "Akeushi", "name_ru_station": "Серные Источники", "name_ru_place": "Серные Источники", "name_en_place": "Sernye Istochniki", "lines_1935": "西海岸線", "lines_1935_en": "West Coast Line (Nishikaigan-sen)", "km_1935": "西海岸線 39.9", "opened_year": 1920, "opened_date": "", "closed_year": null, "jp_operation_ended": null, "closed_note": "", "status": "no longer an active railway point", "coord_source": "ja.wikipedia station infobox", "coord_precision": "station", "position_confidence": "high", "position_note": "", "ja_wikipedia": "https://ja.wikipedia.org/wiki/%E6%98%8E%E7%89%9B%E9%A7%85"}, "geometry": {"type": "Point", "coordinates": [142.0192479636332, 46.98134545049594]}}, {"type": "Feature", "properties": {"fid": 50, "name_ja": "湯ノ沢", "name_1935_printed": "湯ノ澤", "name_kana": "ゆのさわ", "name_romaji": "Yunosawa", "name_ru_station": "", "name_ru_place": "Холмский городской округ", "name_en_place": "Kholmsk Urban Okrug", "lines_1935": "西海岸線", "lines_1935_en": "West Coast Line (Nishikaigan-sen)", "km_1935": "西海岸線 40.9", "opened_year": 1928, "opened_date": "", "closed_year": 1943, "jp_operation_ended": null, "closed_note": "1943年（昭和18年）4月1日：南樺太の内地化により、鉄道省に移管。同時に廃駅|駅廃止。", "status": "abolished 1943, before the end of Japanese rule", "coord_source": "interpolated by kilometrage, snapped to OSM railway alignment", "coord_precision": "interpolated", "position_confidence": "low", "position_note": "", "ja_wikipedia": "https://ja.wikipedia.org/wiki/%E6%B9%AF%E3%83%8E%E6%B2%A2%E9%A7%85"}, "geometry": {"type": "Point", "coordinates": [142.02240312351788, 46.99063516853516]}}, {"type": "Feature", "properties": {"fid": 51, "name_ja": "幌泊", "name_1935_printed": "幌泊", "name_kana": "ほろとまり", "name_romaji": "Horotomari", "name_ru_station": "Симаково", "name_ru_place": "Симаково", "name_en_place": "Simakovo", "lines_1935": "西海岸線", "lines_1935_en": "West Coast Line (Nishikaigan-sen)", "km_1935": "西海岸線 55.9", "opened_year": 1921, "opened_date": "1921年11月1日", "closed_year": null, "jp_operation_ended": 1946, "closed_note": "removed from Japanese railway records on 1 Feb 1946 (Soviet takeover); continued in Soviet/Russian use as Симаково", "status": "still an active railway point (OSM: Симаково)", "coord_source": "ja.wikipedia station infobox", "coord_precision": "station", "position_confidence": "high", "position_note": "", "ja_wikipedia": "https://ja.wikipedia.org/wiki/%E5%B9%8C%E6%B3%8A%E9%A7%85"}, "geometry": {"type": "Point", "coordinates": [142.05964411009577, 47.1115697920284]}}, {"type": "Feature", "properties": {"fid": 52, "name_ja": "楽磨", "name_1935_printed": "樂磨", "name_kana": "らくま", "name_romaji": "Rakuma", "name_ru_station": "Минеральная", "name_ru_place": "Минеральная", "name_en_place": "Mineralnaya", "lines_1935": "西海岸線", "lines_1935_en": "West Coast Line (Nishikaigan-sen)", "km_1935": "西海岸線 60.0", "opened_year": 1921, "opened_date": "1921年11月1日", "closed_year": null, "jp_operation_ended": 1946, "closed_note": "removed from Japanese railway records on 1 Feb 1946 (Soviet takeover); continued in Soviet/Russian use as Минеральная", "status": "still an active railway point (OSM: Минеральная)", "coord_source": "ja.wikipedia station infobox", "coord_precision": "station", "position_confidence": "high", "position_note": "", "ja_wikipedia": "https://ja.wikipedia.org/wiki/%E6%A5%BD%E7%A3%A8%E9%A7%85"}, "geometry": {"type": "Point", "coordinates": [142.059079479654, 47.1448274011534]}}, {"type": "Feature", "properties": {"fid": 53, "name_ja": "蘭泊", "name_1935_printed": "蘭泊", "name_kana": "らんどまり", "name_romaji": "Randomari", "name_ru_station": "Яблочная", "name_ru_place": "Яблочная", "name_en_place": "Yablochnaya", "lines_1935": "西海岸線", "lines_1935_en": "West Coast Line (Nishikaigan-sen)", "km_1935": "西海岸線 62.7", "opened_year": 1921, "opened_date": "1921年11月1日", "closed_year": null, "jp_operation_ended": 1946, "closed_note": "removed from Japanese railway records on 1 Feb 1946 (Soviet takeover); continued in Soviet/Russian use as Яблочная", "status": "still an active railway point (OSM: Яблочная)", "coord_source": "ja.wikipedia station infobox", "coord_precision": "station", "position_confidence": "high", "position_note": "", "ja_wikipedia": "https://ja.wikipedia.org/wiki/%E8%98%AD%E6%B3%8A%E9%A7%85"}, "geometry": {"type": "Point", "coordinates": [142.0579803600558, 47.169877923840176]}}, {"type": "Feature", "properties": {"fid": 54, "name_ja": "藻白帆", "name_1935_printed": "藻白帆", "name_kana": "もしらほ", "name_romaji": "Moshiraho", "name_ru_station": "Садовники", "name_ru_place": "Садовники", "name_en_place": "Sadovniki", "lines_1935": "西海岸線", "lines_1935_en": "West Coast Line (Nishikaigan-sen)", "km_1935": "西海岸線 66.5", "opened_year": 1921, "opened_date": "1921年11月1日", "closed_year": null, "jp_operation_ended": 1946, "closed_note": "removed from Japanese railway records on 1 Feb 1946 (Soviet takeover); continued in Soviet/Russian use as Садовники", "status": "still an active railway point (OSM: Садовники)", "coord_source": "ja.wikipedia station infobox", "coord_precision": "station", "position_confidence": "high", "position_note": "", "ja_wikipedia": "https://ja.wikipedia.org/wiki/%E8%97%BB%E7%99%BD%E5%B8%86%E9%A7%85"}, "geometry": {"type": "Point", "coordinates": [142.05014752214825, 47.199498981548196]}}, {"type": "Feature", "properties": {"fid": 55, "name_ja": "羽母舞", "name_1935_printed": "羽母舞", "name_kana": "はぼまい", "name_romaji": "Habomai", "name_ru_station": "Пионеры", "name_ru_place": "Пионеры", "name_en_place": "Pionery", "lines_1935": "西海岸線", "lines_1935_en": "West Coast Line (Nishikaigan-sen)", "km_1935": "西海岸線 73.5", "opened_year": 1921, "opened_date": "1921年11月1日", "closed_year": null, "jp_operation_ended": 1946, "closed_note": "removed from Japanese railway records on 1 Feb 1946 (Soviet takeover); continued in Soviet/Russian use as Пионеры", "status": "still an active railway point (OSM: Пионеры)", "coord_source": "ja.wikipedia station infobox", "coord_precision": "station", "position_confidence": "high", "position_note": "", "ja_wikipedia": "https://ja.wikipedia.org/wiki/%E7%BE%BD%E6%AF%8D%E8%88%9E%E9%A7%85"}, "geometry": {"type": "Point", "coordinates": [142.02260310451317, 47.25909140567108]}}, {"type": "Feature", "properties": {"fid": 56, "name_ja": "小能登呂", "name_1935_printed": "小能登呂", "name_kana": "このとろ", "name_romaji": "Konotoro", "name_ru_station": "Костромская", "name_ru_place": "Костромская", "name_en_place": "Kostromskaya", "lines_1935": "西海岸線", "lines_1935_en": "West Coast Line (Nishikaigan-sen)", "km_1935": "西海岸線 79.6", "opened_year": 1921, "opened_date": "1921年11月1日", "closed_year": null, "jp_operation_ended": 1946, "closed_note": "removed from Japanese railway records on 1 Feb 1946 (Soviet takeover); continued in Soviet/Russian use as Костромская", "status": "still an active railway point (OSM: Костромская)", "coord_source": "ja.wikipedia station infobox", "coord_precision": "station", "position_confidence": "high", "position_note": "", "ja_wikipedia": "https://ja.wikipedia.org/wiki/%E5%B0%8F%E8%83%BD%E7%99%BB%E5%91%82%E9%A7%85"}, "geometry": {"type": "Point", "coordinates": [142.021111, 47.3125]}}, {"type": "Feature", "properties": {"fid": 57, "name_ja": "仁多須", "name_1935_printed": "仁多須", "name_kana": "にたす", "name_romaji": "Nitasu", "name_ru_station": "Слюдянская-Сахалинская", "name_ru_place": "Служанская Сахалинская", "name_en_place": "Sluzhanskaya Sakhalinskaya", "lines_1935": "西海岸線", "lines_1935_en": "West Coast Line (Nishikaigan-sen)", "km_1935": "西海岸線 86.6", "opened_year": 1921, "opened_date": "", "closed_year": null, "jp_operation_ended": 1946, "closed_note": "removed from Japanese railway records on 1 Feb 1946 (Soviet takeover); continued in Soviet/Russian use as Слюдянская-Сахалинская", "status": "no longer an active railway point", "coord_source": "ja.wikipedia coordinate rejected as inconsistent with 1935 kilometrage; interpolated and snapped to OSM railway alignment", "coord_precision": "interpolated", "position_confidence": "low", "position_note": "kilometrage-based; ja.wikipedia gave 47.2214,142.0397 which is 17.1 km off the 1935 kilometrage", "ja_wikipedia": "https://ja.wikipedia.org/wiki/%E4%BB%81%E5%A4%9A%E9%A0%88%E9%A7%85"}, "geometry": {"type": "Point", "coordinates": [142.0116444705079, 47.352050267994194]}}, {"type": "Feature", "properties": {"fid": 58, "name_ja": "登富津", "name_1935_printed": "登富津", "name_kana": "とふつ", "name_romaji": "Tōbutsu", "name_ru_station": "Красноярская-Сахалинская", "name_ru_place": "Красноярская-Сахалинская", "name_en_place": "Krasnoyarskaya-Sakhalinskaya", "lines_1935": "西海岸線", "lines_1935_en": "West Coast Line (Nishikaigan-sen)", "km_1935": "西海岸線 89.8", "opened_year": 1921, "opened_date": "", "closed_year": null, "jp_operation_ended": 1946, "closed_note": "removed from Japanese railway records on 1 Feb 1946 (Soviet takeover); continued in Soviet/Russian use as Красноярская-Сахалинская", "status": "still an active railway point (OSM: Красноярская-Сахалинская)", "coord_source": "ja.wikipedia station infobox", "coord_precision": "station", "position_confidence": "high", "position_note": "", "ja_wikipedia": "https://ja.wikipedia.org/wiki/%E7%99%BB%E5%AF%8C%E6%B4%A5%E9%A7%85"}, "geometry": {"type": "Point", "coordinates": [141.98765814967788, 47.39824301067272]}}, {"type": "Feature", "properties": {"fid": 59, "name_ja": "野田", "name_1935_printed": "野田", "name_kana": "のだ", "name_romaji": "Noda", "name_ru_station": "Чехов-Сахалинский", "name_ru_place": "Чехов-Сахалинский", "name_en_place": "Chekhov-Sakhalinsky", "lines_1935": "西海岸線", "lines_1935_en": "West Coast Line (Nishikaigan-sen)", "km_1935": "西海岸線 94.9", "opened_year": 1921, "opened_date": "1921年11月1日", "closed_year": null, "jp_operation_ended": 1946, "closed_note": "removed from Japanese railway records on 1 Feb 1946 (Soviet takeover); continued in Soviet/Russian use as Чехов-Сахалинский", "status": "no longer an active railway point", "coord_source": "ja.wikipedia station infobox", "coord_precision": "station", "position_confidence": "high", "position_note": "", "ja_wikipedia": "https://ja.wikipedia.org/wiki/%E9%87%8E%E7%94%B0%E9%A7%85_%28%E6%A8%BA%E5%A4%AA%29"}, "geometry": {"type": "Point", "coordinates": [141.97590070265534, 47.439817319724284]}}, {"type": "Feature", "properties": {"fid": 60, "name_ja": "久良志", "name_1935_printed": "久良志", "name_kana": "くらし", "name_romaji": "Kurashi", "name_ru_station": "Байково", "name_ru_place": "Байково", "name_en_place": "Baykovo", "lines_1935": "西海岸線", "lines_1935_en": "West Coast Line (Nishikaigan-sen)", "km_1935": "西海岸線 100.2", "opened_year": 1930, "opened_date": "1930年6月15日", "closed_year": null, "jp_operation_ended": 1946, "closed_note": "removed from Japanese railway records on 1 Feb 1946 (Soviet takeover); continued in Soviet/Russian use as Байково", "status": "still an active railway point (OSM: Байково)", "coord_source": "ja.wikipedia station infobox", "coord_precision": "station", "position_confidence": "high", "position_note": "", "ja_wikipedia": "https://ja.wikipedia.org/wiki/%E4%B9%85%E8%89%AF%E5%BF%97%E9%A7%85"}, "geometry": {"type": "Point", "coordinates": [141.9636531895589, 47.48568045527976]}}, {"type": "Feature", "properties": {"fid": 61, "name_ja": "小岬", "name_1935_printed": "小岬", "name_kana": "こみさき", "name_romaji": "Komisaki", "name_ru_station": "Сергеево-Сахалинская", "name_ru_place": "Сергеево", "name_en_place": "Sergeevo", "lines_1935": "西海岸線", "lines_1935_en": "West Coast Line (Nishikaigan-sen)", "km_1935": "西海岸線 110.2", "opened_year": 1930, "opened_date": "", "closed_year": null, "jp_operation_ended": 1946, "closed_note": "removed from Japanese railway records on 1 Feb 1946 (Soviet takeover); continued in Soviet/Russian use as Сергеево-Сахалинская", "status": "no longer an active railway point", "coord_source": "ja.wikipedia station infobox", "coord_precision": "station", "position_confidence": "high", "position_note": "", "ja_wikipedia": "https://ja.wikipedia.org/wiki/%E5%B0%8F%E5%B2%AC%E9%A7%85"}, "geometry": {"type": "Point", "coordinates": [141.96195175521908, 47.569373935443664]}}, {"type": "Feature", "properties": {"fid": 62, "name_ja": "鵜巣", "name_1935_printed": "鵜巢", "name_kana": "うす", "name_romaji": "Usu", "name_ru_station": "", "name_ru_place": "Томаринский городской округ", "name_en_place": "Tomarinsky Urban Okrug", "lines_1935": "西海岸線", "lines_1935_en": "West Coast Line (Nishikaigan-sen)", "km_1935": "西海岸線 118.0", "opened_year": 1934, "opened_date": "", "closed_year": 1943, "jp_operation_ended": null, "closed_note": "1943年（昭和18年）4月1日：南樺太の内地化により、鉄道省に移管。同時に廃駅|駅廃止。", "status": "abolished 1943, before the end of Japanese rule", "coord_source": "interpolated by kilometrage, snapped to OSM railway alignment", "coord_precision": "interpolated", "position_confidence": "low", "position_note": "", "ja_wikipedia": "https://ja.wikipedia.org/wiki/%E9%B5%9C%E5%B7%A3%E9%A7%85"}, "geometry": {"type": "Point", "coordinates": [141.98054890093425, 47.63207747087252]}}, {"type": "Feature", "properties": {"fid": 63, "name_ja": "追手", "name_1935_printed": "追手", "name_kana": "おうて", "name_romaji": "Ōte", "name_ru_station": "Новосёлово-Сахалинское", "name_ru_place": "Новосёлово", "name_en_place": "Novosyolovo", "lines_1935": "西海岸線", "lines_1935_en": "West Coast Line (Nishikaigan-sen)", "km_1935": "西海岸線 121.2", "opened_year": 1930, "opened_date": "", "closed_year": null, "jp_operation_ended": 1946, "closed_note": "removed from Japanese railway records on 1 Feb 1946 (Soviet takeover); continued in Soviet/Russian use as Новосёлово-Сахалинское", "status": "still an active railway point (OSM: Новосёлово)", "coord_source": "ja.wikipedia station infobox", "coord_precision": "station", "position_confidence": "high", "position_note": "", "ja_wikipedia": "https://ja.wikipedia.org/wiki/%E8%BF%BD%E6%89%8B%E9%A7%85"}, "geometry": {"type": "Point", "coordinates": [141.99354926818032, 47.649061110712225]}}, {"type": "Feature", "properties": {"fid": 64, "name_ja": "杜門", "name_1935_printed": "杜門", "name_kana": "ともん", "name_romaji": "Tomon", "name_ru_station": "Урожайная", "name_ru_place": "Урожайная", "name_en_place": "Urozhainaya", "lines_1935": "西海岸線", "lines_1935_en": "West Coast Line (Nishikaigan-sen)", "km_1935": "西海岸線 128.8", "opened_year": 1930, "opened_date": "1930年11月1日", "closed_year": null, "jp_operation_ended": 1946, "closed_note": "removed from Japanese railway records on 1 Feb 1946 (Soviet takeover); continued in Soviet/Russian use as Урожайная", "status": "still an active railway point (OSM: Урожайная)", "coord_source": "ja.wikipedia station infobox", "coord_precision": "station", "position_confidence": "high", "position_note": "", "ja_wikipedia": "https://ja.wikipedia.org/wiki/%E6%9D%9C%E9%96%80%E9%A7%85"}, "geometry": {"type": "Point", "coordinates": [142.0131396613643, 47.70964487357313]}}, {"type": "Feature", "properties": {"fid": 65, "name_ja": "泊居", "name_1935_printed": "泊居", "name_kana": "とまりおる", "name_romaji": "Tomarioru", "name_ru_station": "Томари", "name_ru_place": "Томари", "name_en_place": "Tomari", "lines_1935": "西海岸線", "lines_1935_en": "West Coast Line (Nishikaigan-sen)", "km_1935": "西海岸線 137.2", "opened_year": 1930, "opened_date": "1930年11月1日", "closed_year": null, "jp_operation_ended": 1946, "closed_note": "removed from Japanese railway records on 1 Feb 1946 (Soviet takeover); continued in Soviet/Russian use as Томари", "status": "still an active railway point (OSM: Томари)", "coord_source": "ja.wikipedia station infobox", "coord_precision": "station", "position_confidence": "high", "position_note": "", "ja_wikipedia": "https://ja.wikipedia.org/wiki/%E6%B3%8A%E5%B1%85%E9%A7%85"}, "geometry": {"type": "Point", "coordinates": [142.07010094763075, 47.76407218319503]}}, {"type": "Feature", "properties": {"fid": 66, "name_ja": "新栄浜", "name_1935_printed": "新榮濱", "name_kana": "しんさかえはま", "name_romaji": "Shin-Sakaehama", "name_ru_station": "Ручьи", "name_ru_place": "Ручьи", "name_en_place": "Ruchi", "lines_1935": "樺太鉄道線", "lines_1935_en": "Karafuto Railway Line", "km_1935": "樺太鉄道線 93.9", "opened_year": 1927, "opened_date": "", "closed_year": null, "jp_operation_ended": null, "closed_note": "", "status": "no longer an active railway point", "coord_source": "ja.wikipedia station infobox", "coord_precision": "station", "position_confidence": "high", "position_note": "", "ja_wikipedia": "https://ja.wikipedia.org/wiki/%E6%96%B0%E6%A0%84%E6%B5%9C%E9%A7%85"}, "geometry": {"type": "Point", "coordinates": [142.73998356103806, 47.39152727907728]}}, {"type": "Feature", "properties": {"fid": 67, "name_ja": "北白鳥湖", "name_1935_printed": "北白鳥湖", "name_kana": "きたはくちょうこ", "name_romaji": "Kita-Hakuchōko", "name_ru_station": "Лебяжье", "name_ru_place": "Долинский городской округ", "name_en_place": "Dolinsky Urban Okrug", "lines_1935": "樺太鉄道線", "lines_1935_en": "Karafuto Railway Line", "km_1935": "樺太鉄道線 100.9", "opened_year": 1927, "opened_date": "", "closed_year": null, "jp_operation_ended": null, "closed_note": "", "status": "no longer an active railway point", "coord_source": "ja.wikipedia station infobox", "coord_precision": "station", "position_confidence": "high", "position_note": "", "ja_wikipedia": "https://ja.wikipedia.org/wiki/%E7%99%BD%E9%B3%A5%E6%B9%96%E9%A7%85"}, "geometry": {"type": "Point", "coordinates": [142.69599820562286, 47.44422738313154]}}, {"type": "Feature", "properties": {"fid": 68, "name_ja": "相浜", "name_1935_printed": "相濱", "name_kana": "あいはま", "name_romaji": "Aihama", "name_ru_station": "Советское", "name_ru_place": "Советское", "name_en_place": "Sovetskoe", "lines_1935": "樺太鉄道線", "lines_1935_en": "Karafuto Railway Line", "km_1935": "樺太鉄道線 107.5", "opened_year": 1927, "opened_date": "1927年11月20日", "closed_year": null, "jp_operation_ended": null, "closed_note": "", "status": "still an active railway point (OSM: Советское)", "coord_source": "ja.wikipedia station infobox", "coord_precision": "station", "position_confidence": "high", "position_note": "", "ja_wikipedia": "https://ja.wikipedia.org/wiki/%E7%9B%B8%E6%B5%9C%E9%A7%85"}, "geometry": {"type": "Point", "coordinates": [142.676111, 47.501944]}}, {"type": "Feature", "properties": {"fid": 69, "name_ja": "白浜", "name_1935_printed": "白濱", "name_kana": "しらはま", "name_romaji": "Shirahama", "name_ru_station": "Кирпичная", "name_ru_place": "Долинский городской округ", "name_en_place": "Dolinsky Urban Okrug", "lines_1935": "樺太鉄道線", "lines_1935_en": "Karafuto Railway Line", "km_1935": "樺太鉄道線 114.8", "opened_year": 1927, "opened_date": "", "closed_year": null, "jp_operation_ended": null, "closed_note": "", "status": "no longer an active railway point", "coord_source": "ja.wikipedia station infobox", "coord_precision": "station", "position_confidence": "high", "position_note": "", "ja_wikipedia": "https://ja.wikipedia.org/wiki/%E7%99%BD%E6%B5%9C%E9%A7%85_%28%E6%A8%BA%E5%A4%AA%29"}, "geometry": {"type": "Point", "coordinates": [142.63317684011537, 47.55853292005767]}}, {"type": "Feature", "properties": {"fid": 70, "name_ja": "小田寒", "name_1935_printed": "小田寒", "name_kana": "おださむ", "name_romaji": "Odasamu", "name_ru_station": "Фирсово", "name_ru_place": "Фирсово", "name_en_place": "Firsovo", "lines_1935": "樺太鉄道線", "lines_1935_en": "Karafuto Railway Line", "km_1935": "樺太鉄道線 126.9", "opened_year": 1927, "opened_date": "1927年11月20日", "closed_year": null, "jp_operation_ended": null, "closed_note": "", "status": "still an active railway point (OSM: Фирсово)", "coord_source": "ja.wikipedia station infobox", "coord_precision": "station", "position_confidence": "high", "position_note": "", "ja_wikipedia": "https://ja.wikipedia.org/wiki/%E5%B0%8F%E7%94%B0%E5%AF%92%E9%A7%85"}, "geometry": {"type": "Point", "coordinates": [142.56838475873127, 47.65343551746252]}}, {"type": "Feature", "properties": {"fid": 71, "name_ja": "真苫", "name_1935_printed": "眞苫", "name_kana": "まとま", "name_romaji": "Matoma", "name_ru_station": "Береговая", "name_ru_place": "Долинский городской округ", "name_en_place": "Dolinsky Urban Okrug", "lines_1935": "樺太鉄道線", "lines_1935_en": "Karafuto Railway Line", "km_1935": "樺太鉄道線 132.3", "opened_year": 1927, "opened_date": "", "closed_year": null, "jp_operation_ended": null, "closed_note": "", "status": "no longer an active railway point", "coord_source": "ja.wikipedia station infobox", "coord_precision": "station", "position_confidence": "high", "position_note": "", "ja_wikipedia": "https://ja.wikipedia.org/wiki/%E7%9C%9F%E8%8B%AB%E9%A7%85"}, "geometry": {"type": "Point", "coordinates": [142.54917072020186, 47.70004067914937]}}, {"type": "Feature", "properties": {"fid": 72, "name_ja": "保呂", "name_1935_printed": "保呂", "name_kana": "ほろ", "name_romaji": "Horo", "name_ru_station": "Дудино", "name_ru_place": "Долинский городской округ", "name_en_place": "Dolinsky Urban Okrug", "lines_1935": "樺太鉄道線", "lines_1935_en": "Karafuto Railway Line", "km_1935": "樺太鉄道線 138.8", "opened_year": 1927, "opened_date": "", "closed_year": null, "jp_operation_ended": null, "closed_note": "", "status": "no longer an active railway point", "coord_source": "ja.wikipedia station infobox", "coord_precision": "station", "position_confidence": "high", "position_note": "", "ja_wikipedia": "https://ja.wikipedia.org/wiki/%E4%BF%9D%E5%91%82%E9%A7%85"}, "geometry": {"type": "Point", "coordinates": [142.52806916060553, 47.75625091825549]}}, {"type": "Feature", "properties": {"fid": 73, "name_ja": "白浦", "name_1935_printed": "白浦", "name_kana": "しらうら", "name_romaji": "Shiraura", "name_ru_station": "Взморье", "name_ru_place": "Взморье", "name_en_place": "Vzmorye", "lines_1935": "樺太鉄道線", "lines_1935_en": "Karafuto Railway Line", "km_1935": "樺太鉄道線 149.3", "opened_year": 1927, "opened_date": "1927年11月20日", "closed_year": null, "jp_operation_ended": null, "closed_note": "", "status": "still an active railway point (OSM: Взморье)", "coord_source": "ja.wikipedia station infobox", "coord_precision": "station", "position_confidence": "high", "position_note": "", "ja_wikipedia": "https://ja.wikipedia.org/wiki/%E7%99%BD%E6%B5%A6%E9%A7%85"}, "geometry": {"type": "Point", "coordinates": [142.511667, 47.848611]}}, {"type": "Feature", "properties": {"fid": 74, "name_ja": "真縫", "name_1935_printed": "眞縫", "name_kana": "まぬい", "name_romaji": "Manui", "name_ru_station": "Арсентьевка", "name_ru_place": "Арсентьевка", "name_en_place": "Arsentyevka", "lines_1935": "樺太鉄道線", "lines_1935_en": "Karafuto Railway Line", "km_1935": "樺太鉄道線 159.1", "opened_year": 1927, "opened_date": "1927年11月20日", "closed_year": null, "jp_operation_ended": null, "closed_note": "", "status": "still an active railway point (OSM: Арсентьевка)", "coord_source": "ja.wikipedia station infobox", "coord_precision": "station", "position_confidence": "high", "position_note": "", "ja_wikipedia": "https://ja.wikipedia.org/wiki/%E7%9C%9F%E7%B8%AB%E9%A7%85"}, "geometry": {"type": "Point", "coordinates": [142.49029443896194, 47.90895763953864]}}, {"type": "Feature", "properties": {"fid": 75, "name_ja": "近幌", "name_1935_printed": "近幌", "name_kana": "ちかぽろ", "name_romaji": "Chikaporo", "name_ru_station": "Тихая", "name_ru_place": "Тихая", "name_en_place": "Tikhaya", "lines_1935": "樺太鉄道線", "lines_1935_en": "Karafuto Railway Line", "km_1935": "樺太鉄道線 174.2", "opened_year": 1927, "opened_date": "1927年11月20日", "closed_year": null, "jp_operation_ended": null, "closed_note": "", "status": "still an active railway point (OSM: Тихая)", "coord_source": "ja.wikipedia station infobox", "coord_precision": "station", "position_confidence": "high", "position_note": "", "ja_wikipedia": "https://ja.wikipedia.org/wiki/%E8%BF%91%E5%B9%8C%E9%A7%85"}, "geometry": {"type": "Point", "coordinates": [142.49949575873129, 48.02356024126874]}}, {"type": "Feature", "properties": {"fid": 76, "name_ja": "白石沢", "name_1935_printed": "白石澤", "name_kana": "しろいしざわ", "name_romaji": "Shiroishizawa", "name_ru_station": "Травянная", "name_ru_place": "Макаровский городской округ", "name_en_place": "Makarovsky Urban Okrug", "lines_1935": "樺太鉄道線", "lines_1935_en": "Karafuto Railway Line", "km_1935": "樺太鉄道線 192.4", "opened_year": 1927, "opened_date": "", "closed_year": null, "jp_operation_ended": null, "closed_note": "", "status": "no longer an active railway point", "coord_source": "ja.wikipedia station infobox", "coord_precision": "station", "position_confidence": "high", "position_note": "", "ja_wikipedia": "https://ja.wikipedia.org/wiki/%E7%99%BD%E7%9F%B3%E6%B2%A2%E9%A7%85"}, "geometry": {"type": "Point", "coordinates": [142.52814252034605, 48.15510559848616]}}, {"type": "Feature", "properties": {"fid": 77, "name_ja": "帆寄", "name_1935_printed": "帆寄", "name_kana": "ほよせ", "name_romaji": "Hoyose", "name_ru_station": "", "name_ru_place": "Макаровский городской округ", "name_en_place": "Makarovsky Urban Okrug", "lines_1935": "樺太鉄道線", "lines_1935_en": "Karafuto Railway Line", "km_1935": "樺太鉄道線 196.9", "opened_year": 1931, "opened_date": "", "closed_year": 1941, "jp_operation_ended": null, "closed_note": "1941年（昭和16年）4月1日：樺太鉄道の国有化と同時に廃駅|廃止。", "status": "abolished 1941, before the end of Japanese rule", "coord_source": "ja.wikipedia station infobox", "coord_precision": "station", "position_confidence": "high", "position_note": "", "ja_wikipedia": "https://ja.wikipedia.org/wiki/%E5%B8%86%E5%AF%84%E9%A7%85"}, "geometry": {"type": "Point", "coordinates": [142.55455739971165, 48.18639599855825]}}, {"type": "Feature", "properties": {"fid": 78, "name_ja": "馬群潭", "name_1935_printed": "馬群潭", "name_kana": "まぐんたん", "name_romaji": "Maguntan", "name_ru_station": "Пугачёво", "name_ru_place": "Пугачёво", "name_en_place": "Pugachyovo", "lines_1935": "樺太鉄道線", "lines_1935_en": "Karafuto Railway Line", "km_1935": "樺太鉄道線 199.3", "opened_year": 1927, "opened_date": "1927年11月20日", "closed_year": null, "jp_operation_ended": null, "closed_note": "", "status": "still an active railway point (OSM: Пугачёво)", "coord_source": "ja.wikipedia station infobox", "coord_precision": "station", "position_confidence": "high", "position_note": "", "ja_wikipedia": "https://ja.wikipedia.org/wiki/%E9%A6%AC%E7%BE%A4%E6%BD%AD%E9%A7%85"}, "geometry": {"type": "Point", "coordinates": [142.540278, 48.202222]}}, {"type": "Feature", "properties": {"fid": 79, "name_ja": "元泊", "name_1935_printed": "元泊", "name_kana": "もととまり", "name_romaji": "Mototomari", "name_ru_station": "Восточный", "name_ru_place": "Восточный", "name_en_place": "Vostochny", "lines_1935": "樺太鉄道線", "lines_1935_en": "Karafuto Railway Line", "km_1935": "樺太鉄道線 214.4", "opened_year": 1927, "opened_date": "1927年11月20日", "closed_year": null, "jp_operation_ended": null, "closed_note": "", "status": "still an active railway point (OSM: Восточный)", "coord_source": "ja.wikipedia station infobox", "coord_precision": "station", "position_confidence": "high", "position_note": "", "ja_wikipedia": "https://ja.wikipedia.org/wiki/%E5%85%83%E6%B3%8A%E9%A7%85"}, "geometry": {"type": "Point", "coordinates": [142.6225, 48.279167]}}, {"type": "Feature", "properties": {"fid": 80, "name_ja": "樫保", "name_1935_printed": "樫保", "name_kana": "かしほ", "name_romaji": "Kashiho", "name_ru_station": "Заозёрное-старое", "name_ru_place": "Макаровский городской округ", "name_en_place": "Makarovsky Urban Okrug", "lines_1935": "樺太鉄道線", "lines_1935_en": "Karafuto Railway Line", "km_1935": "樺太鉄道線 224.8", "opened_year": 1927, "opened_date": "", "closed_year": null, "jp_operation_ended": null, "closed_note": "", "status": "no longer an active railway point", "coord_source": "ja.wikipedia station infobox", "coord_precision": "station", "position_confidence": "high", "position_note": "", "ja_wikipedia": "https://ja.wikipedia.org/wiki/%E6%A8%AB%E4%BF%9D%E9%A7%85"}, "geometry": {"type": "Point", "coordinates": [142.668611, 48.358333]}}, {"type": "Feature", "properties": {"fid": 81, "name_ja": "北樫保", "name_1935_printed": "北樫保", "name_kana": "きたかしほ", "name_romaji": "Kita-Kashiho", "name_ru_station": "Угледарск", "name_ru_place": "Макаровский городской округ", "name_en_place": "Makarovsky Urban Okrug", "lines_1935": "樺太鉄道線", "lines_1935_en": "Karafuto Railway Line", "km_1935": "樺太鉄道線 229.2", "opened_year": 1930, "opened_date": "", "closed_year": null, "jp_operation_ended": null, "closed_note": "", "status": "no longer an active railway point", "coord_source": "ja.wikipedia station infobox", "coord_precision": "station", "position_confidence": "high", "position_note": "", "ja_wikipedia": "https://ja.wikipedia.org/wiki/%E5%8C%97%E6%A8%AB%E4%BF%9D%E9%A7%85"}, "geometry": {"type": "Point", "coordinates": [142.68321504357553, 48.385612526113015]}}, {"type": "Feature", "properties": {"fid": 82, "name_ja": "東礼文", "name_1935_printed": "東禮文", "name_kana": "ひがしれぶん", "name_romaji": "Higashi-Rebun", "name_ru_station": "Гребенская", "name_ru_place": "Гребенская", "name_en_place": "Grebenskaya", "lines_1935": "樺太鉄道線", "lines_1935_en": "Karafuto Railway Line", "km_1935": "樺太鉄道線 239.7", "opened_year": 1927, "opened_date": "", "closed_year": null, "jp_operation_ended": null, "closed_note": "", "status": "no longer an active railway point", "coord_source": "ja.wikipedia station infobox", "coord_precision": "station", "position_confidence": "high", "position_note": "", "ja_wikipedia": "https://ja.wikipedia.org/wiki/%E6%9D%B1%E7%A4%BC%E6%96%87%E9%A7%85"}, "geometry": {"type": "Point", "coordinates": [142.722734239827, 48.48804655959631]}}, {"type": "Feature", "properties": {"fid": 83, "name_ja": "北辰", "name_1935_printed": "北辰", "name_kana": "ほくしん", "name_romaji": "Hokushin", "name_ru_station": "Поречье", "name_ru_place": "Поречье", "name_en_place": "Porechye", "lines_1935": "樺太鉄道線", "lines_1935_en": "Karafuto Railway Line", "km_1935": "樺太鉄道線 249.7", "opened_year": 1927, "opened_date": "", "closed_year": null, "jp_operation_ended": null, "closed_note": "", "status": "still an active railway point (OSM: Поречье)", "coord_source": "ja.wikipedia station infobox", "coord_precision": "station", "position_confidence": "high", "position_note": "", "ja_wikipedia": "https://ja.wikipedia.org/wiki/%E9%81%A0%E5%8F%A4%E4%B8%B9%E9%A7%85"}, "geometry": {"type": "Point", "coordinates": [142.75815732012975, 48.572519519985576]}}, {"type": "Feature", "properties": {"fid": 84, "name_ja": "知取", "name_1935_printed": "知取", "name_kana": "しりとり", "name_romaji": "Shiritori", "name_ru_station": "Макаров", "name_ru_place": "Макаров", "name_en_place": "Makarov", "lines_1935": "樺太鉄道線", "lines_1935_en": "Karafuto Railway Line", "km_1935": "樺太鉄道線 255.3", "opened_year": 1927, "opened_date": "1927年11月20日", "closed_year": null, "jp_operation_ended": null, "closed_note": "", "status": "still an active railway point (OSM: Макаров)", "coord_source": "ja.wikipedia station infobox", "coord_precision": "station", "position_confidence": "high", "position_note": "", "ja_wikipedia": "https://ja.wikipedia.org/wiki/%E7%9F%A5%E5%8F%96%E9%A7%85"}, "geometry": {"type": "Point", "coordinates": [142.786111, 48.619722]}}, {"type": "Feature", "properties": {"fid": 85, "name_ja": "柵丹", "name_1935_printed": "柵丹", "name_kana": "さくたん", "name_romaji": "Sakutan", "name_ru_station": "Туманово", "name_ru_place": "Туманово", "name_en_place": "Tumanovo", "lines_1935": "樺太鉄道線", "lines_1935_en": "Karafuto Railway Line", "km_1935": "樺太鉄道線 267.7", "opened_year": 1930, "opened_date": "1930年11月3日", "closed_year": null, "jp_operation_ended": null, "closed_note": "", "status": "still an active railway point (OSM: Туманово)", "coord_source": "ja.wikipedia station infobox", "coord_precision": "station", "position_confidence": "high", "position_note": "", "ja_wikipedia": "https://ja.wikipedia.org/wiki/%E6%9F%B5%E4%B8%B9%E9%A7%85"}, "geometry": {"type": "Point", "coordinates": [142.835278, 48.724722]}}, {"type": "Feature", "properties": {"fid": 86, "name_ja": "大鵜取", "name_1935_printed": "大鵜取", "name_kana": "おおうとる", "name_romaji": "Ōutoru", "name_ru_station": "ст. Марково", "name_ru_place": "Поронайский городской округ", "name_en_place": "Poronaysky Urban Okrug", "lines_1935": "樺太鉄道線", "lines_1935_en": "Karafuto Railway Line", "km_1935": "樺太鉄道線 277.1", "opened_year": 1930, "opened_date": "1930年11月3日", "closed_year": null, "jp_operation_ended": null, "closed_note": "", "status": "no longer an active railway point", "coord_source": "ja.wikipedia station infobox", "coord_precision": "station", "position_confidence": "high", "position_note": "", "ja_wikipedia": "https://ja.wikipedia.org/wiki/%E5%A4%A7%E9%B5%9C%E5%8F%96%E9%A7%85"}, "geometry": {"type": "Point", "coordinates": [142.888889, 48.797778]}}, {"type": "Feature", "properties": {"fid": 87, "name_ja": "茂受", "name_1935_printed": "茂受", "name_kana": "もうけ", "name_romaji": "Mōke", "name_ru_station": "Морянка", "name_ru_place": "Поронайский городской округ", "name_en_place": "Poronaysky Urban Okrug", "lines_1935": "樺太鉄道線", "lines_1935_en": "Karafuto Railway Line", "km_1935": "樺太鉄道線 282.3", "opened_year": 1930, "opened_date": "", "closed_year": null, "jp_operation_ended": null, "closed_note": "", "status": "no longer an active railway point", "coord_source": "ja.wikipedia station infobox", "coord_precision": "station", "position_confidence": "high", "position_note": "", "ja_wikipedia": "https://ja.wikipedia.org/wiki/%E8%8C%82%E5%8F%97%E9%A7%85"}, "geometry": {"type": "Point", "coordinates": [142.9134712790773, 48.8421175988466]}}, {"type": "Feature", "properties": {"fid": 88, "name_ja": "南新問", "name_1935_printed": "南新問", "name_kana": "みなみにいとい", "name_romaji": "Minami-Niitoi", "name_ru_station": "Новое", "name_ru_place": "Новое", "name_en_place": "Novoye", "lines_1935": "樺太鉄道線", "lines_1935_en": "Karafuto Railway Line", "km_1935": "樺太鉄道線 287.3", "opened_year": 1930, "opened_date": "1930年11月3日", "closed_year": null, "jp_operation_ended": null, "closed_note": "", "status": "still an active railway point (OSM: Новое)", "coord_source": "ja.wikipedia station infobox", "coord_precision": "station", "position_confidence": "high", "position_note": "", "ja_wikipedia": "https://ja.wikipedia.org/wiki/%E6%96%B0%E5%95%8F%E9%A7%85"}, "geometry": {"type": "Point", "coordinates": [142.94118907994235, 48.88345484011534]}}, {"type": "Feature", "properties": {"fid": 89, "name_ja": "江ノ浦", "name_1935_printed": "江ノ浦", "name_kana": "えのうら", "name_romaji": "Enoura", "name_ru_station": "Озерецкое", "name_ru_place": "Озерецкое", "name_en_place": "Ozeretskoye", "lines_1935": "南樺鉄道線", "lines_1935_en": "Nanka Railway Line", "km_1935": "南樺鉄道線 9.7", "opened_year": 1926, "opened_date": "", "closed_year": 1993, "jp_operation_ended": null, "closed_note": "", "status": "closed 1993", "coord_source": "ja.wikipedia station infobox", "coord_precision": "station", "position_confidence": "high", "position_note": "", "ja_wikipedia": "https://ja.wikipedia.org/wiki/%E6%B1%9F%E3%83%8E%E6%B5%A6%E9%A7%85"}, "geometry": {"type": "Point", "coordinates": [142.6390322157071, 46.73112425321243]}}, {"type": "Feature", "properties": {"fid": 90, "name_ja": "浜路", "name_1935_printed": "濱路", "name_kana": "はまじ", "name_romaji": "Hamaji", "name_ru_station": "", "name_ru_place": "Песчанское", "name_en_place": "Peschanskoye", "lines_1935": "南樺鉄道線", "lines_1935_en": "Nanka Railway Line", "km_1935": "南樺鉄道線 13.2", "opened_year": 1926, "opened_date": "", "closed_year": null, "jp_operation_ended": null, "closed_note": "1993年 - 運行休止。", "status": "no longer an active railway point", "coord_source": "ja.wikipedia station infobox", "coord_precision": "station", "position_confidence": "high", "position_note": "", "ja_wikipedia": "https://ja.wikipedia.org/wiki/%E6%BF%B1%E8%B7%AF%E9%A7%85"}, "geometry": {"type": "Point", "coordinates": [142.59460757978079, 46.72477441124565]}}, {"type": "Feature", "properties": {"fid": 91, "name_ja": "浜路公園", "name_1935_printed": "濱路公園", "name_kana": "はまじこうえん", "name_romaji": "Hamaji Kōen", "name_ru_station": "Новопесчанское", "name_ru_place": "Новопесчанское", "name_en_place": "Novopeschanskoye", "lines_1935": "南樺鉄道線", "lines_1935_en": "Nanka Railway Line", "km_1935": "南樺鉄道線 15.7", "opened_year": 1926, "opened_date": "", "closed_year": null, "jp_operation_ended": null, "closed_note": "1993年 - 運行休止。", "status": "no longer an active railway point", "coord_source": "ja.wikipedia station infobox", "coord_precision": "station", "position_confidence": "high", "position_note": "", "ja_wikipedia": "https://ja.wikipedia.org/wiki/%E6%BF%B1%E8%B7%AF%E5%85%AC%E5%9C%92%E9%A7%85"}, "geometry": {"type": "Point", "coordinates": [142.56391802090536, 46.72137936226354]}}, {"type": "Feature", "properties": {"fid": 92, "name_ja": "留多加", "name_1935_printed": "留多加", "name_kana": "るうたか", "name_romaji": "Rūtaka", "name_ru_station": "Анива", "name_ru_place": "Анива", "name_en_place": "Aniva", "lines_1935": "南樺鉄道線", "lines_1935_en": "Nanka Railway Line", "km_1935": "南樺鉄道線 18.6", "opened_year": 1926, "opened_date": "1926年10月1日", "closed_year": 1993, "jp_operation_ended": null, "closed_note": "1993年 - 廃止。", "status": "closed 1993", "coord_source": "ja.wikipedia station infobox", "coord_precision": "station", "position_confidence": "high", "position_note": "", "ja_wikipedia": "https://ja.wikipedia.org/wiki/%E7%95%99%E5%A4%9A%E5%8A%A0%E9%A7%85"}, "geometry": {"type": "Point", "coordinates": [142.5307625239504, 46.7127630028835]}}, {"type": "Feature", "properties": {"fid": 93, "name_ja": "吐鯤保", "name_1935_printed": "吐鯤保", "name_kana": "とこんぼ", "name_romaji": "Tokombo", "name_ru_station": "", "name_ru_place": "Казакевичи", "name_en_place": "Kazakevichi", "lines_1935": "南樺太炭礦鉄道線", "lines_1935_en": "South Karafuto Coal-Mining Railway Line", "km_1935": "南樺太炭礦鉄道線 2.5", "opened_year": 1931, "opened_date": "", "closed_year": null, "jp_operation_ended": null, "closed_note": "", "status": "no longer an active railway point", "coord_source": "ja.wikipedia station infobox", "coord_precision": "station", "position_confidence": "high", "position_note": "", "ja_wikipedia": "https://ja.wikipedia.org/wiki/%E5%90%90%E9%AF%A4%E4%BF%9D%E9%A7%85"}, "geometry": {"type": "Point", "coordinates": [141.85806299855827, 46.65287251890427]}}, {"type": "Feature", "properties": {"fid": 94, "name_ja": "気主", "name_1935_printed": "氣主", "name_kana": "けぬし", "name_romaji": "Kenushi", "name_ru_station": "", "name_ru_place": "Лопатино", "name_en_place": "Lopatino", "lines_1935": "南樺太炭礦鉄道線", "lines_1935_en": "South Karafuto Coal-Mining Railway Line", "km_1935": "南樺太炭礦鉄道線 9.7", "opened_year": 1931, "opened_date": "", "closed_year": null, "jp_operation_ended": null, "closed_note": "", "status": "no longer an active railway point", "coord_source": "ja.wikipedia station infobox", "coord_precision": "station", "position_confidence": "high", "position_note": "", "ja_wikipedia": "https://ja.wikipedia.org/wiki/%E6%B0%97%E4%B8%BB%E9%A7%85"}, "geometry": {"type": "Point", "coordinates": [141.81516560028837, 46.601467079942324]}}, {"type": "Feature", "properties": {"fid": 95, "name_ja": "北内幌", "name_1935_printed": "北內幌", "name_kana": "きたないほろ", "name_romaji": "Kita-Naihoro", "name_ru_station": "", "name_ru_place": "Придорожное", "name_en_place": "Pridorozhnoye", "lines_1935": "南樺太炭礦鉄道線", "lines_1935_en": "South Karafuto Coal-Mining Railway Line", "km_1935": "南樺太炭礦鉄道線 13.6", "opened_year": 1934, "opened_date": "", "closed_year": null, "jp_operation_ended": null, "closed_note": "", "status": "no longer an active railway point", "coord_source": "ja.wikipedia station infobox", "coord_precision": "station", "position_confidence": "high", "position_note": "", "ja_wikipedia": "https://ja.wikipedia.org/wiki/%E5%8C%97%E5%86%85%E5%B9%8C%E9%A7%85"}, "geometry": {"type": "Point", "coordinates": [141.8233034722185, 46.570018510595936]}}, {"type": "Feature", "properties": {"fid": 96, "name_ja": "内幌", "name_1935_printed": "內幌", "name_kana": "ないほろ", "name_romaji": "Naihoro", "name_ru_station": "Горнозаводск", "name_ru_place": "Горнозаводск", "name_en_place": "Gornozavodsk", "lines_1935": "南樺太炭礦鉄道線", "lines_1935_en": "South Karafuto Coal-Mining Railway Line", "km_1935": "南樺太炭礦鉄道線 14.5", "opened_year": 1931, "opened_date": "", "closed_year": null, "jp_operation_ended": null, "closed_note": "", "status": "still an active railway point (OSM: Горнозаводск)", "coord_source": "ja.wikipedia station infobox", "coord_precision": "station", "position_confidence": "high", "position_note": "", "ja_wikipedia": "https://ja.wikipedia.org/wiki/%E5%86%85%E5%B9%8C%E9%A7%85"}, "geometry": {"type": "Point", "coordinates": [141.8319689733178, 46.56744659999554]}}, {"type": "Feature", "properties": {"fid": 97, "name_ja": "内幌炭山", "name_1935_printed": "內幌炭山", "name_kana": "ないほろたんざん", "name_romaji": "Naihoro Tanzan", "name_ru_station": "Шахта-Сахалинская", "name_ru_place": "Шахта-Сахалинская", "name_en_place": "Shakhta-Sakhalinskaya", "lines_1935": "南樺太炭礦鉄道線", "lines_1935_en": "South Karafuto Coal-Mining Railway Line", "km_1935": "南樺太炭礦鉄道線 16.3", "opened_year": 1931, "opened_date": "1931年12月1日", "closed_year": null, "jp_operation_ended": null, "closed_note": "", "status": "still an active railway point (OSM: Шахта-Сахалинская)", "coord_source": "ja.wikipedia station infobox", "coord_precision": "station", "position_confidence": "high", "position_note": "", "ja_wikipedia": "https://ja.wikipedia.org/wiki/%E5%86%85%E5%B9%8C%E7%82%AD%E5%B1%B1%E9%A7%85"}, "geometry": {"type": "Point", "coordinates": [141.84477408385996, 46.55503188916507]}}]}