{
"type": "FeatureCollection",
"name": "burma-railway-lines-1930",
"crs": { "type": "name", "properties": { "name": "urn:ogc:def:crs:OGC:1.3:CRS84" } },
"features": [
{ "type": "Feature", "properties": { "fid": 1 }, "geometry": { "type": "MultiLineString", "coordinates": [ [ [ 97.430178571550925, 25.408573569652212 ], [ 97.312746338287397, 25.456046174588533 ], [ 97.24778382626927, 25.45354761643399 ], [ 97.192815546869326, 25.4135706859613 ], [ 97.130351593005756, 25.383587988106783 ], [ 97.05539484836946, 25.37359375548861 ], [ 96.950455405878643, 25.383587988106783 ], [ 96.90797991725141, 25.358602406561349 ], [ 96.880495777551445, 25.323622592397747 ], [ 96.803040474760607, 25.253662964070539 ], [ 96.748072195360649, 25.226178824370567 ], [ 96.695602474115248, 25.183703335743331 ], [ 96.660622659951642, 25.158717754197902 ], [ 96.605654380551698, 25.116242265570673 ], [ 96.583167357160818, 25.056276869861637 ], [ 96.538193310379043, 25.011302823079863 ], [ 96.493219263597268, 24.976323008916257 ], [ 96.458239449433663, 24.95383598552537 ], [ 96.37578703033374, 24.85639221749819 ], [ 96.315821634624712, 24.771441240243725 ], [ 96.240864889988416, 24.673997472216541 ], [ 96.243363448142958, 24.604037843889333 ], [ 96.253357680761127, 24.521585424789414 ], [ 96.253357680761127, 24.469115703544006 ], [ 96.250859122606556, 24.374170493671372 ], [ 96.223374982906591, 24.304210865344164 ], [ 96.133426889343042, 24.244245469635132 ], [ 96.095948517024894, 24.209265655471526 ], [ 96.075960051788542, 24.141804585298864 ], [ 96.015994656079513, 24.05435504988985 ], [ 95.961026376679555, 23.994389654180814 ], [ 95.891066748352358, 23.959409840017209 ], [ 95.8360984689524, 23.946917049244494 ], [ 95.776133073243372, 23.939421374780864 ], [ 95.748648933543393, 23.934424258471779 ], [ 95.731159026461597, 23.894447327999089 ], [ 95.698677770452534, 23.814493467053715 ], [ 95.676190747061653, 23.76202374580831 ], [ 95.676190747061653, 23.662081419626585 ], [ 95.691182095988907, 23.59212179129938 ], [ 95.673692188907097, 23.502173697735824 ], [ 95.613726793198069, 23.419721278635901 ], [ 95.571251304570836, 23.372248673699584 ], [ 95.566254188261752, 23.319778952454179 ], [ 95.581245537189005, 23.242323649663341 ], [ 95.588741211652632, 23.159871230563422 ], [ 95.588741211652632, 23.097407276699844 ], [ 95.603732560579886, 23.019951973909006 ], [ 95.60872967688897, 22.949992345581798 ], [ 95.631216700279879, 22.817568763391016 ], [ 95.661199398134386, 22.730119227982009 ], [ 95.676190747061653, 22.627678343645741 ], [ 95.688683537834365, 22.560217273473075 ], [ 95.708672003070703, 22.445283598364092 ], [ 95.748648933543393, 22.352836946645997 ], [ 95.803617212943337, 22.287874434627877 ], [ 95.848591259725112, 22.227909038918842 ], [ 95.87607539942509, 22.172940759518895 ], [ 95.901060980970527, 22.018030153937222 ], [ 95.931043678825048, 21.945571967455471 ] ] ] } },
{ "type": "Feature", "properties": { "fid": 2 }, "geometry": { "type": "MultiLineString", "coordinates": [ [ [ 95.931043678825048, 21.945571967455471 ], [ 95.843594143416041, 22.013033037628134 ], [ 95.693680654143449, 22.015531595782679 ], [ 95.56375563010721, 22.003038805009961 ], [ 95.441326280534597, 21.988047456082704 ], [ 95.356375303280132, 22.008035921319049 ], [ 95.296409907571089, 22.063004200718996 ], [ 95.22395172108935, 22.155450852437092 ], [ 95.173980557998476, 22.230407597073384 ], [ 95.171481999843934, 22.282877318318789 ], [ 95.203963255852997, 22.355335504800539 ], [ 95.226450279243878, 22.387816760809599 ], [ 95.223951721089335, 22.490257645145867 ], [ 95.22894883739842, 22.570211506091248 ], [ 95.231447395552962, 22.64516825072754 ], [ 95.266427209716568, 22.705133646436575 ], [ 95.3089026983438, 22.760101925836523 ], [ 95.35887386143466, 22.797580298154671 ], [ 95.423836373452787, 22.837557228627361 ] ] ] } },
{ "type": "Feature", "properties": { "fid": 3 }, "geometry": { "type": "MultiLineString", "coordinates": [ [ [ 95.931043678825048, 21.945571967455471 ], [ 96.016951135373034, 21.921982064879177 ], [ 96.056928065845725, 21.90699071595192 ], [ 96.076916531082077, 21.824538296851998 ], [ 96.114394903400225, 21.734590203288445 ], [ 96.124389136018394, 21.669627691270325 ], [ 96.144377601254732, 21.574682481397687 ], [ 96.141879043100218, 21.369800712725151 ], [ 96.10440067078207, 21.214890107143479 ], [ 96.074417972927534, 21.047486710789094 ], [ 96.064423740309365, 20.925057361216481 ], [ 96.06442374030938, 20.752656848553009 ], [ 96.114394903400239, 20.577757777734991 ], [ 96.149374717563845, 20.495305358635068 ], [ 96.159368950182014, 20.417850055844234 ], [ 96.209340113272873, 20.345391869362484 ], [ 96.221832904045598, 20.260440892108019 ], [ 96.23432569481831, 20.125518751762687 ], [ 96.264308392672831, 20.003089402190078 ], [ 96.274302625291, 19.90814419231744 ], [ 96.251815601900105, 19.790711959053912 ], [ 96.291792532372781, 19.60831721377226 ], [ 96.311780997609119, 19.455905166345133 ], [ 96.326772346536387, 19.328478700463432 ], [ 96.376743509627246, 19.231034932436252 ], [ 96.426714672718106, 19.123596931790896 ], [ 96.446703137954458, 19.006164698527371 ], [ 96.509167091818043, 18.728824743373085 ], [ 96.549144022290733, 18.468974695300602 ], [ 96.591619510917965, 18.319061206028017 ], [ 96.674071930017888, 18.176643391219059 ], [ 96.774014256199607, 18.004242878555583 ], [ 96.821486861135924, 17.906799110528404 ], [ 96.808994070363212, 17.806856784346678 ], [ 96.751527232808726, 17.661940411383181 ], [ 96.67657048817243, 17.604473573828688 ], [ 96.609109417999761, 17.537012503656026 ], [ 96.546645464136191, 17.472049991637906 ], [ 96.53914978967255, 17.39709324700161 ], [ 96.529155557054381, 17.2921538045108 ], [ 96.504169975508958, 17.144738873392757 ], [ 96.404227649327225, 16.987329709656542 ], [ 96.379242067781803, 16.932361430256591 ], [ 96.329270904690929, 16.834917662229412 ], [ 96.269305508981901, 16.779949382829464 ], [ 96.23932281112738, 16.764958033902204 ] ] ] } },
{ "type": "Feature", "properties": { "fid": 4 }, "geometry": { "type": "MultiLineString", "coordinates": [ [ [ 96.541648347827092, 17.377104781765265 ], [ 96.586622394608881, 17.314640827901687 ], [ 96.629097883236113, 17.224692734338138 ], [ 96.654083464781536, 17.097266268456437 ], [ 96.656582022936078, 16.952349895492937 ], [ 96.624100766927015, 16.844911894847584 ], [ 96.581625278299782, 16.744969568665859 ], [ 96.549144022290733, 16.690001289265911 ] ] ] } },
{ "type": "Feature", "properties": { "fid": 5 }, "geometry": { "type": "MultiLineString", "coordinates": [ [ [ 96.55663969675436, 17.374606223610723 ], [ 96.634094999545198, 17.409586037774329 ], [ 96.706553186026937, 17.487041340565163 ], [ 96.76651858173598, 17.512026922110593 ], [ 96.818988302981381, 17.497035573183336 ], [ 96.89644360577222, 17.474548549792448 ], [ 96.968901792253973, 17.407087479619783 ], [ 97.048855653199354, 17.314640827901687 ], [ 97.156293653844699, 17.21969561802905 ], [ 97.233748956635537, 17.172223013092733 ], [ 97.27622444526277, 17.107260501074609 ], [ 97.283720119726397, 16.989828267811085 ], [ 97.296212910499108, 16.914871523174792 ], [ 97.348682631744524, 16.819926313302155 ], [ 97.438630725308059, 16.699995521884084 ], [ 97.496097562862559, 16.630035893556876 ], [ 97.543570167798876, 16.570070497847841 ] ] ] } },
{ "type": "Feature", "properties": { "fid": 6 }, "geometry": { "type": "MultiLineString", "coordinates": [ [ [ 97.646011052135123, 16.467629613511573 ], [ 97.656005284753292, 16.340203147629875 ], [ 97.673495191835102, 16.202782449130002 ], [ 97.670996633680559, 16.082851657711934 ], [ 97.683489424453271, 15.995402122302925 ], [ 97.725964913080503, 15.94293240105752 ], [ 97.770938959862278, 15.910451145048459 ], [ 97.785930308789546, 15.800514586248562 ], [ 97.793425983253172, 15.673088120366865 ], [ 97.798423099562257, 15.530670305557907 ], [ 97.828405797416778, 15.428229421221639 ], [ 97.875878402353095, 15.313295746112656 ], [ 97.905861100207602, 15.263324583021793 ] ] ] } },
{ "type": "Feature", "properties": { "fid": 7 }, "geometry": { "type": "MultiLineString", "coordinates": [ [ [ 96.226000420967438, 16.80339776551028 ], [ 96.216006188349269, 16.868360277528399 ], [ 96.191020606803832, 16.924577836005618 ], [ 96.139800164635702, 16.998285301564643 ], [ 96.12730737386299, 17.033265115728245 ], [ 96.118562420322078, 17.164439418841759 ], [ 96.086081164313029, 17.253138233328038 ], [ 96.039857838453983, 17.333092094273418 ], [ 95.966150372894958, 17.423040187836971 ], [ 95.916179209804099, 17.47301135092783 ], [ 95.87745155840868, 17.552965211873211 ], [ 95.861210930404141, 17.62417411927769 ], [ 95.823732558085979, 17.80157174825025 ], [ 95.818735441776894, 17.896516958122888 ], [ 95.792500581154187, 18.055175400936378 ], [ 95.76751499960875, 18.22382807636804 ], [ 95.703801766667908, 18.382486519181526 ], [ 95.633842138340697, 18.473683891822347 ], [ 95.565131789090771, 18.594863962317689 ], [ 95.486427207222661, 18.734783218972105 ], [ 95.412719741663622, 18.792250056526594 ], [ 95.354003625031851, 18.805992126376584 ] ] ] } },
{ "type": "Feature", "properties": { "fid": 8 }, "geometry": { "type": "MultiLineString", "coordinates": [ [ [ 95.82225391917811, 17.801845028048408 ], [ 95.739801500078187, 17.774360888348433 ], [ 95.699824569605497, 17.726888283412116 ], [ 95.662346197287349, 17.689409911093968 ], [ 95.599882243423778, 17.66692288770308 ], [ 95.534919731405651, 17.599461817530418 ], [ 95.449968754151186, 17.564482003366813 ], [ 95.372513451360348, 17.527003631048668 ], [ 95.272571125178615, 17.412069955939682 ], [ 95.220101403933214, 17.314626187912502 ], [ 95.182623031615066, 17.232173768812579 ], [ 95.180124473460523, 17.142225675249026 ], [ 95.170130240842354, 17.047280465376389 ], [ 95.105167728824227, 16.9148568831856 ], [ 95.015219635260678, 16.837401580394765 ], [ 94.930268658006213, 16.77743618468573 ], [ 94.837822006288121, 16.767441952067557 ] ] ] } },
{ "type": "Feature", "properties": { "fid": 9 }, "geometry": { "type": "MultiLineString", "coordinates": [ [ [ 95.594885127114679, 17.664424329548531 ], [ 95.537418289560179, 17.706899818175764 ], [ 95.427481730760292, 17.714395492639394 ], [ 95.375012009514876, 17.739381074184823 ], [ 95.362519218742165, 17.839323400366549 ], [ 95.375012009514876, 18.02421670380274 ], [ 95.404994707369397, 18.179127309384413 ], [ 95.404994707369397, 18.261579728484335 ] ] ] } },
{ "type": "Feature", "properties": { "fid": 10 }, "geometry": { "type": "MultiLineString", "coordinates": [ [ [ 96.246354885933414, 19.768932535140376 ], [ 96.193885164687998, 19.698972906813172 ], [ 96.118928420051702, 19.661494534495024 ], [ 95.961519256315498, 19.681482999731369 ], [ 95.806608650733821, 19.758938302522203 ], [ 95.689176417470293, 19.881367652094816 ], [ 95.654196603306687, 20.046272490294662 ], [ 95.554254277124969, 20.22866723557631 ], [ 95.506781672188652, 20.361090817767096 ], [ 95.441819160170525, 20.506007190730596 ], [ 95.331882601370623, 20.605949516912318 ], [ 95.244433065961616, 20.673410587084984 ], [ 95.134496507161714, 20.89328370468478 ] ] ] } },
{ "type": "Feature", "properties": { "fid": 11 }, "geometry": { "type": "MultiLineString", "coordinates": [ [ [ 96.990925215987232, 20.835816867130287 ], [ 96.913469913196394, 20.778350029575797 ], [ 96.816026145169218, 20.733375982794019 ], [ 96.693596795596605, 20.723381750175847 ], [ 96.628634283578478, 20.693399052321329 ], [ 96.553677538942196, 20.658419238157727 ], [ 96.476222236151358, 20.653422121848642 ], [ 96.371282793660541, 20.725880308330392 ], [ 96.25135200224247, 20.825822634512114 ], [ 96.123925536360773, 20.888286588375692 ], [ 96.066458698806287, 20.898280820993865 ], [ 95.984006279706364, 20.890785146530238 ], [ 95.891559627988272, 20.880790913912065 ], [ 95.784121627342913, 20.98323179824833 ], [ 95.714161999015701, 21.085672682584597 ], [ 95.621715347297609, 21.205603474002668 ], [ 95.541761486352229, 21.24058328816627 ], [ 95.471801858025017, 21.283058776793503 ], [ 95.404340787852362, 21.373006870357052 ], [ 95.389349438925095, 21.465453522075148 ], [ 95.389349438925095, 21.490439103620581 ], [ 95.444317718325053, 21.502931894393296 ], [ 95.536764370043144, 21.50792901070238 ], [ 95.654196603306673, 21.510427568856926 ], [ 95.706666324552074, 21.517923243320553 ], [ 95.704167766397532, 21.602874220575018 ], [ 95.749141813179307, 21.667836732593141 ], [ 95.736649022406596, 21.747790593538522 ], [ 95.766631720261117, 21.800260314783927 ], [ 95.851582697515582, 21.837738687102075 ], [ 95.931536558460962, 21.840237245256617 ], [ 96.016487535715427, 21.862724268647504 ], [ 96.061461582497202, 21.862724268647504 ] ] ] } },
{ "type": "Feature", "properties": { "fid": 12 }, "geometry": { "type": "MultiLineString", "coordinates": [ [ [ 96.106435629278977, 22.232510875519885 ], [ 96.08145004773354, 22.162551247192678 ], [ 96.073954373269913, 22.057611804701867 ], [ 96.063960140651744, 22.012637757920093 ], [ 96.046470233569934, 21.912695431738367 ] ] ] } },
{ "type": "Feature", "properties": { "fid": 13 }, "geometry": { "type": "MultiLineString", "coordinates": [ [ [ 96.073954373269913, 22.022631990538265 ], [ 96.203879397306153, 22.017634874229177 ], [ 96.283833258251533, 22.030127665001892 ], [ 96.353792886578745, 22.070104595474582 ], [ 96.411259724133231, 22.082597386247297 ], [ 96.493712143233154, 22.090093060710927 ], [ 96.556176097096738, 22.125072874874533 ], [ 96.656118423278457, 22.220018084747174 ], [ 96.70608958636933, 22.304969062001639 ], [ 96.761057865769274, 22.332453201701615 ], [ 96.865997308260091, 22.342447434319784 ], [ 96.943452611050915, 22.409908504492449 ], [ 96.980930983369063, 22.509850830674175 ], [ 97.04589349538719, 22.574813342692291 ], [ 97.120850240023486, 22.617288831319524 ], [ 97.250775264059726, 22.627283063937696 ], [ 97.308242101614212, 22.637277296555869 ], [ 97.353216148395987, 22.679752785183101 ], [ 97.438167125650452, 22.732222506428506 ], [ 97.550602242604896, 22.812176367373887 ], [ 97.640550336168445, 22.89462878647381 ], [ 97.695518615568389, 22.957092740337387 ], [ 97.817947965141002, 22.97458264741919 ] ] ] } },
{ "type": "Feature", "properties": { "fid": 14 }, "geometry": { "type": "MultiLineString", "coordinates": [ [ [ 97.610567638313924, 22.892130228319267 ], [ 97.578086382304861, 22.957092740337387 ], [ 97.49813252135948, 23.037046601282768 ], [ 97.405685869641388, 23.087017764373631 ], [ 97.370706055477783, 23.174467299782638 ] ] ] } },
{ "type": "Feature", "properties": { "fid": 15 }, "geometry": { "type": "MultiLineString", "coordinates": [ [ [ 97.405685869641388, 22.717231157501249 ], [ 97.398190195177762, 22.769700878746654 ], [ 97.340723357623261, 22.86964320492838 ], [ 97.230786798823374, 22.957092740337387 ] ] ] } },
{ "type": "Feature", "properties": { "fid": 16 }, "geometry": { "type": "MultiLineString", "coordinates": [ [ [ 97.430178571550925, 25.408573569652212 ], [ 97.312746338287397, 25.456046174588533 ], [ 97.24778382626927, 25.45354761643399 ], [ 97.192815546869326, 25.4135706859613 ], [ 97.130351593005756, 25.383587988106783 ], [ 97.05539484836946, 25.37359375548861 ], [ 96.950455405878643, 25.383587988106783 ], [ 96.90797991725141, 25.358602406561349 ], [ 96.880495777551445, 25.323622592397747 ], [ 96.803040474760607, 25.253662964070539 ], [ 96.748072195360649, 25.226178824370567 ], [ 96.695602474115248, 25.183703335743331 ], [ 96.660622659951642, 25.158717754197902 ], [ 96.605654380551698, 25.116242265570673 ], [ 96.583167357160818, 25.056276869861637 ], [ 96.538193310379043, 25.011302823079863 ], [ 96.493219263597268, 24.976323008916257 ], [ 96.458239449433663, 24.95383598552537 ], [ 96.37578703033374, 24.85639221749819 ], [ 96.315821634624712, 24.771441240243725 ], [ 96.240864889988416, 24.673997472216541 ], [ 96.243363448142958, 24.604037843889333 ], [ 96.253357680761127, 24.521585424789414 ], [ 96.253357680761127, 24.469115703544006 ], [ 96.250859122606556, 24.374170493671372 ], [ 96.223374982906591, 24.304210865344164 ], [ 96.133426889343042, 24.244245469635132 ], [ 96.095948517024894, 24.209265655471526 ], [ 96.075960051788542, 24.141804585298864 ], [ 96.015994656079513, 24.05435504988985 ], [ 95.961026376679555, 23.994389654180814 ], [ 95.891066748352358, 23.959409840017209 ], [ 95.8360984689524, 23.946917049244494 ], [ 95.776133073243372, 23.939421374780864 ], [ 95.748648933543393, 23.934424258471779 ], [ 95.731159026461597, 23.894447327999089 ], [ 95.698677770452534, 23.814493467053715 ], [ 95.676190747061653, 23.76202374580831 ], [ 95.676190747061653, 23.662081419626585 ], [ 95.691182095988907, 23.59212179129938 ], [ 95.673692188907097, 23.502173697735824 ], [ 95.613726793198069, 23.419721278635901 ], [ 95.571251304570836, 23.372248673699584 ], [ 95.566254188261752, 23.319778952454179 ], [ 95.581245537189005, 23.242323649663341 ], [ 95.588741211652632, 23.159871230563422 ], [ 95.588741211652632, 23.097407276699844 ], [ 95.603732560579886, 23.019951973909006 ], [ 95.60872967688897, 22.949992345581798 ], [ 95.631216700279879, 22.817568763391016 ], [ 95.661199398134386, 22.730119227982009 ], [ 95.676190747061653, 22.627678343645741 ], [ 95.688683537834365, 22.560217273473075 ], [ 95.708672003070703, 22.445283598364092 ], [ 95.748648933543393, 22.352836946645997 ], [ 95.803617212943337, 22.287874434627877 ], [ 95.848591259725112, 22.227909038918842 ], [ 95.87607539942509, 22.172940759518895 ], [ 95.901060980970527, 22.018030153937222 ], [ 95.931043678825048, 21.945571967455471 ] ] ] } },
{ "type": "Feature", "properties": { "fid": 17 }, "geometry": { "type": "MultiLineString", "coordinates": [ [ [ 95.931043678825048, 21.945571967455471 ], [ 95.843594143416041, 22.013033037628134 ], [ 95.693680654143449, 22.015531595782679 ], [ 95.56375563010721, 22.003038805009961 ], [ 95.441326280534597, 21.988047456082704 ], [ 95.356375303280132, 22.008035921319049 ], [ 95.296409907571089, 22.063004200718996 ], [ 95.22395172108935, 22.155450852437092 ], [ 95.173980557998476, 22.230407597073384 ], [ 95.171481999843934, 22.282877318318789 ], [ 95.203963255852997, 22.355335504800539 ], [ 95.226450279243878, 22.387816760809599 ], [ 95.223951721089335, 22.490257645145867 ], [ 95.22894883739842, 22.570211506091248 ], [ 95.231447395552962, 22.64516825072754 ], [ 95.266427209716568, 22.705133646436575 ], [ 95.3089026983438, 22.760101925836523 ], [ 95.35887386143466, 22.797580298154671 ], [ 95.423836373452787, 22.837557228627361 ] ] ] } },
{ "type": "Feature", "properties": { "fid": 18 }, "geometry": { "type": "MultiLineString", "coordinates": [ [ [ 95.931043678825048, 21.945571967455471 ], [ 96.016951135373034, 21.921982064879177 ], [ 96.056928065845725, 21.90699071595192 ], [ 96.076916531082077, 21.824538296851998 ], [ 96.114394903400225, 21.734590203288445 ], [ 96.124389136018394, 21.669627691270325 ], [ 96.144377601254732, 21.574682481397687 ], [ 96.141879043100218, 21.369800712725151 ], [ 96.10440067078207, 21.214890107143479 ], [ 96.074417972927534, 21.047486710789094 ], [ 96.064423740309365, 20.925057361216481 ], [ 96.06442374030938, 20.752656848553009 ], [ 96.114394903400239, 20.577757777734991 ], [ 96.149374717563845, 20.495305358635068 ], [ 96.159368950182014, 20.417850055844234 ], [ 96.209340113272873, 20.345391869362484 ], [ 96.221832904045598, 20.260440892108019 ], [ 96.23432569481831, 20.125518751762687 ], [ 96.264308392672831, 20.003089402190078 ], [ 96.274302625291, 19.90814419231744 ], [ 96.251815601900105, 19.790711959053912 ], [ 96.291792532372781, 19.60831721377226 ], [ 96.311780997609119, 19.455905166345133 ], [ 96.326772346536387, 19.328478700463432 ], [ 96.376743509627246, 19.231034932436252 ], [ 96.426714672718106, 19.123596931790896 ], [ 96.446703137954458, 19.006164698527371 ], [ 96.509167091818043, 18.728824743373085 ], [ 96.549144022290733, 18.468974695300602 ], [ 96.591619510917965, 18.319061206028017 ], [ 96.674071930017888, 18.176643391219059 ], [ 96.774014256199607, 18.004242878555583 ], [ 96.821486861135924, 17.906799110528404 ], [ 96.808994070363212, 17.806856784346678 ], [ 96.751527232808726, 17.661940411383181 ], [ 96.67657048817243, 17.604473573828688 ], [ 96.609109417999761, 17.537012503656026 ], [ 96.546645464136191, 17.472049991637906 ], [ 96.53914978967255, 17.39709324700161 ], [ 96.529155557054381, 17.2921538045108 ], [ 96.504169975508958, 17.144738873392757 ], [ 96.404227649327225, 16.987329709656542 ], [ 96.379242067781803, 16.932361430256591 ], [ 96.329270904690929, 16.834917662229412 ], [ 96.269305508981901, 16.779949382829464 ], [ 96.23932281112738, 16.764958033902204 ] ] ] } },
{ "type": "Feature", "properties": { "fid": 19 }, "geometry": { "type": "MultiLineString", "coordinates": [ [ [ 96.541648347827092, 17.377104781765265 ], [ 96.586622394608881, 17.314640827901687 ], [ 96.629097883236113, 17.224692734338138 ], [ 96.654083464781536, 17.097266268456437 ], [ 96.656582022936078, 16.952349895492937 ], [ 96.624100766927015, 16.844911894847584 ], [ 96.581625278299782, 16.744969568665859 ], [ 96.549144022290733, 16.690001289265911 ] ] ] } },
{ "type": "Feature", "properties": { "fid": 20 }, "geometry": { "type": "MultiLineString", "coordinates": [ [ [ 96.55663969675436, 17.374606223610723 ], [ 96.634094999545198, 17.409586037774329 ], [ 96.706553186026937, 17.487041340565163 ], [ 96.76651858173598, 17.512026922110593 ], [ 96.818988302981381, 17.497035573183336 ], [ 96.89644360577222, 17.474548549792448 ], [ 96.968901792253973, 17.407087479619783 ], [ 97.048855653199354, 17.314640827901687 ], [ 97.156293653844699, 17.21969561802905 ], [ 97.233748956635537, 17.172223013092733 ], [ 97.27622444526277, 17.107260501074609 ], [ 97.283720119726397, 16.989828267811085 ], [ 97.296212910499108, 16.914871523174792 ], [ 97.348682631744524, 16.819926313302155 ], [ 97.438630725308059, 16.699995521884084 ], [ 97.496097562862559, 16.630035893556876 ], [ 97.543570167798876, 16.570070497847841 ] ] ] } },
{ "type": "Feature", "properties": { "fid": 21 }, "geometry": { "type": "MultiLineString", "coordinates": [ [ [ 97.646011052135123, 16.467629613511573 ], [ 97.656005284753292, 16.340203147629875 ], [ 97.673495191835102, 16.202782449130002 ], [ 97.670996633680559, 16.082851657711934 ], [ 97.683489424453271, 15.995402122302925 ], [ 97.725964913080503, 15.94293240105752 ], [ 97.770938959862278, 15.910451145048459 ], [ 97.785930308789546, 15.800514586248562 ], [ 97.793425983253172, 15.673088120366865 ], [ 97.798423099562257, 15.530670305557907 ], [ 97.828405797416778, 15.428229421221639 ], [ 97.875878402353095, 15.313295746112656 ], [ 97.905861100207602, 15.263324583021793 ] ] ] } },
{ "type": "Feature", "properties": { "fid": 22 }, "geometry": { "type": "MultiLineString", "coordinates": [ [ [ 96.226000420967438, 16.80339776551028 ], [ 96.216006188349269, 16.868360277528399 ], [ 96.191020606803832, 16.924577836005618 ], [ 96.139800164635702, 16.998285301564643 ], [ 96.12730737386299, 17.033265115728245 ], [ 96.118562420322078, 17.164439418841759 ], [ 96.086081164313029, 17.253138233328038 ], [ 96.039857838453983, 17.333092094273418 ], [ 95.966150372894958, 17.423040187836971 ], [ 95.916179209804099, 17.47301135092783 ], [ 95.87745155840868, 17.552965211873211 ], [ 95.861210930404141, 17.62417411927769 ], [ 95.823732558085979, 17.80157174825025 ], [ 95.818735441776894, 17.896516958122888 ], [ 95.792500581154187, 18.055175400936378 ], [ 95.76751499960875, 18.22382807636804 ], [ 95.703801766667908, 18.382486519181526 ], [ 95.633842138340697, 18.473683891822347 ], [ 95.565131789090771, 18.594863962317689 ], [ 95.486427207222661, 18.734783218972105 ], [ 95.412719741663622, 18.792250056526594 ], [ 95.354003625031851, 18.805992126376584 ] ] ] } },
{ "type": "Feature", "properties": { "fid": 23 }, "geometry": { "type": "MultiLineString", "coordinates": [ [ [ 95.82225391917811, 17.801845028048408 ], [ 95.739801500078187, 17.774360888348433 ], [ 95.699824569605497, 17.726888283412116 ], [ 95.662346197287349, 17.689409911093968 ], [ 95.599882243423778, 17.66692288770308 ], [ 95.534919731405651, 17.599461817530418 ], [ 95.449968754151186, 17.564482003366813 ], [ 95.372513451360348, 17.527003631048668 ], [ 95.272571125178615, 17.412069955939682 ], [ 95.220101403933214, 17.314626187912502 ], [ 95.182623031615066, 17.232173768812579 ], [ 95.180124473460523, 17.142225675249026 ], [ 95.170130240842354, 17.047280465376389 ], [ 95.105167728824227, 16.9148568831856 ], [ 95.015219635260678, 16.837401580394765 ], [ 94.930268658006213, 16.77743618468573 ], [ 94.837822006288121, 16.767441952067557 ] ] ] } },
{ "type": "Feature", "properties": { "fid": 24 }, "geometry": { "type": "MultiLineString", "coordinates": [ [ [ 95.594885127114679, 17.664424329548531 ], [ 95.537418289560179, 17.706899818175764 ], [ 95.427481730760292, 17.714395492639394 ], [ 95.375012009514876, 17.739381074184823 ], [ 95.362519218742165, 17.839323400366549 ], [ 95.375012009514876, 18.02421670380274 ], [ 95.404994707369397, 18.179127309384413 ], [ 95.404994707369397, 18.261579728484335 ] ] ] } },
{ "type": "Feature", "properties": { "fid": 25 }, "geometry": { "type": "MultiLineString", "coordinates": [ [ [ 96.246354885933414, 19.768932535140376 ], [ 96.193885164687998, 19.698972906813172 ], [ 96.118928420051702, 19.661494534495024 ], [ 95.961519256315498, 19.681482999731369 ], [ 95.806608650733821, 19.758938302522203 ], [ 95.689176417470293, 19.881367652094816 ], [ 95.654196603306687, 20.046272490294662 ], [ 95.554254277124969, 20.22866723557631 ], [ 95.506781672188652, 20.361090817767096 ], [ 95.441819160170525, 20.506007190730596 ], [ 95.331882601370623, 20.605949516912318 ], [ 95.244433065961616, 20.673410587084984 ], [ 95.134496507161714, 20.89328370468478 ] ] ] } },
{ "type": "Feature", "properties": { "fid": 26 }, "geometry": { "type": "MultiLineString", "coordinates": [ [ [ 96.990925215987232, 20.835816867130287 ], [ 96.913469913196394, 20.778350029575797 ], [ 96.816026145169218, 20.733375982794019 ], [ 96.693596795596605, 20.723381750175847 ], [ 96.628634283578478, 20.693399052321329 ], [ 96.553677538942196, 20.658419238157727 ], [ 96.476222236151358, 20.653422121848642 ], [ 96.371282793660541, 20.725880308330392 ], [ 96.25135200224247, 20.825822634512114 ], [ 96.123925536360773, 20.888286588375692 ], [ 96.066458698806287, 20.898280820993865 ], [ 95.984006279706364, 20.890785146530238 ], [ 95.891559627988272, 20.880790913912065 ], [ 95.784121627342913, 20.98323179824833 ], [ 95.714161999015701, 21.085672682584597 ], [ 95.621715347297609, 21.205603474002668 ], [ 95.541761486352229, 21.24058328816627 ], [ 95.471801858025017, 21.283058776793503 ], [ 95.404340787852362, 21.373006870357052 ], [ 95.389349438925095, 21.465453522075148 ], [ 95.389349438925095, 21.490439103620581 ], [ 95.444317718325053, 21.502931894393296 ], [ 95.536764370043144, 21.50792901070238 ], [ 95.654196603306673, 21.510427568856926 ], [ 95.706666324552074, 21.517923243320553 ], [ 95.704167766397532, 21.602874220575018 ], [ 95.749141813179307, 21.667836732593141 ], [ 95.736649022406596, 21.747790593538522 ], [ 95.766631720261117, 21.800260314783927 ], [ 95.851582697515582, 21.837738687102075 ], [ 95.931536558460962, 21.840237245256617 ], [ 96.016487535715427, 21.862724268647504 ], [ 96.061461582497202, 21.862724268647504 ] ] ] } },
{ "type": "Feature", "properties": { "fid": 27 }, "geometry": { "type": "MultiLineString", "coordinates": [ [ [ 96.106435629278977, 22.232510875519885 ], [ 96.08145004773354, 22.162551247192678 ], [ 96.073954373269913, 22.057611804701867 ], [ 96.063960140651744, 22.012637757920093 ], [ 96.046470233569934, 21.912695431738367 ] ] ] } },
{ "type": "Feature", "properties": { "fid": 28 }, "geometry": { "type": "MultiLineString", "coordinates": [ [ [ 96.073954373269913, 22.022631990538265 ], [ 96.203879397306153, 22.017634874229177 ], [ 96.283833258251533, 22.030127665001892 ], [ 96.353792886578745, 22.070104595474582 ], [ 96.411259724133231, 22.082597386247297 ], [ 96.493712143233154, 22.090093060710927 ], [ 96.556176097096738, 22.125072874874533 ], [ 96.656118423278457, 22.220018084747174 ], [ 96.70608958636933, 22.304969062001639 ], [ 96.761057865769274, 22.332453201701615 ], [ 96.865997308260091, 22.342447434319784 ], [ 96.943452611050915, 22.409908504492449 ], [ 96.980930983369063, 22.509850830674175 ], [ 97.04589349538719, 22.574813342692291 ], [ 97.120850240023486, 22.617288831319524 ], [ 97.250775264059726, 22.627283063937696 ], [ 97.308242101614212, 22.637277296555869 ], [ 97.353216148395987, 22.679752785183101 ], [ 97.438167125650452, 22.732222506428506 ], [ 97.550602242604896, 22.812176367373887 ], [ 97.640550336168445, 22.89462878647381 ], [ 97.695518615568389, 22.957092740337387 ], [ 97.817947965141002, 22.97458264741919 ] ] ] } },
{ "type": "Feature", "properties": { "fid": 29 }, "geometry": { "type": "MultiLineString", "coordinates": [ [ [ 97.610567638313924, 22.892130228319267 ], [ 97.578086382304861, 22.957092740337387 ], [ 97.49813252135948, 23.037046601282768 ], [ 97.405685869641388, 23.087017764373631 ], [ 97.370706055477783, 23.174467299782638 ] ] ] } },
{ "type": "Feature", "properties": { "fid": 30 }, "geometry": { "type": "MultiLineString", "coordinates": [ [ [ 97.405685869641388, 22.717231157501249 ], [ 97.398190195177762, 22.769700878746654 ], [ 97.340723357623261, 22.86964320492838 ], [ 97.230786798823374, 22.957092740337387 ] ] ] } }
]
}
