{"type":"FeatureCollection","name":"french-indochina-1941-ceded","crs":{"type":"name","properties":{"name":"urn:ogc:def:crs:OGC:1.3:CRS84"}},"source":"Traced from the 1945 OSS map held at Stanford as bv890bn4231","note":"The 1941 cession, one outline per protectorate it came out of.","features":[{"type":"Feature","properties":{"name":"Cambodia","year":1941,"note":"Ceded to Thailand in May 1941 and returned in 1946."},"geometry":{"type":"MultiPolygon","coordinates":[[[[103.8349591,13.5616064],[103.8774346,13.5716006],[103.9398986,13.5616064],[103.9898697,13.5441165],[104.0348438,13.5291251],[104.0748829,13.5304313],[105.1849979,13.5270923],[105.1663124,13.5831488],[105.1850794,13.527092],[105.9130031,13.5307133],[105.9479829,13.5681917],[105.9779656,13.6481455],[105.9779656,13.7056123],[105.9579772,13.7330965],[105.9354901,13.7655777],[105.9404872,13.8105518],[105.9704699,13.8580244],[105.9491708,13.9195908],[105.9245728,13.9171103],[105.8996648,13.9226138],[105.8955806,13.9247987],[105.8730514,13.9368507],[105.7871135,14.0101537],[105.7701636,14.0347],[105.7588982,14.0624761],[105.7440153,14.0869449],[105.7160067,14.1015435],[105.7051547,14.1020086],[105.6836573,14.0988563],[105.6693429,14.1004066],[105.6532715,14.107047],[105.6431429,14.1134549],[105.632911,14.1140233],[105.6172531,14.1029904],[105.6098633,14.1207413],[105.5945671,14.1363476],[105.576532,14.1440215],[105.5613908,14.1381562],[105.5555514,14.1460886],[105.5489368,14.1531166],[105.541237,14.1591885],[105.5331755,14.1643303],[105.5052702,14.145055],[105.4904908,14.136916],[105.473851,14.1325235],[105.4500798,14.1171498],[105.4221745,14.1078738],[105.3924606,14.1037397],[105.3640902,14.1040498],[105.3478638,14.1060652],[105.3377869,14.1099926],[105.329467,14.1175632],[105.3039388,14.1523931],[105.2966008,14.1568373],[105.2821831,14.1612556],[105.2753101,14.1648213],[105.2569133,14.1824429],[105.1974337,14.2702929],[105.1879769,14.2910151],[105.1842562,14.3141662],[105.1843079,14.3457405],[105.1550074,14.3304701],[105.1322181,14.2807057],[105.1014189,14.2305279],[105.0473137,14.2140689],[105.0253512,14.2243784],[105.0077295,14.2438345],[104.9759485,14.3011179],[104.9742949,14.3096445],[104.9789974,14.3549647],[104.9787391,14.3685039],[104.9738298,14.3806479],[104.9551229,14.3862806],[104.915621,14.3932168],[104.8981755,14.39628],[104.8902173,14.4002333],[104.8742493,14.4105685],[104.8665495,14.4137725],[104.8573511,14.4141342],[104.8384892,14.411447],[104.8314095,14.4117571],[104.8150798,14.4198445],[104.8018506,14.4300764],[104.7882597,14.4382154],[104.7716716,14.4398691],[104.7579257,14.4330478],[104.7279533,14.4099484],[104.7128638,14.4068478],[104.7061976,14.412248],[104.7010299,14.4300764],[104.692865,14.433978],[104.6846485,14.4305673],[104.6747266,14.414651],[104.6683704,14.4096384],[104.6513689,14.4089149],[104.6265642,14.419276],[104.6104411,14.418966],[104.5946281,14.4100001],[104.583466,14.3958149],[104.5738542,14.3805445],[104.5627955,14.3684781],[104.5428483,14.3603907],[104.5265186,14.363543],[104.510809,14.3705451],[104.4926189,14.3740075],[104.4819735,14.3712169],[104.473912,14.3656876],[104.4675041,14.3600807],[104.4619747,14.3571093],[104.4585083,14.3570422],[104.4526213,14.3569284],[104.4460067,14.3586854],[104.4391854,14.3614243],[104.3253939,14.3776248],[104.271237,14.3990705],[104.2474659,14.4010859],[104.2323763,14.3931277],[104.2191472,14.38287],[104.2012671,14.3779866],[104.1891748,14.3823015],[104.1834904,14.3914224],[104.1825603,14.4003624],[104.1856608,14.4039798],[104.1770309,14.4042123],[104.1748088,14.4013443],[104.1732585,14.3960216],[104.1484538,14.369615],[104.1409091,14.3659976],[104.1283517,14.3663594],[104.121272,14.3714753],[104.116156,14.3774698],[104.1102133,14.3804412],[104.0737297,14.3707519],[104.0457242,14.3572855],[104.045064,14.356968],[104.0359542,14.3525876],[104.0013827,14.3450687],[103.9739942,14.3672895],[103.9198373,14.3645765],[103.9105355,14.3562566],[103.9080034,14.3483243],[103.9027841,14.3424332],[103.8851624,14.3404178],[103.8703313,14.34326],[103.8591691,14.3496162],[103.8492473,14.3570834],[103.8384469,14.363388],[103.8240292,14.3680388],[103.8155026,14.3679613],[103.807286,14.3659976],[103.7942119,14.3648349],[103.7752466,14.3669795],[103.7165422,14.3815264],[103.682229,14.3838002],[103.674891,14.3864873],[103.6716871,14.3956082],[103.6738575,14.4193277],[103.6714803,14.4295596],[103.6653825,14.4359417],[103.657166,14.441161],[103.6471924,14.4439774],[103.6370638,14.4432797],[103.627452,14.437802],[103.6244548,14.4305673],[103.6229045,14.42248],[103.6168067,14.4145476],[103.5961361,14.4043415],[103.581615,14.4074163],[103.5681275,14.4159429],[103.5502474,14.4218598],[103.5334009,14.4190693],[103.4948503,14.399949],[103.4570232,14.3744209],[103.4496851,14.3715787],[103.4392465,14.3728706],[103.431495,14.3775215],[103.426224,14.3825082],[103.4225033,14.3848337],[103.4080856,14.3808029],[103.380232,14.3610625],[103.3628687,14.3534661],[103.3413713,14.3509081],[103.2736752,14.3510631],[103.2432776,14.3419313],[103.1985893,14.3285064],[103.1382312,14.3197472],[103.1180258,14.313236],[103.0850045,14.295821],[103.0169296,14.2388725],[103.0048544,14.2287709],[102.9878011,14.219004],[102.9509042,14.2086429],[102.9340577,14.2009689],[102.9186064,14.1854918],[102.9140072,14.169343],[102.9139296,14.1649463],[102.9136971,14.151773],[102.9112684,14.1321101],[102.9040853,14.115987],[102.8832597,14.0869449],[102.8762317,14.0713128],[102.8728728,14.0483684],[102.8733379,14.0334081],[102.8697722,14.0206182],[102.8549927,14.0040042],[102.7974252,13.9600017],[102.7728272,13.9360755],[102.7543787,13.9041137],[102.7371705,13.849595],[102.7291089,13.8321542],[102.7112806,13.8103985],[102.7064747,13.8019494],[102.7039942,13.7917691],[102.7026506,13.7712019],[102.6986198,13.7617968],[102.674952,13.7419013],[102.5743897,13.6938939],[102.5423503,13.6697094],[102.5410584,13.6485995],[102.5625041,13.6280323],[102.5977474,13.6054497],[102.5795573,13.6004888],[102.5325318,13.5738238],[102.5132048,13.5671575],[102.4522266,13.5621707],[102.3713013,13.5689145],[102.3322339,13.5645995],[102.3134237,13.5410092],[102.3147673,13.530338],[102.325516,13.5134398],[102.3293917,13.5043448],[102.3301152,13.4963608],[102.3295283,13.4846029],[102.3293917,13.4818655],[102.3336292,13.4062629],[102.3270663,13.3454398],[102.3282032,13.2751598],[102.3291868,13.272629],[102.38205,13.1366153],[102.4018938,13.1029998],[102.4472657,13.0508066],[102.463182,13.019284],[102.4731556,13.0061323],[102.4901571,12.9960812],[102.4900968,12.9951876],[102.4897437,12.9899576],[102.4866431,12.9847899],[102.4813721,12.9805525],[102.4740857,12.976961],[102.4688147,12.9733953],[102.4672128,12.9694679],[102.4690731,12.9652304],[102.4775997,12.9572981],[102.4788916,12.953629],[102.4775997,12.9499342],[102.4662826,12.9379194],[102.4648357,12.9275325],[102.4678846,12.9163445],[102.4740857,12.9052599],[102.4792017,12.8821089],[102.4833358,12.8437908],[102.4897437,12.8230944],[102.4955315,12.8126816],[102.5004924,12.8065062],[102.5043164,12.7997366],[102.5066419,12.7875152],[102.5055567,12.7777742],[102.4952731,12.7460965],[102.4951961,12.7460298],[102.4827157,12.7352186],[102.4779615,12.7196382],[102.4766696,12.6984508],[102.4792534,12.6771085],[102.4863847,12.6611921],[102.4958771,12.6541525],[102.5017843,12.6497716],[102.5586284,12.6312198],[102.588549,12.6098257],[102.6648234,12.5342231],[102.6897315,12.519702],[102.6967595,12.5130875],[102.7004802,12.5048709],[102.7021338,12.4881277],[102.704821,12.4803246],[102.7184119,12.4659069],[102.7506063,12.4490087],[102.7620785,12.4360896],[102.7637509,12.4252615],[102.7651274,12.4163492],[102.7564974,12.4022415],[102.8371219,12.352809],[102.8746002,12.3902874],[102.9220728,12.460247],[102.972044,12.4877312],[103.124456,12.5102182],[103.2144041,12.5402009],[103.2618767,12.5127167],[103.3418306,12.4952268],[103.4742542,12.545198],[103.5342196,12.5901721],[103.5467124,12.6701259],[103.5242254,12.7925553],[103.5617037,12.845025],[103.5841907,12.9324745],[103.6091763,12.9924399],[103.661646,13.0224226],[103.7116172,13.0623995],[103.7391014,13.1498491],[103.7720804,13.2209994],[103.7425125,13.3367362],[103.7375154,13.456667],[103.7674981,13.5091367],[103.8349591,13.5616064]]]]}},{"type":"Feature","properties":{"name":"Laos","year":1941,"note":"Ceded to Thailand in May 1941 and returned in 1946."},"geometry":{"type":"MultiPolygon","coordinates":[[[[101.5753207,19.8385576],[101.4503928,19.8185691],[101.3704389,19.8085749],[101.2305197,19.8085749],[101.1505658,19.8235662],[101.1005947,19.9185114],[101.0456264,19.8535489],[101.0006523,19.8385576],[100.9107042,19.8635432],[100.8307504,19.8935259],[100.7358052,19.9484941],[100.7008254,19.8935259],[100.6158744,19.8285633],[100.5609061,19.8485518],[100.5659032,19.9235086],[100.5908888,20.0084595],[100.5433509,20.0665799],[100.5185462,19.9954214],[100.4926563,19.9316527],[100.4879537,19.8969778],[100.4839747,19.8806998],[100.4742595,19.8653519],[100.4656295,19.8597708],[100.4462509,19.8521227],[100.4384477,19.8472134],[100.4314197,19.8382734],[100.420516,19.8104457],[100.4076585,19.7942571],[100.3835157,19.7638594],[100.3791748,19.7456693],[100.3838257,19.7320008],[100.3900482,19.724387],[100.4004655,19.7116403],[100.4072351,19.6999356],[100.4104908,19.6842518],[100.4129196,19.6515665],[100.4188623,19.6343582],[100.4270789,19.6218008],[100.4474911,19.5977713],[100.4555526,19.5846713],[100.4589633,19.5680574],[100.4589633,19.551831],[100.4619605,19.5371032],[100.4742595,19.524985],[100.4918295,19.5144689],[100.5206132,19.5026092],[100.5492937,19.4945476],[100.5666569,19.4956328],[100.5747579,19.5083474],[100.5859839,19.5259669],[100.6070162,19.5409272],[100.6332679,19.5421675],[100.7147616,19.5124535],[100.729231,19.5046504],[100.738171,19.4950386],[100.7455091,19.4850133],[100.7530022,19.4824295],[100.762614,19.4954778],[100.808451,19.5365347],[100.849017,19.5825268],[100.8612126,19.602603],[100.8650367,19.6071506],[100.8745968,19.6129125],[100.8798161,19.6135843],[100.8856556,19.6124474],[100.9742806,19.6134809],[101.0025476,19.6106129],[101.0243034,19.6028614],[101.0682284,19.5771266],[101.0958236,19.5672822],[101.1246591,19.5651118],[101.1526677,19.5683674],[101.1768523,19.5747495],[101.1883244,19.5807439],[101.1973161,19.5868676],[101.2079615,19.5895547],[101.2250147,19.5852139],[101.2382439,19.5781859],[101.246202,19.5702794],[101.2510596,19.5603059],[101.2548837,19.5471542],[101.2569507,19.5227888],[101.2517314,19.4944443],[101.2382439,19.4723009],[101.2152995,19.4663581],[101.1928719,19.4527931],[101.1777824,19.4172138],[101.1723564,19.3763895],[101.1784542,19.3466238],[101.1850171,19.3419988],[101.201967,19.3386657],[101.2077548,19.3346866],[101.2112688,19.3263667],[101.210907,19.3206306],[101.2092534,19.3155921],[101.2095118,19.3094168],[101.2298723,19.2258043],[101.2267717,19.1671516],[101.2291488,19.1435871],[101.2357117,19.12811],[101.2474423,19.1157852],[101.2911605,19.0789916],[101.3178772,19.0501303],[101.3264039,19.0205456],[101.2839258,18.9814782],[101.2770012,18.9670604],[101.267286,18.9344526],[101.2572608,18.9194923],[101.2329212,18.8927239],[101.2249113,18.8747663],[101.2233094,18.855491],[101.228632,18.7956239],[101.2239812,18.7785448],[101.2092017,18.7463246],[101.2058427,18.7300723],[101.2112688,18.7119081],[101.2347815,18.6894805],[101.2401042,18.6736417],[101.2347299,18.6584488],[101.2219141,18.6420415],[101.1941122,18.6167976],[101.1853272,18.6125343],[101.1677572,18.6063589],[101.1608842,18.599796],[101.1581454,18.5899775],[101.1591272,18.567705],[101.1553549,18.5567237],[101.142074,18.5442956],[101.0778919,18.5104217],[101.0738094,18.5057708],[101.0719491,18.495668],[101.0647144,18.4764186],[101.0356206,18.4478415],[101.0302979,18.427791],[101.0370158,18.4104536],[101.0510201,18.3924702],[101.0740888,18.3716131],[101.0822844,18.3642032],[101.1455363,18.3362462],[101.1554065,18.3228879],[101.1524093,18.3163766],[101.1354078,18.2983933],[101.1301368,18.2911586],[101.1279663,18.2809525],[101.1283798,18.245735],[101.1317387,18.238862],[101.1396452,18.2187082],[101.1455363,18.2129979],[101.152771,18.2090705],[101.1592823,18.2040579],[101.1627963,18.1952988],[101.1605225,18.1795116],[101.1456397,18.1419429],[101.1416089,18.1239595],[101.1449679,18.1047358],[101.1620728,18.0674513],[101.1651734,18.0534211],[101.1575253,18.0404503],[101.1254342,18.0213301],[101.1123084,18.0113048],[101.0948934,17.9843814],[101.0819743,17.9583365],[101.0661613,17.9339969],[101.0398064,17.9120344],[101.0082837,17.8952396],[101.0008423,17.8848009],[100.9971216,17.8645954],[101.0002739,17.830489],[100.9947962,17.8177249],[100.9742806,17.80925],[100.9670459,17.803824],[100.9651856,17.7976228],[100.9677177,17.7910082],[100.9742806,17.7839802],[100.9752108,17.7819131],[100.9755209,17.7797944],[100.9752108,17.777624],[100.9742806,17.7755053],[100.9648755,17.770596],[100.958571,17.7641365],[100.9564006,17.7559199],[100.958726,17.7457913],[100.9606897,17.7255858],[100.9558777,17.7075318],[100.9538168,17.6997993],[100.9329395,17.6545307],[100.8994532,17.616962],[100.8856556,17.595878],[100.8860173,17.5737605],[100.9019336,17.5619266],[100.9377384,17.5554864],[100.9815153,17.5476122],[101.0008423,17.5382071],[101.0190324,17.5266316],[101.0354655,17.5126273],[101.0493148,17.4957291],[101.0661613,17.4922151],[101.0960303,17.4752652],[101.1246591,17.4639481],[101.1288965,17.4611575],[101.1323072,17.4616743],[101.1418156,17.467152],[101.14719,17.4724747],[101.1642432,17.4957291],[101.1667237,17.5106119],[101.1769556,17.5163996],[101.1902881,17.5187251],[101.2021737,17.5231693],[101.2085299,17.5312825],[101.228632,17.5684895],[101.2470289,17.5921573],[101.3573064,17.6790254],[101.3698637,17.6831595],[101.3774602,17.6826427],[101.3837647,17.6849165],[101.4015931,17.7066723],[101.4030917,17.7094628],[101.4040219,17.7155606],[101.3987509,17.7171626],[101.3883639,17.7177827],[101.3819043,17.7207283],[101.3880022,17.7293065],[101.4018514,17.7337507],[101.4169926,17.7323554],[101.4320305,17.7335957],[101.4452596,17.7457913],[101.4498072,17.7492536],[101.4534762,17.7510106],[101.45606,17.7501838],[101.4573519,17.7457913],[101.4591089,17.7394868],[101.4683073,17.7203665],[101.4704261,17.7225886],[101.4741984,17.7305985],[101.4790044,17.7379882],[101.4829834,17.7457913],[101.5027238,17.7653767],[101.5365202,17.7791226],[101.5562606,17.7921451],[101.5340398,17.80956],[101.4304043,17.8946793],[101.4104159,17.9496476],[101.4104159,18.0595842],[101.3904274,18.1295438],[101.4354015,18.2144948],[101.5103582,18.2744602],[101.5803178,18.3444198],[101.6852573,18.4093823],[101.7402255,18.4843391],[101.7901967,18.5742872],[101.8151823,18.6642352],[101.8401679,18.8141487],[101.7901967,18.8791112],[101.8001909,18.9690593],[101.8151823,19.0989844],[101.8201794,19.2688863],[101.8401679,19.3888171],[101.8201794,19.4437854],[101.7652111,19.5087479],[101.7652111,19.6086902],[101.8101852,19.6536643],[101.8751477,19.7136297],[101.9551015,19.7835893],[102.0200641,19.8485518],[102.1349977,19.8935259],[102.1849689,19.9384999],[102.189966,20.0034624],[102.144992,20.0484365],[102.0500468,20.0484365],[101.9401102,19.9984653],[101.8301736,19.9634855],[101.7252342,19.9484941],[101.71524,19.9335028],[101.6452803,19.8635432],[101.5753207,19.8385576]]],[[[105.4500798,14.1171498],[105.473851,14.1325235],[105.4904908,14.136916],[105.5052702,14.145055],[105.5331755,14.1643303],[105.541237,14.1591885],[105.5489368,14.1531166],[105.5555514,14.1460886],[105.5613908,14.1381562],[105.576532,14.1440215],[105.5945671,14.1363476],[105.6098633,14.1207413],[105.6172531,14.1029904],[105.632911,14.1140233],[105.6431429,14.1134549],[105.6532715,14.107047],[105.6693429,14.1004066],[105.6836573,14.0988563],[105.7051547,14.1020086],[105.7160067,14.1015435],[105.7202386,14.0993378],[105.8353526,14.2565667],[105.8553411,14.3615061],[105.8403497,14.4914312],[105.8553411,14.6263533],[105.8853238,14.7512812],[105.850344,14.8462264],[105.8603382,14.9661572],[105.8153641,15.0611024],[105.6854391,15.1610447],[105.5614942,15.3209006],[105.5648015,15.2994549],[105.5639747,15.2725314],[105.5602539,15.2709295],[105.5315735,15.2528944],[105.5039266,15.2310611],[105.4631023,15.1894357],[105.4544206,15.1755348],[105.4477027,15.1553034],[105.4437753,15.1338061],[105.4436202,15.1113526],[105.4519401,15.0947645],[105.473851,15.0906304],[105.4982939,15.0661358],[105.5035649,15.0648955],[105.5165357,15.0671435],[105.5208765,15.0661358],[105.5231503,15.0611748],[105.5228402,15.0500386],[105.5242872,15.0459561],[105.553536,15.0053384],[105.5661451,14.9959333],[105.5663518,14.9959333],[105.5664551,14.9959333],[105.5930685,14.9907915],[105.58356,14.9775882],[105.5439242,14.9530936],[105.5341573,14.934025],[105.5506421,14.9022956],[105.5430457,14.8801006],[105.5376197,14.8780335],[105.52191,14.8787053],[105.5177759,14.8776718],[105.5158639,14.8716773],[105.5169491,14.8565362],[105.5240804,14.8425318],[105.5243905,14.837235],[105.5200497,14.8334626],[105.5062004,14.8304137],[105.5015495,14.827339],[105.4938497,14.8089938],[105.4891472,14.7863337],[105.4906975,14.7638028],[105.5015495,14.7459486],[105.5051152,14.7363626],[105.4973637,14.6904223],[105.4957618,14.6598815],[105.5101278,14.5935806],[105.507544,14.5640475],[105.4954517,14.5371241],[105.4636707,14.4959638],[105.4403646,14.475345],[105.4338534,14.4679294],[105.4288925,14.4581625],[105.4203142,14.4352182],[105.4159733,14.4281644],[105.4056897,14.4230484],[105.3792314,14.4182425],[105.3676559,14.4145476],[105.359646,14.4082689],[105.3408358,14.3901047],[105.3350997,14.3857122],[105.3222323,14.386384],[105.3046623,14.398192],[105.2947404,14.3990705],[105.2877124,14.3932828],[105.2757235,14.3720954],[105.2685922,14.3643698],[105.2504537,14.3571868],[105.1982089,14.3452237],[105.1843079,14.3457405],[105.1842562,14.3141662],[105.1879769,14.2910151],[105.1974337,14.2702929],[105.2569133,14.1824429],[105.2753101,14.1648213],[105.2821831,14.1612556],[105.2966008,14.1568373],[105.3039388,14.1523931],[105.329467,14.1175632],[105.3377869,14.1099926],[105.3478638,14.1060652],[105.3640902,14.1040498],[105.3924606,14.1037397],[105.4221745,14.1078738],[105.4500798,14.1171498]]]]}}]}
